{"version": 0.6, "generator": "Overpass API 0.7.62.1 084b4234", "osm3s": {"timestamp_osm_base": "2024-05-15T20:14:00Z", "copyright": "The data included in this document is from www.openstreetmap.org. The data is made available under ODbL."}, "elements": [{"type": "node", "id": 1797909722, "lat": 48.6944058, "lon": 44.4661482}, {"type": "node", "id": 1797909726, "lat": 48.6943935, "lon": 44.4664201}, {"type": "node", "id": 1797909741, "lat": 48.6944896, "lon": 44.4662815}, {"type": "node", "id": 1797909745, "lat": 48.6943097, "lon": 44.4662868}, {"type": "node", "id": 1897970355, "lat": 48.6914567, "lon": 44.4615102}, {"type": "node", "id": 1897970361, "lat": 48.6915368, "lon": 44.4613933}, {"type": "node", "id": 1897970363, "lat": 48.6916204, "lon": 44.461791}, {"type": "node", "id": 1897970364, "lat": 48.691697, "lon": 44.4616741}, {"type": "node", "id": 1972443188, "lat": 48.6524371, "lon": 44.4417158}, {"type": "node", "id": 1972443189, "lat": 48.6523608, "lon": 44.4414701}, {"type": "node", "id": 1972443224, "lat": 48.6531186, "lon": 44.4419467}, {"type": "node", "id": 1972443225, "lat": 48.6531469, "lon": 44.4417703}, {"type": "node", "id": 1972447446, "lat": 48.6523275, "lon": 44.4416743}, {"type": "node", "id": 3456859640, "lat": 48.6951642, "lon": 44.4415662}, {"type": "node", "id": 3456859641, "lat": 48.6952136, "lon": 44.4413867}, {"type": "node", "id": 3456859642, "lat": 48.6952782, "lon": 44.4416382}, {"type": "node", "id": 3456859643, "lat": 48.6953275, "lon": 44.4414586}, {"type": "node", "id": 3665760464, "lat": 48.750689, "lon": 44.4743158}, {"type": "node", "id": 3665760465, "lat": 48.750741, "lon": 44.4744902}, {"type": "node", "id": 3665760468, "lat": 48.750874, "lon": 44.474189}, {"type": "node", "id": 3665760470, "lat": 48.750926, "lon": 44.4743634}, {"type": "node", "id": 6945967142, "lat": 48.6524425, "lon": 44.4416872}, {"type": "way", "id": 168541286, "nodes": [1797909741, 1797909726, 1797909745, 1797909722, 1797909741], "tags": {"addr:city": "\u0412\u043e\u043b\u0433\u043e\u0433\u0440\u0430\u0434", "addr:housenumber": "29", "addr:street": "\u0427\u0435\u0440\u0435\u043f\u043e\u0432\u0435\u0446\u043a\u0430\u044f \u0443\u043b\u0438\u0446\u0430", "building": "hotel", "building:levels": "2", "fire_rank": "1 bis", "name": "\u0433\u043e\u0441\u0442\u0438\u043d\u0438\u0446\u0430 \"Parallel\"", "tourism": "hotel"}}, {"type": "way", "id": 179422187, "nodes": [1897970364, 1897970363, 1897970355, 1897970361, 1897970364], "tags": {"addr:city": "\u0412\u043e\u043b\u0433\u043e\u0433\u0440\u0430\u0434", "addr:housenumber": "40\u0410", "addr:street": "\u0411\u0435\u043b\u043e\u0433\u043b\u0438\u043d\u0441\u043a\u0430\u044f \u0443\u043b\u0438\u0446\u0430", "building": "hotel", "building:levels": "4", "internet_access": "yes", "internet_access:fee": "no", "name": "\u041c\u0430\u0440\u0442\u043e\u043d \u0427\u0435\u0440\u0435\u043f\u043e\u0432\u0435\u0446\u043a\u0430\u044f", "name:en": "Marton Cherepovetskaja", "name:ru": "\u041c\u0430\u0440\u0442\u043e\u043d \u0427\u0435\u0440\u0435\u043f\u043e\u0432\u0435\u0446\u043a\u0430\u044f", "operator": "\u041c\u0430\u0440\u0442\u043e\u043d", "phone": "+7 800 7772155", "smoking": "no", "stars": "3", "tourism": "hotel"}}, {"type": "way", "id": 186521744, "nodes": [1972443225, 1972443224, 6945967142, 1972443188, 1972447446, 1972443189, 1972443225], "tags": {"addr:city": "\u0412\u043e\u043b\u0433\u043e\u0433\u0440\u0430\u0434", "addr:housenumber": "74", "addr:street": "\u042d\u043b\u0435\u043a\u0442\u0440\u043e\u043b\u0435\u0441\u043e\u0432\u0441\u043a\u0430\u044f \u0443\u043b\u0438\u0446\u0430", "building": "hotel", "building:levels": "2", "fire_operator": "RU-VGG-1-4", "fire_rank": "2", "name": "C\u0435\u043c\u044c \u043a\u043e\u0440\u043e\u043b\u0435\u0439", "tourism": "hotel"}}, {"type": "way", "id": 338578111, "nodes": [3456859643, 3456859642, 3456859640, 3456859641, 3456859643], "tags": {"addr:housenumber": "54", "addr:street": "\u0423\u0436\u0433\u043e\u0440\u043e\u0434\u0441\u043a\u0430\u044f \u0443\u043b\u0438\u0446\u0430", "building": "hotel", "fire_rank": "1 bis", "internet_access": "wlan", "level": "2", "name": "\u0411\u0440\u0438\u0437", "tourism": "hotel"}}, {"type": "way", "id": 362229721, "nodes": [3665760470, 3665760465, 3665760464, 3665760468, 3665760470], "tags": {"addr:housenumber": "20", "addr:street": "\u0417\u0435\u043c\u043b\u044f\u0447\u043a\u0438 - \u0418\u0433\u0430\u0440\u0441\u043a\u0430\u044f", "building": "hotel", "building:levels": "3", "fire_operator": "RU-VGG-1-21", "fire_rank": "1 \u0411\u0418\u0421", "internet_access": "wlan", "internet_access:fee": "no", "name": "\u043e\u0442\u0435\u043b\u044c \u041c\u043e\u0442\u043e\u0421\u0442\u043e\u043f", "tourism": "hotel", "website": "http://motostopvolgagosti.ru/"}}]}