{"version": 0.6, "generator": "Overpass API 0.7.62.1 084b4234", "osm3s": {"timestamp_osm_base": "2024-05-05T20:21:02Z", "copyright": "The data included in this document is from www.openstreetmap.org. The data is made available under ODbL."}, "elements": [{"type": "node", "id": 1383903418, "lat": 48.7052076, "lon": 44.5232413}, {"type": "node", "id": 1383903431, "lat": 48.7051318, "lon": 44.5229468}, {"type": "node", "id": 1383903452, "lat": 48.7050772, "lon": 44.5230212}, {"type": "node", "id": 1383903478, "lat": 48.7052846, "lon": 44.5232045}, {"type": "node", "id": 1398438271, "lat": 48.7030396, "lon": 44.5184711}, {"type": "node", "id": 1398438272, "lat": 48.7031405, "lon": 44.5187098}, {"type": "node", "id": 1398438292, "lat": 48.7030077, "lon": 44.5185113}, {"type": "node", "id": 1398438308, "lat": 48.7031121, "lon": 44.5182994}, {"type": "node", "id": 1398438324, "lat": 48.7030024, "lon": 44.5185408}, {"type": "node", "id": 1398438325, "lat": 48.7030289, "lon": 44.5185891}, {"type": "node", "id": 1398438326, "lat": 48.7030467, "lon": 44.5185972}, {"type": "node", "id": 1398438332, "lat": 48.7030112, "lon": 44.518573}, {"type": "node", "id": 1398438340, "lat": 48.7030204, "lon": 44.5184836}, {"type": "node", "id": 1398438350, "lat": 48.7032484, "lon": 44.5184818}, {"type": "node", "id": 1398438354, "lat": 48.7031493, "lon": 44.5183799}, {"type": "node", "id": 1398438369, "lat": 48.7031653, "lon": 44.518345}, {"type": "node", "id": 1409424697, "lat": 48.705287, "lon": 44.5180173, "tags": {"amenity": "cafe", "name": "\u041e\u043b\u0435"}}, {"type": "node", "id": 1409424714, "lat": 48.7054552, "lon": 44.5183139, "tags": {"addr:city": "\u0412\u043e\u043b\u0433\u043e\u0433\u0440\u0430\u0434", "addr:housenumber": "3", "addr:postcode": "400131", "addr:street": "\u0443\u043b\u0438\u0446\u0430 \u0410\u043b\u043b\u0435\u044f \u0413\u0435\u0440\u043e\u0435\u0432", "air_conditioning": "yes", "amenity": "restaurant", "cuisine": "georgian;russian", "delivery": "yes", "image": "https://avatars.mds.yandex.net/get-altay/4465274/2a0000017812483888207f7f652ebfbd4c98/XXXL", "name": "\u041d\u0430 \u0410\u043b\u043b\u0435\u0435", "name:en": "Na Alleye", "opening_hours": "Mo-Su 09:00-23:00", "outdoor_seating": "yes", "phone": "+7 844 2501375", "takeaway": "yes"}}, {"type": "node", "id": 1409435093, "lat": 48.7060747, "lon": 44.517446, "tags": {"amenity": "cafe", "name": "Hungry", "opening_hours": "Mo-Su 10:00-00:00"}}, {"type": "node", "id": 1595093557, "lat": 48.7054039, "lon": 44.5204462, "tags": {"amenity": "cafe", "name": "\u041f\u0438\u0432\u043e\u0442\u0435\u043a\u0430"}}, {"type": "node", "id": 3269450891, "lat": 48.7074553, "lon": 44.5234942, "tags": {"amenity": "cafe", "cuisine": "german", "internet_access": "wlan", "name": "Bamberg", "opening_hours": "Mo-Su 11:00-00:00", "phone": "+7 (8442) 38-84-12", "smoking": "no", "website": "https://bamberg-volgograd.ru/"}}, {"type": "node", "id": 3710174146, "lat": 48.7079382, "lon": 44.5255649, "tags": {"addr:city": "\u0412\u043e\u043b\u0433\u043e\u0433\u0440\u0430\u0434", "addr:housenumber": "19", "addr:street": "\u0443\u043b\u0438\u0446\u0430 \u0427\u0443\u0439\u043a\u043e\u0432\u0430", "amenity": "restaurant", "cuisine": "steak_house", "internet_access": "wlan", "name": "\u0412\u043a\u0443\u0441\u043d\u044b\u0439 \u0434\u043e\u043c", "opening_hours": "Mo-Su 11:00-00:00", "phone": "+78442385457", "website": "http://v-d34.ru"}}, {"type": "node", "id": 4824790822, "lat": 48.7046246, "lon": 44.5192446, "tags": {"amenity": "cafe", "cuisine": "russian", "internet_access": "wlan", "name": "\u041c\u0430\u0440\u0443\u0441\u044f", "name:en": "Marusya", "opening_hours": "Mo-Su 09:00-00:00", "phone": "+78442595924", "website": "https://www.marusya34.ru/"}}, {"type": "node", "id": 5526229821, "lat": 48.7058085, "lon": 44.5200761, "tags": {"addr:city": "\u0412\u043e\u043b\u0433\u043e\u0433\u0440\u0430\u0434", "addr:housenumber": "14", "addr:postcode": "400131", "addr:street": "\u0421\u043e\u0432\u0435\u0442\u0441\u043a\u0430\u044f \u0443\u043b\u0438\u0446\u0430", "amenity": "fast_food", "cuisine": "burger;sandwich", "image": "https://avatars.mds.yandex.net/get-altay/2767250/2a000001732a45393ba65baaf4a341682057/XXXL", "name": "\u0414\u0435\u043d\u0432\u0435\u0440", "opening_hours": "Mo-Su 11:00-23:00", "phone": "+7 (8442) 51-71-71", "website": "http://denverbrg.ru/"}}, {"type": "node", "id": 5595943865, "lat": 48.7050847, "lon": 44.5230109}, {"type": "node", "id": 5642277666, "lat": 48.7055708, "lon": 44.5200698, "tags": {"addr:city": "\u0412\u043e\u043b\u0433\u043e\u0433\u0440\u0430\u0434", "addr:postcode": "400131", "addr:street": "\u0443\u043b\u0438\u0446\u0430 \u0410\u043b\u043b\u0435\u044f \u0413\u0435\u0440\u043e\u0435\u0432", "addr:unit": "2", "amenity": "cafe", "cuisine": "coffee_shop;french;international;regional", "internet_access": "wlan", "internet_access:fee": "no", "name": "\u0421\u0447\u0430\u0441\u0442\u044c\u0435 \u0415\u0441\u0442\u044c", "opening_hours": "Mo-Th 10:00-22:00; Fr-Su 10:00-23:00", "outdoor_seating": "summer", "smoking": "no", "website": "https://instagram.com/schastie.club/"}}, {"type": "node", "id": 6708189697, "lat": 48.7003975, "lon": 44.518794, "tags": {"amenity": "restaurant", "brand": "\u042f\u043a\u0438\u0442\u043e\u0440\u0438\u044f", "brand:wikidata": "Q66088063", "cuisine": "japanese;international", "name": "\u042f\u043a\u0438\u0442\u043e\u0440\u0438\u044f", "name:en": "Yakitoria", "opening_hours": "Su-Th 11:00-00:00; Fr-Sa 11:00-02:00", "phone": "+79178494103"}}, {"type": "node", "id": 6830005463, "lat": 48.7059592, "lon": 44.5176295, "tags": {"amenity": "fast_food", "brand": "\u0414\u043e\u0434\u043e \u041f\u0438\u0446\u0446\u0430", "brand:en": "Dodo Pizza", "brand:ru": "\u0414\u043e\u0434\u043e \u041f\u0438\u0446\u0446\u0430", "brand:wikidata": "Q61949318", "brand:wikipedia": "ru:\u0414\u043e\u0434\u043e \u041f\u0438\u0446\u0446\u0430", "cuisine": "pizza", "internet_access": "wlan", "name": "\u0414\u043e\u0434\u043e \u041f\u0438\u0446\u0446\u0430", "name:en": "Dodo Pizza", "name:ru": "\u0414\u043e\u0434\u043e \u041f\u0438\u0446\u0446\u0430", "opening_hours": "Mo-Su 08:30-00:00", "phone": "+7-800-3020060", "takeaway": "yes", "website": "https://dodopizza.ru/volgograd/alleya_geroev5"}}, {"type": "node", "id": 7182383887, "lat": 48.7057744, "lon": 44.5258212}, {"type": "node", "id": 7182383888, "lat": 48.7057341, "lon": 44.5257672}, {"type": "node", "id": 7182383889, "lat": 48.705751, "lon": 44.5257382}, {"type": "node", "id": 7182383890, "lat": 48.705725, "lon": 44.5257033}, {"type": "node", "id": 7182383891, "lat": 48.7057375, "lon": 44.525682}, {"type": "node", "id": 7182383892, "lat": 48.7057825, "lon": 44.5257425}, {"type": "node", "id": 7182383893, "lat": 48.7057664, "lon": 44.52577}, {"type": "node", "id": 7182383894, "lat": 48.7057876, "lon": 44.5257985}, {"type": "node", "id": 8390508017, "lat": 48.7072111, "lon": 44.5217116, "tags": {"amenity": "cafe", "name": "Black&White(\u0421\u0442\u043e\u043b\u043e\u0432\u0430\u044f)"}}, {"type": "node", "id": 8808621730, "lat": 48.7010202, "lon": 44.5191446, "tags": {"addr:city": "\u0412\u043e\u043b\u0433\u043e\u0433\u0440\u0430\u0434", "addr:housenumber": "6", "addr:postcode": "400066", "addr:street": "\u043d\u0430\u0431\u0435\u0440\u0435\u0436\u043d\u0430\u044f 62-\u0439 \u0410\u0440\u043c\u0438\u0438", "amenity": "cafe", "cuisine": "coffee_shop;italian;international;pizza;sandwich", "level": "5", "name": "Organza", "name:en": "Organza", "opening_hours": "Mo-Su 08:30-23:00", "phone": "+7 (844) 222-20-02", "website": "https://organzacafe.ru"}}, {"type": "node", "id": 8809409317, "lat": 48.706943, "lon": 44.5181837, "tags": {"addr:city": "\u0412\u043e\u043b\u0433\u043e\u0433\u0440\u0430\u0434", "addr:housenumber": "4", "addr:postcode": "400131", "addr:street": "\u0443\u043b\u0438\u0446\u0430 \u0410\u043b\u043b\u0435\u044f \u0413\u0435\u0440\u043e\u0435\u0432", "amenity": "cafe", "cuisine": "coffee_shop", "image": "https://avatars.mds.yandex.net/get-altay/5254653/2a0000017b8bbb845c418668b34bccef35cd/XXXL", "name": "\u0412\u043e\u0440\u043e\u043d\u043a\u0430 \u2116 3", "opening_hours": "Mo-Fr 08:00-23:00; Sa-Su 09:00-23:00", "outdoor_seating": "yes", "phone": "+7 (995) 664-00-51"}}, {"type": "node", "id": 8812496617, "lat": 48.7060187, "lon": 44.5195307, "tags": {"addr:city": "\u0412\u043e\u043b\u0433\u043e\u0433\u0440\u0430\u0434", "addr:housenumber": "4", "addr:postcode": "400131", "addr:street": "\u0443\u043b\u0438\u0446\u0430 \u0410\u043b\u043b\u0435\u044f \u0413\u0435\u0440\u043e\u0435\u0432", "amenity": "cafe", "cuisine": "coffee_shop", "name": "Stolbovoy coffee", "opening_hours": "Mo-Su 07:30-24:00"}}, {"type": "node", "id": 9690501017, "lat": 48.7008599, "lon": 44.519233, "tags": {"addr:city": "\u0412\u043e\u043b\u0433\u043e\u0433\u0440\u0430\u0434", "addr:housenumber": "6", "addr:postcode": "400066", "addr:street": "\u043d\u0430\u0431\u0435\u0440\u0435\u0436\u043d\u0430\u044f 62-\u0439 \u0410\u0440\u043c\u0438\u0438", "amenity": "restaurant", "cuisine": "georgian;regional;seafood", "image": "https://avatars.mds.yandex.net/get-altay/4547379/2a000001798a0254f4f5fa4199722cbe3acf/XXXL", "level": "5", "name": "\u0420\u0435\u043a\u0430", "opening_hours": "Mo-Su 12:00-00:00", "phone": "+78442222020", "website": "https://rekarest.ru/"}}, {"type": "node", "id": 9743536898, "lat": 48.705114, "lon": 44.5189049, "tags": {"addr:city": "\u0412\u043e\u043b\u0433\u043e\u0433\u0440\u0430\u0434", "addr:housenumber": "1", "addr:postcode": "400131", "addr:street": "\u0443\u043b\u0438\u0446\u0430 \u0410\u043b\u043b\u0435\u044f \u0413\u0435\u0440\u043e\u0435\u0432", "amenity": "cafe", "check_date:opening_hours": "2023-08-06", "cuisine": "regional;coffee_shop;ice_cream;sandwich", "description": "\u041a\u0430\u0444\u0435, \u043a\u043e\u043d\u0434\u0438\u0442\u0435\u0440\u0441\u043a\u0430\u044f", "image": "https://avatars.mds.yandex.net/get-altay/3629247/2a000001751bbb9338bd0a67c14f99558020/XXXL", "name": "\u041a\u043e\u0444\u0435-\u043c\u043e\u0440\u043e\u0436\u0435\u043d\u043e\u0435", "opening_hours": "Mo-Su 09:00-22:00", "outdoor_seating": "yes", "phone": "+7 (8442) 38-21-97"}}, {"type": "node", "id": 9743571791, "lat": 48.7049653, "lon": 44.5191044, "tags": {"addr:city": "\u0412\u043e\u043b\u0433\u043e\u0433\u0440\u0430\u0434", "addr:housenumber": "1", "addr:postcode": "400131", "addr:street": "\u0443\u043b\u0438\u0446\u0430 \u0410\u043b\u043b\u0435\u044f \u0413\u0435\u0440\u043e\u0435\u0432", "amenity": "restaurant", "cuisine": "pizza;italian", "image": "https://avatars.mds.yandex.net/get-altay/4538345/2a000001775a43d5eaa51a41851268bc719c/XXXL", "name": "Pinzeria by Bontempi", "opening_hours": "Mo-Su 08:00-23:00", "phone": "+7 (8442) 59-59-11", "website": "https://pinzeriavlg.ru"}}, {"type": "node", "id": 9743624305, "lat": 48.707458, "lon": 44.5196855, "tags": {"addr:city": "\u0412\u043e\u043b\u0433\u043e\u0433\u0440\u0430\u0434", "addr:housenumber": "17/1", "addr:postcode": "400131", "addr:street": "\u0421\u043e\u0432\u0435\u0442\u0441\u043a\u0430\u044f \u0443\u043b\u0438\u0446\u0430", "amenity": "cafe", "cuisine": "sandwich", "image": "https://avatars.mds.yandex.net/get-altay/5234599/2a0000017b1c42dec8f69b489aa6c99e01b8/XXXL", "name": "\u041c\u0438\u0441\u0442\u0435\u0440 \u0441\u044d\u043d\u0434\u0432\u0438\u0447", "opening_hours": "Mo-Su 11:00-24:00", "outdoor_seating": "yes", "phone": "+7 (937) 090-66-63"}}, {"type": "node", "id": 9743644776, "lat": 48.7048463, "lon": 44.5192632, "tags": {"addr:city": "\u0412\u043e\u043b\u0433\u043e\u0433\u0440\u0430\u0434", "addr:housenumber": "1", "addr:postcode": "400131", "addr:street": "\u0443\u043b\u0438\u0446\u0430 \u0410\u043b\u043b\u0435\u044f \u0413\u0435\u0440\u043e\u0435\u0432", "amenity": "restaurant", "cuisine": "european;international;wine", "image": "https://avatars.mds.yandex.net/get-altay/4824927/2a000001793cdee9f89ccebfec33082ae9c0/XXXL", "name": "Birch Bar & Kitchen", "opening_hours": "Mo-Su 12:00-24:00", "phone": "+7 (8442) 57-26-26", "website": "https://birchvlg.ru/"}}, {"type": "node", "id": 9743659175, "lat": 48.7074205, "lon": 44.5196025, "tags": {"addr:city": "\u0412\u043e\u043b\u0433\u043e\u0433\u0440\u0430\u0434", "addr:housenumber": "17/1", "addr:postcode": "400131", "addr:street": "\u0421\u043e\u0432\u0435\u0442\u0441\u043a\u0430\u044f \u0443\u043b\u0438\u0446\u0430", "amenity": "cafe", "cuisine": "vietnamese", "description": "\u043f\u0430\u043d\u0430\u0437\u0438\u0430\u0442\u0441\u043a\u0430\u044f \u043a\u0443\u0445\u043d\u044f, \u043f\u0438\u0432\u043e", "name": "Fat Mao", "opening_hours": "Mo-Su 14:00-23:00", "outdoor_seating": "yes", "phone": "+7 (919) 795-60-65", "website": "+7 (919) 795-60-65"}}, {"type": "node", "id": 9743691076, "lat": 48.7071957, "lon": 44.5238723, "tags": {"addr:city": "\u0412\u043e\u043b\u0433\u043e\u0433\u0440\u0430\u0434", "addr:housenumber": "20", "addr:postcode": "400131", "addr:street": "\u0421\u043e\u0432\u0435\u0442\u0441\u043a\u0430\u044f \u0443\u043b\u0438\u0446\u0430", "amenity": "cafe", "cuisine": "european;coffee_shop;breakfast", "delivery": "yes", "image": "https://avatars.mds.yandex.net/get-altay/2714499/2a000001738ef0dfd1f864e555f89e03add5/XXXL", "name": "\u0413\u0440\u0435\u0442\u0435\u043b\u044c", "opening_hours": "Mo-Su 07:30-24:00", "outdoor_seating": "yes", "phone": "+7 (8442) 59-51-95", "takeaway": "yes", "website": "https://gretelcafe.ru"}}, {"type": "node", "id": 9743990042, "lat": 48.7071161, "lon": 44.5215216, "tags": {"addr:city": "\u0412\u043e\u043b\u0433\u043e\u0433\u0440\u0430\u0434", "addr:housenumber": "17", "addr:postcode": "400131", "addr:street": "\u0421\u043e\u0432\u0435\u0442\u0441\u043a\u0430\u044f \u0443\u043b\u0438\u0446\u0430", "air_conditioning": "yes", "amenity": "fast_food", "brand": "Subway", "brand:wikidata": "Q244457", "cuisine": "sandwich", "delivery": "yes", "image": "https://avatars.mds.yandex.net/get-altay/5308697/2a0000017b1c8459bf0dd0b28086e6e2d284/XXXL", "name": "Subway", "opening_hours": "Mo-Th 10:00-22:00, Fr-Su 10:00-23:00", "payment:cash": "yes", "payment:credit_cards": "yes", "payment:debit_cards": "yes", "phone": "+7 (909) 383-33-35", "takeaway": "yes", "website": "https://subway.ru"}}, {"type": "node", "id": 9744034487, "lat": 48.70697, "lon": 44.5211167, "tags": {"addr:city": "\u0412\u043e\u043b\u0433\u043e\u0433\u0440\u0430\u0434", "addr:housenumber": "17", "addr:postcode": "400131", "addr:street": "\u0421\u043e\u0432\u0435\u0442\u0441\u043a\u0430\u044f \u0443\u043b\u0438\u0446\u0430", "air_conditioning": "yes", "amenity": "fast_food", "cuisine": "japanese;sushi;asian", "delivery": "yes", "description": "\u0421\u0443\u0448\u0438-\u0431\u0430\u0440, \u0431\u044b\u0441\u0442\u0440\u043e\u0435 \u043f\u0438\u0442\u0430\u043d\u0438\u0435", "image": "https://avatars.mds.yandex.net/get-altay/5235198/2a0000017b9e87d2d47c62c50f9affe41773/XXXL", "name": "\u0421\u0443\u0448\u0438\u0412\u0451\u0441\u043b\u0430", "opening_hours": "Mo-Su 10:00-22:00", "phone": "+7-800-5503030", "takeaway": "yes", "website": "https://\u0441\u0443\u0448\u0438\u0432\u0435\u0441\u043b\u0430.\u0440\u0444"}}, {"type": "node", "id": 9744035340, "lat": 48.7069574, "lon": 44.5210969, "tags": {"addr:city": "\u0412\u043e\u043b\u0433\u043e\u0433\u0440\u0430\u0434", "addr:housenumber": "17", "addr:postcode": "400131", "addr:street": "\u0421\u043e\u0432\u0435\u0442\u0441\u043a\u0430\u044f \u0443\u043b\u0438\u0446\u0430", "air_conditioning": "yes", "amenity": "fast_food", "cuisine": "russian;pancake", "delivery": "yes", "description": "\u0411\u043b\u0438\u043d\u044b, \u0437\u0430\u0432\u0442\u0440\u0430\u043a\u0438, \u0437\u0430\u043a\u0443\u0441\u043a\u0438, \u043a\u043e\u0444\u0435", "image": "https://avatars.mds.yandex.net/get-altay/1246719/2a000001634a7c1844478a30855ba30758f6/XXXL", "name": "\u0411\u043b\u0438\u043d\u0411\u0435\u0440\u0438", "opening_hours": "Mo-Su 09:00-21:00", "payment:cash": "yes", "payment:credit_cards": "yes", "payment:debit_cards": "yes", "phone": "+7-800-5502220", "takeaway": "yes", "website": "https://\u0431\u043b\u0438\u043d\u0431\u0435\u0440\u0438.\u0440\u0444"}}, {"type": "node", "id": 9792728168, "lat": 48.7007603, "lon": 44.5193781, "tags": {"addr:city": "\u0412\u043e\u043b\u0433\u043e\u0433\u0440\u0430\u0434", "addr:housenumber": "6", "addr:postcode": "400066", "addr:street": "\u043d\u0430\u0431\u0435\u0440\u0435\u0436\u043d\u0430\u044f 62-\u0439 \u0410\u0440\u043c\u0438\u0438", "amenity": "restaurant", "cuisine": "georgian", "delivery": "yes", "name": "\u041f\u0435\u0440\u0441\u043e\u043d\u0430\u0436\u0438", "opening_hours": "Mo-Su 11:08-24:00", "phone": "+7(8442)60-02-57", "takeaway": "yes", "website": "https://personazhi.rest"}}, {"type": "node", "id": 9857410983, "lat": 48.7073695, "lon": 44.5195421, "tags": {"addr:city": "\u0412\u043e\u043b\u0433\u043e\u0433\u0440\u0430\u0434", "addr:housenumber": "17/1", "addr:postcode": "400066", "addr:street": "\u0421\u043e\u0432\u0435\u0442\u0441\u043a\u0430\u044f \u0443\u043b\u0438\u0446\u0430", "amenity": "fast_food", "cuisine": "pizza", "description": "\u041d\u0435\u0430\u043f\u043e\u043b\u0438\u0442\u0430\u043d\u0441\u043a\u0430\u044f \u043f\u0438\u0446\u0446\u0430 \u0432 \u0434\u0440\u043e\u0432\u044f\u043d\u043e\u0439 \u043f\u0435\u0447\u0438", "drive_through": "no", "name": "\u0421\u043a\u0440\u043e\u043c\u043d\u043e", "opening_hours": "Mo-Su 14:00-23:00"}}, {"type": "node", "id": 9933844017, "lat": 48.7069248, "lon": 44.5245534, "tags": {"amenity": "restaurant", "cuisine": "georgian", "internet_access": "wlan", "name": "Saperavi", "opening_hours": "Mo-Su 00:00-00:00", "phone": "+7 (8442) 57-22-77", "website": "https://saperavivlg.ru/"}}, {"type": "node", "id": 10092011153, "lat": 48.7044605, "lon": 44.5189414, "tags": {"addr:city": "\u0412\u043e\u043b\u0433\u043e\u0433\u0440\u0430\u0434", "addr:housenumber": "9", "addr:postcode": "400131", "addr:street": "\u0443\u043b\u0438\u0446\u0430 \u041c\u0430\u0440\u0448\u0430\u043b\u0430 \u0427\u0443\u0439\u043a\u043e\u0432\u0430", "amenity": "cafe", "cuisine": "coffee_shop", "name": "\u0414\u0436\u0430\u0441\u0442 \u043a\u043e\u0444\u0435", "opening_hours": "Mo-Su 07:00-23:00", "outdoor_seating": "yes", "phone": "+7 (927) 524-42-44"}}, {"type": "node", "id": 10092011154, "lat": 48.7042611, "lon": 44.5185724, "tags": {"addr:city": "\u0412\u043e\u043b\u0433\u043e\u0433\u0440\u0430\u0434", "addr:housenumber": "9", "addr:postcode": "400131", "addr:street": "\u0443\u043b\u0438\u0446\u0430 \u041c\u0430\u0440\u0448\u0430\u043b\u0430 \u0427\u0443\u0439\u043a\u043e\u0432\u0430", "amenity": "cafe", "cuisine": "coffee_shop", "name": "Jetlag", "opening_hours": "Mo-Su 08:00-23:00", "outdoor_seating": "yes", "phone": "+7 (902) 656-48-52"}}, {"type": "node", "id": 11096745143, "lat": 48.7052559, "lon": 44.5232437}, {"type": "node", "id": 11096745144, "lat": 48.7052335, "lon": 44.523206}, {"type": "node", "id": 11107480373, "lat": 48.7061664, "lon": 44.5193327, "tags": {"addr:city": "\u0412\u043e\u043b\u0433\u043e\u0433\u0440\u0430\u0434", "addr:housenumber": "4", "addr:postcode": "400131", "addr:street": "\u0443\u043b\u0438\u0446\u0430 \u0410\u043b\u043b\u0435\u044f \u0413\u0435\u0440\u043e\u0435\u0432", "amenity": "cafe", "cuisine": "asian;japanese;chinese;vietnamese", "name": "True Asia", "opening_hours": "Mo-Su 12:00-24:00", "outdoor_seating": "no", "phone": "+7 (8442) 22-01-11", "website": "http://trueasia.rest"}}, {"type": "node", "id": 11107785923, "lat": 48.7061059, "lon": 44.519685, "tags": {"addr:city": "\u0412\u043e\u043b\u0433\u043e\u0433\u0440\u0430\u0434", "addr:housenumber": "15", "addr:postcode": "400131", "addr:street": "\u0421\u043e\u0432\u0435\u0442\u0441\u043a\u0430\u044f \u0443\u043b\u0438\u0446\u0430", "amenity": "cafe", "name": "Rebra Bar", "opening_hours": "Mo-Su 12:00-24:00", "phone": "+7 (8442) 43-55-52", "website": "https://vk.com/rebra_bar"}}, {"type": "node", "id": 11109011394, "lat": 48.7072196, "lon": 44.5179909, "tags": {"amenity": "cafe", "cuisine": "coffee_shop", "name": "\u041a\u0430\u0440\u0434\u0430\u043c\u043e\u043d\u044a", "opening_hours": "Mo-Su 10:00-22:00"}}, {"type": "way", "id": 124298353, "nodes": [1383903431, 1383903478, 11096745143, 11096745144, 1383903418, 1383903452, 5595943865, 1383903431], "tags": {"addr:city": "\u0412\u043e\u043b\u0433\u043e\u0433\u0440\u0430\u0434", "addr:housenumber": "5\u0411", "addr:postcode": "400066", "addr:street": "\u043d\u0430\u0431\u0435\u0440\u0435\u0436\u043d\u0430\u044f 62-\u0439 \u0410\u0440\u043c\u0438\u0438", "amenity": "cafe", "building": "yes", "cuisine": "italian;russian;\u0435\u0432\u0440\u043e\u043f\u0435\u0439\u0441\u043a\u0430\u044f", "internet_access": "wlan", "name": "\u0413\u0430\u0440\u043d\u0438", "opening_hours": "Su-Th 12:00-23:00; Fr-Sa 12:00-00:00", "outdoor_seating": "yes", "phone": "+7 (906) 174-22-22", "roof:colour": "red", "roof:shape": "gabled", "website": "onegincafe.inmykitchen.ru"}}, {"type": "way", "id": 126054645, "nodes": [1398438308, 1398438271, 1398438340, 1398438292, 1398438324, 1398438332, 1398438325, 1398438326, 1398438272, 1398438350, 1398438354, 1398438369, 1398438308], "tags": {"addr:housenumber": "3", "addr:postcode": "400066", "addr:street": "\u043d\u0430\u0431\u0435\u0440\u0435\u0436\u043d\u0430\u044f 62-\u0439 \u0410\u0440\u043c\u0438\u0438", "amenity": "cafe", "building": "yes", "building:levels": "1", "name": "\u041c\u044d\u0440\u0438\u0442\u0430\u0436", "opening_hours": "Mo-Su 12:00-23:00"}}, {"type": "way", "id": 769449934, "nodes": [7182383887, 7182383888, 7182383889, 7182383890, 7182383891, 7182383892, 7182383893, 7182383894, 7182383887], "tags": {"addr:postcode": "400066", "amenity": "cafe", "building": "yes"}}]}