{"version": 0.6, "generator": "Overpass API 0.7.62.1 084b4234", "osm3s": {"timestamp_osm_base": "2024-04-22T13:08:05Z", "copyright": "The data included in this document is from www.openstreetmap.org. The data is made available under ODbL."}, "elements": [{"type": "node", "id": 1256682764, "lat": 48.7362785, "lon": 44.4767914, "tags": {"addr:housenumber": "73\u0410", "addr:street": "\u0443\u043b\u0438\u0446\u0430 \u0425\u043e\u0440\u043e\u0448\u0435\u0432\u0430", "amenity": "fast_food", "name": "\u041d\u0438\u0430\u0433\u0430\u0440\u0430"}}, {"type": "node", "id": 1262309331, "lat": 48.6956807, "lon": 44.4963948, "tags": {"amenity": "fast_food", "name": "\u042e\u0436\u043d\u0430\u044f"}}, {"type": "node", "id": 1262309380, "lat": 48.6976653, "lon": 44.4994391, "tags": {"addr:country": "RU", "alt_name": "\u041c\u0430\u043a\u0434\u043e\u043d\u0430\u043b\u044c\u0434\u0441", "amenity": "fast_food", "brand": "\u041c\u0430\u043a\u0434\u043e\u043d\u0430\u043b\u0434\u0441", "brand:en": "McDonald's", "brand:ru": "\u041c\u0430\u043a\u0434\u043e\u043d\u0430\u043b\u0434\u0441", "brand:wikidata": "Q38076", "brand:wikipedia": "en:McDonald's", "contact:facebook": "https://www.facebook.com/mcdonaldsrussia", "contact:phone": "+7 844 2943454", "contact:website": "https://mcdonalds.ru", "cuisine": "burger", "int_name": "McDonald's", "name": "\u041c\u0430\u043a\u0434\u043e\u043d\u0430\u043b\u0434\u0441", "name:de": "McDonald's", "name:en": "McDonald's", "name:ru": "\u041c\u0430\u043a\u0434\u043e\u043d\u0430\u043b\u0434\u0441", "opening_hours": "Mo-Su 07:00-23:00", "operator": "\u041c\u0430\u043a\u0434\u043e\u043d\u0430\u043b\u0434\u0441", "operator:en": "McDonald's", "operator:ru": "\u041c\u0430\u043a\u0434\u043e\u043d\u0430\u043b\u0434\u0441", "smoking": "no", "takeaway": "yes"}}, {"type": "node", "id": 1377304155, "lat": 48.7100033, "lon": 44.4918448}, {"type": "node", "id": 1377304172, "lat": 48.7100775, "lon": 44.4919689}, {"type": "node", "id": 1377325172, "lat": 48.7098778, "lon": 44.492243}, {"type": "node", "id": 1377325182, "lat": 48.7098037, "lon": 44.492119}, {"type": "node", "id": 1381604284, "lat": 48.7036705, "lon": 44.5108719, "tags": {"addr:city": "\u0412\u043e\u043b\u0433\u043e\u0433\u0440\u0430\u0434", "addr:housenumber": "3\u0410", "addr:postcode": "400131", "addr:street": "\u043f\u0440\u043e\u0441\u043f\u0435\u043a\u0442 \u041b\u0435\u043d\u0438\u043d\u0430", "amenity": "fast_food", "contact:phone": "+7 (8442) 91-94-74", "contact:website": "http://www.zharpizza.ru/", "cuisine": "chicken;pizza;american;regional", "name": "\u0416\u0430\u0440-\u041f\u0438\u0446\u0446\u0430", "opening_hours": "Mo-Su 08:00-23:00", "phone": "+7-800-5004242", "website": "https://zharpizza.ru/volgograd"}}, {"type": "node", "id": 1607755763, "lat": 48.6121132, "lon": 44.4232284}, {"type": "node", "id": 1607756218, "lat": 48.6120553, "lon": 44.4232242}, {"type": "node", "id": 1607756475, "lat": 48.6120529, "lon": 44.4232982}, {"type": "node", "id": 1607756507, "lat": 48.6121114, "lon": 44.4233009}, {"type": "node", "id": 1608382491, "lat": 48.6048766, "lon": 44.4231862}, {"type": "node", "id": 1608382497, "lat": 48.6048833, "lon": 44.4229134}, {"type": "node", "id": 1608382644, "lat": 48.6051091, "lon": 44.422926}, {"type": "node", "id": 1608383079, "lat": 48.6051024, "lon": 44.4231989}, {"type": "node", "id": 1640355995, "lat": 48.6077741, "lon": 44.4276783}, {"type": "node", "id": 1640356003, "lat": 48.6077698, "lon": 44.4278082}, {"type": "node", "id": 1640356005, "lat": 48.6076964, "lon": 44.4276724}, {"type": "node", "id": 1640356011, "lat": 48.6076921, "lon": 44.4278023}, {"type": "node", "id": 1776180192, "lat": 48.7013699, "lon": 44.4846016, "tags": {"amenity": "fast_food", "name": "\u0420\u0443\u0441\u0442\u0435\u0440\u0441"}}, {"type": "node", "id": 1782335502, "lat": 48.6759466, "lon": 44.4444502, "tags": {"amenity": "fast_food", "name": "\u0420\u0443\u0441\u0442\u0435\u0440\u0441"}}, {"type": "node", "id": 1789614166, "lat": 48.7521517, "lon": 44.4832245}, {"type": "node", "id": 1833354453, "lat": 48.6753522, "lon": 44.4716894, "tags": {"amenity": "fast_food", "cuisine": "pizza", "name": "\u0420\u0443\u0441\u0442\u0435\u0440\u0441"}}, {"type": "node", "id": 1937050530, "lat": 48.768282, "lon": 44.4923754}, {"type": "node", "id": 2112422843, "lat": 48.715976, "lon": 44.511146, "tags": {"amenity": "fast_food", "brand": "Subway", "brand:wikidata": "Q244457", "cuisine": "sandwich", "name": "Subway", "takeaway": "yes"}}, {"type": "node", "id": 2688034015, "lat": 48.8225257, "lon": 44.6408592, "tags": {"amenity": "fast_food", "cuisine": "sushi", "name": "Tataki", "opening_hours": "11:00-21:00", "website": "http://tatakisushi.ru"}}, {"type": "node", "id": 3254240497, "lat": 48.7668894, "lon": 44.4782237}, {"type": "node", "id": 3254240498, "lat": 48.7668906, "lon": 44.4783117}, {"type": "node", "id": 3254240499, "lat": 48.7669256, "lon": 44.4782226}, {"type": "node", "id": 3254240500, "lat": 48.7669268, "lon": 44.4783106}, {"type": "node", "id": 3273683217, "lat": 48.7041647, "lon": 44.5102543}, {"type": "node", "id": 3273683218, "lat": 48.7041229, "lon": 44.5102987}, {"type": "node", "id": 3273683219, "lat": 48.7040986, "lon": 44.5102461}, {"type": "node", "id": 3273683220, "lat": 48.7041403, "lon": 44.5102017}, {"type": "node", "id": 3273688858, "lat": 48.6972676, "lon": 44.5005261}, {"type": "node", "id": 3273688859, "lat": 48.6973065, "lon": 44.500589}, {"type": "node", "id": 3273688860, "lat": 48.697283, "lon": 44.5006224}, {"type": "node", "id": 3273692461, "lat": 48.6972441, "lon": 44.5005595}, {"type": "node", "id": 3323407438, "lat": 48.6742521, "lon": 44.4438423, "tags": {"amenity": "fast_food", "name": "\u041f\u0435\u043a\u0430\u0440\u043d\u044f \u0425\u043b\u0435\u0431\u0438\u043a\u043e"}}, {"type": "node", "id": 3363115420, "lat": 48.7041722, "lon": 44.5115408, "tags": {"addr:housenumber": "5", "addr:street": "\u043f\u0440\u043e\u0441\u043f\u0435\u043a\u0442 \u041b\u0435\u043d\u0438\u043d\u0430", "amenity": "fast_food", "contact:email": "zakaz-konfetki@stoliya.ru", "contact:phone": "+7 844 2551755;+7 961 6611389", "contact:website": "https://confetkibaranochki.ru", "name": "\u041a\u043e\u043d\u0444\u0435\u0442\u043a\u0438-\u0431\u0430\u0440\u0430\u043d\u043e\u0447\u043a\u0438", "name:ru": "\u041a\u043e\u043d\u0444\u0435\u0442\u043a\u0438-\u0431\u0430\u0440\u0430\u043d\u043e\u0447\u043a\u0438", "opening_hours": "Mo-Sa 07:30-21:00; Su 09:00-21:00"}}, {"type": "node", "id": 3395920902, "lat": 48.7443426, "lon": 44.5192676, "tags": {"amenity": "fast_food", "brand": "\u041c\u0430\u043a\u0434\u043e\u043d\u0430\u043b\u0434\u0441", "brand:en": "McDonald's", "brand:ru": "\u041c\u0430\u043a\u0434\u043e\u043d\u0430\u043b\u0434\u0441", "brand:wikidata": "Q38076", "brand:wikipedia": "en:McDonald's", "cuisine": "burger", "name": "\u041c\u0430\u043a\u0434\u043e\u043d\u0430\u043b\u0434\u0441", "name:en": "McDonald's", "name:ru": "\u041c\u0430\u043a\u0434\u043e\u043d\u0430\u043b\u0434\u0441", "opening_hours": "10:00-23:00", "takeaway": "yes"}}, {"type": "node", "id": 3445935135, "lat": 48.7682796, "lon": 44.4922904}, {"type": "node", "id": 3445935138, "lat": 48.76832, "lon": 44.4922877}, {"type": "node", "id": 3445935139, "lat": 48.7683225, "lon": 44.4923727}, {"type": "node", "id": 3445949111, "lat": 48.7520921, "lon": 44.4832668}, {"type": "node", "id": 3445949112, "lat": 48.7521068, "lon": 44.4833147}, {"type": "node", "id": 3445949113, "lat": 48.7521665, "lon": 44.4832724}, {"type": "node", "id": 3455121019, "lat": 48.6206901, "lon": 44.4242915}, {"type": "node", "id": 3455121020, "lat": 48.620705, "lon": 44.4242076}, {"type": "node", "id": 3455121021, "lat": 48.6207584, "lon": 44.4243192}, {"type": "node", "id": 3455121022, "lat": 48.6207733, "lon": 44.4242354}, {"type": "node", "id": 3475212058, "lat": 48.689854, "lon": 44.4881992}, {"type": "node", "id": 3475212059, "lat": 48.6898767, "lon": 44.4881653}, {"type": "node", "id": 3475212060, "lat": 48.6899046, "lon": 44.4882772}, {"type": "node", "id": 3475212061, "lat": 48.6899274, "lon": 44.4882433}, {"type": "node", "id": 3475287481, "lat": 48.7034596, "lon": 44.5120642, "tags": {"amenity": "fast_food", "name": "Mybox", "opening_hours": "Mo-Su 10:00-23:00"}}, {"type": "node", "id": 3525571338, "lat": 48.6766708, "lon": 44.4525201, "tags": {"amenity": "fast_food", "name": "\u0428\u0430\u0432\u0435\u0440\u043c\u0430", "name:ru": "\u0428\u0430\u0443\u0440\u043c\u0430"}}, {"type": "node", "id": 3641898275, "lat": 48.7688769, "lon": 44.4738563, "tags": {"amenity": "fast_food", "brand": "\u041c\u0430\u043a\u0434\u043e\u043d\u0430\u043b\u0434\u0441", "brand:en": "McDonald's", "brand:ru": "\u041c\u0430\u043a\u0434\u043e\u043d\u0430\u043b\u0434\u0441", "brand:wikidata": "Q38076", "brand:wikipedia": "en:McDonald's", "cuisine": "burger", "name": "\u041c\u0430\u043a\u0434\u043e\u043d\u0430\u043b\u0434\u0441", "name:en": "McDonald's", "name:ru": "\u041c\u0430\u043a\u0434\u043e\u043d\u0430\u043b\u0434\u0441", "takeaway": "yes"}}, {"type": "node", "id": 3755485790, "lat": 48.7130113, "lon": 44.4999138}, {"type": "node", "id": 3755485791, "lat": 48.7130343, "lon": 44.4998709}, {"type": "node", "id": 3755485792, "lat": 48.7130527, "lon": 44.4999649}, {"type": "node", "id": 3755485793, "lat": 48.7130757, "lon": 44.499922}, {"type": "node", "id": 3889965709, "lat": 48.6494094, "lon": 44.4352081, "tags": {"amenity": "fast_food", "name": "\u0411\u0438\u0441\u0442\u0440\u043e", "outdoor_seating": "no"}}, {"type": "node", "id": 4062980406, "lat": 48.7147196, "lon": 44.5293731, "tags": {"amenity": "fast_food", "fast_food": "cafeteria", "name": "\u0421\u0442\u043e\u043b\u043e\u0432\u0430\u044f \u0412\u043e\u043b\u0433\u0413\u0422\u0423"}}, {"type": "node", "id": 4100953396, "lat": 48.7649627, "lon": 44.5593473, "tags": {"amenity": "fast_food", "contact:phone": "+7 844 2436522;+7 961 6611394", "contact:website": "https://confetkibaranochki.ru", "name": "\u041a\u043e\u043d\u0444\u0435\u0442\u043a\u0438-\u0431\u0430\u0440\u0430\u043d\u043e\u0447\u043a\u0438", "name:ru": "\u041a\u043e\u043d\u0444\u0435\u0442\u043a\u0438-\u0431\u0430\u0440\u0430\u043d\u043e\u0447\u043a\u0438", "opening_hours": "Mo-Sa 08:00-21:00; Su 09:00-21:00"}}, {"type": "node", "id": 4476064373, "lat": 48.6771061, "lon": 44.4452638, "tags": {"amenity": "fast_food", "contact:phone": "+7 844 2599882;+7 961 6611392", "contact:website": "https://confetkibaranochki.ru", "name": "\u041a\u043e\u043d\u0444\u0435\u0442\u043a\u0438-\u0431\u0430\u0440\u0430\u043d\u043e\u0447\u043a\u0438", "name:ru": "\u041a\u043e\u043d\u0444\u0435\u0442\u043a\u0438-\u0431\u0430\u0440\u0430\u043d\u043e\u0447\u043a\u0438", "opening_hours": "Mo-Sa 08:00-21:00; Su 09:00-21:00"}}, {"type": "node", "id": 4682055691, "lat": 48.7280819, "lon": 44.5211669, "tags": {"amenity": "fast_food", "drive_through": "no", "name": "Aik", "outdoor_seating": "no", "takeaway": "only"}}, {"type": "node", "id": 4682094589, "lat": 48.7260241, "lon": 44.5179408, "tags": {"amenity": "fast_food", "contact:phone": "+7 844 2599882;+7 961 6611393", "contact:website": "https://confetkibaranochki.ru", "name": "\u041a\u043e\u043d\u0444\u0435\u0442\u043a\u0438-\u0431\u0430\u0440\u0430\u043d\u043e\u0447\u043a\u0438", "name:ru": "\u041a\u043e\u043d\u0444\u0435\u0442\u043a\u0438-\u0431\u0430\u0440\u0430\u043d\u043e\u0447\u043a\u0438", "opening_hours": "Mo-Su 07:30-21:00"}}, {"type": "node", "id": 5081600268, "lat": 48.6630231, "lon": 44.4123317, "tags": {"amenity": "fast_food", "cuisine": "sushi", "name": "Fishka Time"}}, {"type": "node", "id": 5526138021, "lat": 48.7072979, "lon": 44.5144537, "tags": {"amenity": "fast_food", "contact:phone": "+7 844 2590203;+7 961 6611390", "contact:website": "https://confetkibaranochki.ru", "name": "\u041a\u043e\u043d\u0444\u0435\u0442\u043a\u0438-\u0431\u0430\u0440\u0430\u043d\u043e\u0447\u043a\u0438", "name:ru": "\u041a\u043e\u043d\u0444\u0435\u0442\u043a\u0438-\u0431\u0430\u0440\u0430\u043d\u043e\u0447\u043a\u0438", "opening_hours": "Mo-Sa 07:30-21:00; Su 09:00-21:00"}}, {"type": "node", "id": 5526229821, "lat": 48.7058085, "lon": 44.5200761, "tags": {"addr:city": "\u0412\u043e\u043b\u0433\u043e\u0433\u0440\u0430\u0434", "addr:housenumber": "14", "addr:postcode": "400131", "addr:street": "\u0421\u043e\u0432\u0435\u0442\u0441\u043a\u0430\u044f \u0443\u043b\u0438\u0446\u0430", "amenity": "fast_food", "cuisine": "burger;sandwich", "image": "https://avatars.mds.yandex.net/get-altay/2767250/2a000001732a45393ba65baaf4a341682057/XXXL", "name": "\u0414\u0435\u043d\u0432\u0435\u0440", "opening_hours": "Mo-Su 11:00-23:00", "phone": "+7 (8442) 51-71-71", "website": "http://denverbrg.ru/"}}, {"type": "node", "id": 5669430329, "lat": 48.7480829, "lon": 44.4994328}, {"type": "node", "id": 5669430330, "lat": 48.7478886, "lon": 44.4995692}, {"type": "node", "id": 5669430331, "lat": 48.7478104, "lon": 44.4993131}, {"type": "node", "id": 5669430332, "lat": 48.7480048, "lon": 44.4991767}, {"type": "node", "id": 5701284373, "lat": 48.7715794, "lon": 44.5656451}, {"type": "node", "id": 5701284374, "lat": 48.7718177, "lon": 44.5658666}, {"type": "node", "id": 5701284376, "lat": 48.7715098, "lon": 44.5658175}, {"type": "node", "id": 5875526419, "lat": 48.7225996, "lon": 44.5164996, "tags": {"amenity": "fast_food", "name": "\u0428\u0430\u0443\u0440\u043c\u043eff"}}, {"type": "node", "id": 5884355065, "lat": 48.7717481, "lon": 44.566039}, {"type": "node", "id": 5930115410, "lat": 48.8207008, "lon": 44.6363253}, {"type": "node", "id": 5930115411, "lat": 48.8204755, "lon": 44.6365672}, {"type": "node", "id": 5930115412, "lat": 48.820535, "lon": 44.6366993}, {"type": "node", "id": 5930115413, "lat": 48.8207653, "lon": 44.6364569}, {"type": "node", "id": 6282720752, "lat": 48.716944, "lon": 44.512302, "tags": {"amenity": "fast_food", "name": "\u0428\u0435\u0444 \u0411\u0438\u0441\u0442\u0440\u043e"}}, {"type": "node", "id": 6494912548, "lat": 48.799665, "lon": 44.604758, "tags": {"amenity": "fast_food", "brand": "Coffee Like", "brand:wikidata": "Q55662627", "contact:email": "hotline@coffee-like.com", "contact:phone": "+7 341 2908292;+7 800 3334130", "contact:website": "https://coffee-like.com/", "cuisine": "coffee_shop", "name": "Coffee Like", "opening_hours": "Mo-Su 10:00-22:00", "operator": "\"\u041a\u043e\u0444\u0435 \u041b\u0430\u0439\u043a \u0412\u043e\u043b\u0433\u043e\u0433\u0440\u0430\u0434\"", "takeaway": "yes"}}, {"type": "node", "id": 6494912552, "lat": 48.636564, "lon": 44.436055, "tags": {"amenity": "fast_food", "contact:email": "hotline@coffee-like.com", "contact:phone": "+7 341 2908292;+7 800 3334130", "contact:website": "https://coffee-like.com/", "cuisine": "coffee_shop", "name": "Coffee Like", "opening_hours": "Mo-Su 10:00-22:00", "operator": "\"\u041a\u043e\u0444\u0435 \u041b\u0430\u0439\u043a \u0412\u043e\u043b\u0433\u043e\u0433\u0440\u0430\u0434\""}}, {"type": "node", "id": 6494912553, "lat": 48.705022, "lon": 44.514604, "tags": {"amenity": "fast_food", "brand": "Coffee Like", "brand:wikidata": "Q55662627", "contact:email": "hotline@coffee-like.com", "contact:phone": "+7 341 2908292;+7 800 3334130", "contact:website": "https://coffee-like.com/", "cuisine": "coffee_shop", "name": "Coffee Like", "opening_hours": "Mo-Fr 08:00-21:00; Sa-Su 10:00-22:00", "operator": "\"\u041a\u043e\u0444\u0435 \u041b\u0430\u0439\u043a \u0412\u043e\u043b\u0433\u043e\u0433\u0440\u0430\u0434\"", "takeaway": "yes"}}, {"type": "node", "id": 6494912554, "lat": 48.7042281, "lon": 44.5095406, "tags": {"amenity": "fast_food", "brand": "Coffee Like", "brand:wikidata": "Q55662627", "brand:wikipedia": "ru:Coffee Like", "contact:email": "hotline@coffee-like.com", "contact:phone": "+7 341 2908292;+7 800 3334130", "contact:website": "https://coffee-like.com/", "cuisine": "coffee_shop", "name": "Coffee Like", "opening_hours": "Mo-Su 09:00-21:00", "operator": "\"\u041a\u043e\u0444\u0435 \u041b\u0430\u0439\u043a \u0412\u043e\u043b\u0433\u043e\u0433\u0440\u0430\u0434\"", "takeaway": "yes"}}, {"type": "node", "id": 6509989533, "lat": 48.771959, "lon": 44.5649407}, {"type": "node", "id": 6509989534, "lat": 48.7718866, "lon": 44.5650805}, {"type": "node", "id": 6509989535, "lat": 48.7719992, "lon": 44.5651819}, {"type": "node", "id": 6509989536, "lat": 48.7720202, "lon": 44.5651452}, {"type": "node", "id": 6509989537, "lat": 48.7719735, "lon": 44.5650768}, {"type": "node", "id": 6509989538, "lat": 48.7720101, "lon": 44.5650194}, {"type": "node", "id": 6511094113, "lat": 48.7840657, "lon": 44.5646517}, {"type": "node", "id": 6511094114, "lat": 48.7840286, "lon": 44.5647092}, {"type": "node", "id": 6511094115, "lat": 48.7840036, "lon": 44.564672}, {"type": "node", "id": 6511094116, "lat": 48.7840407, "lon": 44.5646145}, {"type": "node", "id": 6511094172, "lat": 48.7867928, "lon": 44.5700648}, {"type": "node", "id": 6511094173, "lat": 48.7868356, "lon": 44.5701334}, {"type": "node", "id": 6511094174, "lat": 48.7868719, "lon": 44.5700811}, {"type": "node", "id": 6511094175, "lat": 48.7868292, "lon": 44.5700125}, {"type": "node", "id": 6536736987, "lat": 48.6970402, "lon": 44.5018065, "tags": {"amenity": "fast_food", "brand": "Coffee Like", "brand:wikidata": "Q55662627", "contact:email": "hotline@coffee-like.com", "contact:phone": "+7 341 2908292;+7 800 3334130", "contact:website": "https://coffee-like.com/", "cuisine": "coffee_shop", "name": "Coffee Like", "opening_hours": "Mo-Su 09:00-22:00", "operator": "\u0411\u0443\u0433\u0440\u043e\u0432\u0430 \u0422\u0430\u0442\u044c\u044f\u043d\u0430 \u0410\u043b\u0435\u043a\u0441\u0430\u043d\u0434\u0440\u043e\u0432\u043d\u0430", "takeaway": "yes"}}, {"type": "node", "id": 6536736991, "lat": 48.7438549, "lon": 44.5193803, "tags": {"addr:city": "\u0412\u043e\u043b\u0433\u043e\u0433\u0440\u0430\u0434", "addr:housenumber": "110\u0411", "addr:street": "\u0443\u043b\u0438\u0446\u0430 \u0417\u0435\u043c\u043b\u044f\u0447\u043a\u0438", "amenity": "fast_food", "brand": "Coffee Like", "brand:wikidata": "Q55662627", "brand:wikipedia": "ru:Coffee Like", "contact:email": "hotline@coffee-like.com", "contact:phone": "+7 341 2908292;+7 800 3334130", "contact:website": "https://coffee-like.com/", "cuisine": "coffee_shop", "name": "Coffee Like", "opening_hours": "Mo-Su 10:00-22:00", "operator": "\u0420\u043e\u0434\u0438\u043e\u043d\u043e\u0432\u0430 \u0422\u0430\u0442\u044c\u044f\u043d\u0430 \u0410\u043d\u0434\u0440\u0435\u0435\u0432\u043d\u0430", "takeaway": "yes"}}, {"type": "node", "id": 6733118538, "lat": 48.5708978, "lon": 44.4301878, "tags": {"amenity": "fast_food", "name": "\u041d\u0430 \u041f\u0435\u0441\u0447\u0430\u043d\u043e\u0439", "opening_hours": "08:00-18:00", "wheelchair": "limited"}}, {"type": "node", "id": 6743754519, "lat": 48.7237301, "lon": 44.5150624, "tags": {"addr:country": "RU"}}, {"type": "node", "id": 6743754520, "lat": 48.7237795, "lon": 44.5151423}, {"type": "node", "id": 6743754521, "lat": 48.7237011, "lon": 44.5152535}, {"type": "node", "id": 6743754522, "lat": 48.7236517, "lon": 44.5151736}, {"type": "node", "id": 6773593094, "lat": 48.7240633, "lon": 44.5265927}, {"type": "node", "id": 6773593095, "lat": 48.7239335, "lon": 44.5266844}, {"type": "node", "id": 6773593096, "lat": 48.7238428, "lon": 44.5263894}, {"type": "node", "id": 6773593097, "lat": 48.7239727, "lon": 44.5262976}, {"type": "node", "id": 6777812830, "lat": 48.7651302, "lon": 44.5490545, "tags": {"amenity": "fast_food", "contact:phone": "+7 969 2888725", "contact:website": "https://confetkibaranochki.ru", "name": "\u041a\u043e\u043d\u0444\u0435\u0442\u043a\u0438-\u0431\u0430\u0440\u0430\u043d\u043e\u0447\u043a\u0438", "name:ru": "\u041a\u043e\u043d\u0444\u0435\u0442\u043a\u0438-\u0431\u0430\u0440\u0430\u043d\u043e\u0447\u043a\u0438", "opening_hours": "Mo-Su 08:00-20:00"}}, {"type": "node", "id": 6815824989, "lat": 48.8207309, "lon": 44.6363868, "tags": {"entrance": "yes"}}, {"type": "node", "id": 6828182442, "lat": 48.7035585, "lon": 44.5121844, "tags": {"amenity": "fast_food", "brand": "Subway", "brand:wikidata": "Q244457", "brand:wikipedia": "en:Subway (restaurant)", "cuisine": "sandwich", "name": "Subway", "takeaway": "yes"}}, {"type": "node", "id": 6828761369, "lat": 48.7840563, "lon": 44.5646377}, {"type": "node", "id": 6830005463, "lat": 48.7059592, "lon": 44.5176295, "tags": {"amenity": "fast_food", "brand": "\u0414\u043e\u0434\u043e \u041f\u0438\u0446\u0446\u0430", "brand:en": "Dodo Pizza", "brand:ru": "\u0414\u043e\u0434\u043e \u041f\u0438\u0446\u0446\u0430", "brand:wikidata": "Q61949318", "brand:wikipedia": "ru:\u0414\u043e\u0434\u043e \u041f\u0438\u0446\u0446\u0430", "cuisine": "pizza", "internet_access": "wlan", "name": "\u0414\u043e\u0434\u043e \u041f\u0438\u0446\u0446\u0430", "name:en": "Dodo Pizza", "name:ru": "\u0414\u043e\u0434\u043e \u041f\u0438\u0446\u0446\u0430", "opening_hours": "Mo-Su 08:30-00:00", "phone": "+7-800-3020060", "takeaway": "yes", "website": "https://dodopizza.ru/volgograd/alleya_geroev5"}}, {"type": "node", "id": 6830826692, "lat": 48.7748179, "lon": 44.5580741}, {"type": "node", "id": 6830826693, "lat": 48.7747768, "lon": 44.5581664}, {"type": "node", "id": 6830826694, "lat": 48.7747264, "lon": 44.5581148}, {"type": "node", "id": 6830826695, "lat": 48.7747674, "lon": 44.5580224}, {"type": "node", "id": 6895858391, "lat": 48.754073, "lon": 44.5042462}, {"type": "node", "id": 6895858392, "lat": 48.7540677, "lon": 44.5042374}, {"type": "node", "id": 6895858393, "lat": 48.754031, "lon": 44.5042879}, {"type": "node", "id": 6895858394, "lat": 48.754037, "lon": 44.5042975}, {"type": "node", "id": 6895858395, "lat": 48.7540609, "lon": 44.5042315}, {"type": "node", "id": 6895858396, "lat": 48.7540532, "lon": 44.5042291}, {"type": "node", "id": 6895858397, "lat": 48.7540454, "lon": 44.5042304}, {"type": "node", "id": 6895858398, "lat": 48.7540383, "lon": 44.5042352}, {"type": "node", "id": 6895858399, "lat": 48.7540325, "lon": 44.5042432}, {"type": "node", "id": 6895858400, "lat": 48.7540286, "lon": 44.5042535}, {"type": "node", "id": 6895858401, "lat": 48.754027, "lon": 44.5042652}, {"type": "node", "id": 6895858402, "lat": 48.7540278, "lon": 44.504277}, {"type": "node", "id": 6895858403, "lat": 48.7540448, "lon": 44.5043035}, {"type": "node", "id": 6895858404, "lat": 48.7540534, "lon": 44.504305}, {"type": "node", "id": 6895858405, "lat": 48.7540619, "lon": 44.504302}, {"type": "node", "id": 6895858406, "lat": 48.7540692, "lon": 44.5042948}, {"type": "node", "id": 6895858407, "lat": 48.7540744, "lon": 44.5042842}, {"type": "node", "id": 6895858408, "lat": 48.7540769, "lon": 44.5042716}, {"type": "node", "id": 6895858409, "lat": 48.7540764, "lon": 44.5042584}, {"type": "node", "id": 6902273714, "lat": 48.747946, "lon": 44.4995289, "tags": {"entrance": "yes"}}, {"type": "node", "id": 6902273716, "lat": 48.7480717, "lon": 44.4993962, "tags": {"entrance": "yes"}}, {"type": "node", "id": 6909288867, "lat": 48.7585688, "lon": 44.5009732, "tags": {"amenity": "fast_food"}}, {"type": "node", "id": 6918296735, "lat": 48.7846213, "lon": 44.5640635, "tags": {"amenity": "fast_food"}}, {"type": "node", "id": 6964725951, "lat": 48.7842963, "lon": 44.5637057, "tags": {"amenity": "fast_food", "cuisine": "russian", "drive_through": "no", "name": "\u0411\u043b\u0438\u043d \u0431\u0435\u0440\u0440\u0438"}}, {"type": "node", "id": 6970723599, "lat": 48.7295034, "lon": 44.5239623, "tags": {"amenity": "fast_food"}}, {"type": "node", "id": 6996198156, "lat": 48.743756, "lon": 44.5189104, "tags": {"addr:city": "\u0412\u043e\u043b\u0433\u043e\u0433\u0440\u0430\u0434", "addr:housenumber": "110\u0411", "addr:street": "\u0443\u043b\u0438\u0446\u0430 \u0417\u0435\u043c\u043b\u044f\u0447\u043a\u0438", "amenity": "fast_food", "brand": "Coffee Like", "brand:wikidata": "Q55662627", "brand:wikipedia": "ru:Coffee Like", "contact:email": "hotline@coffee-like.com", "contact:phone": "+7 341 2908292;+7 800 3334130", "contact:website": "https://coffee-like.com/", "cuisine": "coffee_shop", "name": "Coffee Like", "opening_hours": "Mo-Su 10:00-22:00", "operator": "\u0420\u043e\u0434\u0438\u043e\u043d\u043e\u0432\u0430 \u0422\u0430\u0442\u044c\u044f\u043d\u0430 \u0410\u043d\u0434\u0440\u0435\u0435\u0432\u043d\u0430", "takeaway": "yes"}}, {"type": "node", "id": 7060826324, "lat": 48.7562144, "lon": 44.5009202}, {"type": "node", "id": 7060826325, "lat": 48.7562021, "lon": 44.5008814}, {"type": "node", "id": 7060826326, "lat": 48.7561783, "lon": 44.5008989}, {"type": "node", "id": 7060826327, "lat": 48.7561907, "lon": 44.5009376}, {"type": "node", "id": 7197871242, "lat": 48.8000443, "lon": 44.6039943, "tags": {"addr:city": "\u0412\u043e\u043b\u0433\u043e\u0433\u0440\u0430\u0434", "addr:housenumber": "1\u0411", "addr:street": "\u043f\u043b\u043e\u0449\u0430\u0434\u044c \u0414\u0437\u0435\u0440\u0436\u0438\u043d\u0441\u043a\u043e\u0433\u043e", "amenity": "fast_food", "name": "\"\u0410\u043b\u043b\u0430\u0434\u0438\u043d\"", "opening_hours": "Mo-Su 10:00-21:00", "operator": "\u0418\u041f \u0421\u0430\u0431\u0438\u0440\u043d\u0438\u044f\u0437\u043e\u0432\u0430 \u042f. \u0410."}}, {"type": "node", "id": 7197894646, "lat": 48.8006107, "lon": 44.5983858, "tags": {"addr:city": "\u0412\u043e\u043b\u0433\u043e\u0433\u0440\u0430\u0434", "addr:housenumber": "9", "addr:street": "\u041e\u043f\u043e\u043b\u0447\u0435\u043d\u0441\u043a\u0430\u044f \u0443\u043b\u0438\u0446\u0430", "amenity": "fast_food", "name": "\u0411\u0438\u0441\u0442\u0440\u043e", "opening_hours": "Mo-Su 09:00-21:00", "operator": "\u0418\u041f \u0411\u0430\u0442\u0440\u0430\u043a\u043e\u0432 \u041e. \u0412.", "phone": "+7-8442-29-24-00"}}, {"type": "node", "id": 7197914643, "lat": 48.7996929, "lon": 44.604422, "tags": {"addr:city": "\u0412\u043e\u043b\u0433\u043e\u0433\u0440\u0430\u0434", "addr:housenumber": "1\u0411", "addr:street": "\u043f\u043b\u043e\u0449\u0430\u0434\u044c \u0414\u0437\u0435\u0440\u0436\u0438\u043d\u0441\u043a\u043e\u0433\u043e", "amenity": "fast_food", "name": "\"Pizza cip\"", "opening_hours": "Mo-Su 10:00-21:00", "operator": "\u041e\u041e\u041e \"\u0413\u0443\u0434\u0424\u0443\u0434\""}}, {"type": "node", "id": 7197914938, "lat": 48.7996591, "lon": 44.6049643, "tags": {"addr:city": "\u0412\u043e\u043b\u0433\u043e\u0433\u0440\u0430\u0434", "addr:housenumber": "1\u0411", "addr:street": "\u043f\u043b\u043e\u0449\u0430\u0434\u044c \u0414\u0437\u0435\u0440\u0436\u0438\u043d\u0441\u043a\u043e\u0433\u043e", "amenity": "fast_food", "brand": "\u0411\u0443\u0440\u0433\u0435\u0440 \u041a\u0438\u043d\u0433", "brand:en": "Burger King", "brand:ru": "\u0411\u0443\u0440\u0433\u0435\u0440 \u041a\u0438\u043d\u0433", "brand:wikidata": "Q177054", "contact:email": "FeedBack@burgerking.ru", "contact:phone": "+7 495 5445000", "contact:vk": "https://vk.com/burgerking", "contact:website": "https://burgerkingrus.ru/", "cuisine": "burger", "name": "\u0411\u0443\u0440\u0433\u0435\u0440 \u041a\u0438\u043d\u0433", "name:en": "Burger King", "name:ru": "\u0411\u0443\u0440\u0433\u0435\u0440 \u041a\u0438\u043d\u0433", "opening_hours": "Mo,Su 10:00-21:00;Tu-Sa 10:00-20:55", "operator": "\u0411\u0423\u0420\u0413\u0415\u0420 \u0420\u0423\u0421", "takeaway": "yes"}}, {"type": "node", "id": 7197922286, "lat": 48.7988768, "lon": 44.6044, "tags": {"addr:city": "\u0412\u043e\u043b\u0433\u043e\u0433\u0440\u0430\u0434", "addr:housenumber": "1\u0411", "addr:street": "\u043f\u043b\u043e\u0449\u0430\u0434\u044c \u0414\u0437\u0435\u0440\u0436\u0438\u043d\u0441\u043a\u043e\u0433\u043e", "amenity": "fast_food", "drive_through": "no", "name": "\"\u041c\u0438\u0441\u0442\u0435\u0440-\u0411\u0443\u0440\u0433\u0435\u0440\"", "opening_hours": "Mo-Su 10:00-21:00", "operator": "\u0418\u041f \u0428\u0435\u043b\u043a\u043e\u0432 \u0420. \u0415.", "phone": "+7-8442-60-22-30"}}, {"type": "node", "id": 7197938763, "lat": 48.7987926, "lon": 44.6043338, "tags": {"addr:city": "\u0412\u043e\u043b\u0433\u043e\u0433\u0440\u0430\u0434", "addr:housenumber": "1\u0411", "addr:street": "\u043f\u043b\u043e\u0449\u0430\u0434\u044c \u0414\u0437\u0435\u0440\u0436\u0438\u043d\u0441\u043a\u043e\u0433\u043e", "amenity": "fast_food", "name": "\"\u0421\u0430\u0431 \u0412\u0435\u0439\"", "opening_hours": "Mo-Su 10:00-21:00", "operator": "\u0418\u041f \u041a\u043e\u043c\u0438\u0441\u043e\u0432\u0441\u043a\u0430\u044f \u041d. \u0412."}}, {"type": "node", "id": 7197940136, "lat": 48.7997858, "lon": 44.6045102, "tags": {"addr:city": "\u0412\u043e\u043b\u0433\u043e\u0433\u0440\u0430\u0434", "addr:housenumber": "1\u0411", "addr:street": "\u043f\u043b\u043e\u0449\u0430\u0434\u044c \u0414\u0437\u0435\u0440\u0436\u0438\u043d\u0441\u043a\u043e\u0433\u043e", "amenity": "fast_food", "name": "\"\u041f\u0430\u043b\u0435\u0440\u043c\u043e - \u043f\u0438\u0446\u0446\u0430\"", "opening_hours": "Mo-Su 10:00-21:00", "operator": "\u0418\u041f \u0415\u0433\u043e\u0437\u0430\u0440\u044c\u044f\u043d \u0410. \u0413."}}, {"type": "node", "id": 7197955401, "lat": 48.799902, "lon": 44.6045631, "tags": {"addr:city": "\u0412\u043e\u043b\u0433\u043e\u0433\u0440\u0430\u0434", "addr:housenumber": "1\u0411", "addr:street": "\u043f\u043b\u043e\u0449\u0430\u0434\u044c \u0414\u0437\u0435\u0440\u0436\u0438\u043d\u0441\u043a\u043e\u0433\u043e", "amenity": "fast_food", "level": "1", "name": "\"\u0411\u043b\u0438\u043d\u0411\u0435\u0440\u0440\u0438\"", "opening_hours": "Mo-Su 10:00-21:00", "operator": "\u041e\u041e\u041e \"\u0411\u043b\u0438\u043d\u0411\u0435\u0440\u0440\u0438\""}}, {"type": "node", "id": 7197958996, "lat": 48.7999514, "lon": 44.6045323, "tags": {"addr:city": "\u0412\u043e\u043b\u0433\u043e\u0433\u0440\u0430\u0434", "addr:housenumber": "1\u0411", "addr:street": "\u043f\u043b\u043e\u0449\u0430\u0434\u044c \u0414\u0437\u0435\u0440\u0436\u0438\u043d\u0441\u043a\u043e\u0433\u043e", "amenity": "fast_food", "name": "\"\u0421\u0443\u0448\u0438 \u0412\u0435\u0441\u043b\u0430\"", "opening_hours": "Mo-Su 10:00-21:00", "operator": "\u041e\u041e\u041e \"\u0421\u0412-\u0412\u043e\u043b\u0436\u0441\u043a\u0438\u0439\""}}, {"type": "node", "id": 7197986747, "lat": 48.7984104, "lon": 44.5988579, "tags": {"addr:city": "\u0412\u043e\u043b\u0433\u043e\u0433\u0440\u0430\u0434", "addr:housenumber": "8", "addr:street": "\u0443\u043b\u0438\u0446\u0430 \u0428\u0443\u0440\u0443\u0445\u0438\u043d\u0430", "amenity": "fast_food", "name": "\"\u041a\u0430\u0431\u0430\u0447\u043e\u043a\"", "opening_hours": "Mo-Su 09:00-21:00", "operator": "\u0418\u041f \u0411\u0430\u0439\u0440\u0430\u043c\u043e\u0432 \u0411. \u041c."}}, {"type": "node", "id": 7197995485, "lat": 48.8006105, "lon": 44.5986782, "tags": {"addr:city": "\u0412\u043e\u043b\u0433\u043e\u0433\u0440\u0430\u0434", "addr:housenumber": "9", "addr:street": "\u041e\u043f\u043e\u043b\u0447\u0435\u043d\u0441\u043a\u0430\u044f \u0443\u043b\u0438\u0446\u0430", "amenity": "fast_food", "name": "\"\u041c\u0438\u0440\u0430\u0436\"", "opening_hours": "Mo-Su 09:00-21:00", "operator": "\u0418\u041f \u0411\u043b\u0438\u043d\u043e\u0432 \u0412. \u0418.", "phone": "+7-909-381-01-44"}}, {"type": "node", "id": 7198033874, "lat": 48.7908894, "lon": 44.5823659, "tags": {"addr:city": "\u0412\u043e\u043b\u0433\u043e\u0433\u0440\u0430\u0434", "addr:housenumber": "61", "addr:street": "\u041e\u043f\u043e\u043b\u0447\u0435\u043d\u0441\u043a\u0430\u044f \u0443\u043b\u0438\u0446\u0430", "amenity": "fast_food", "name": "\"\u0421\u043f\u0443\u0442\u043d\u0438\u043a\"", "opening_hours": "Mo-Su 09:00-21:00", "operator": "\u0418\u041f \u041c\u0435\u0434\u0435\u043d\u0446\u043e\u0432\u0430 \u0415. \u0412.", "phone": "+7-8442-717522"}}, {"type": "node", "id": 7198123533, "lat": 48.8195757, "lon": 44.6240152, "tags": {"addr:city": "\u0412\u043e\u043b\u0433\u043e\u0433\u0440\u0430\u0434", "addr:housenumber": "18", "addr:street": "\u0443\u043b\u0438\u0446\u0430 \u041c\u044f\u0441\u043d\u0438\u043a\u043e\u0432\u0430", "amenity": "fast_food", "opening_hours": "Mo-Su 09:00-20:00", "operator": "\u0418\u041f \u041f\u0430\u043d\u043e\u0432\u0430 \u041b. \u0412.", "phone": "+7-904-751-39-23"}}, {"type": "node", "id": 7198124868, "lat": 48.822105, "lon": 44.6370413, "tags": {"addr:city": "\u0412\u043e\u043b\u0433\u043e\u0433\u0440\u0430\u0434", "addr:housenumber": "15", "addr:street": "\u0443\u043b\u0438\u0446\u0430 \u041d\u0438\u043a\u043e\u043b\u0430\u044f \u041e\u0442\u0440\u0430\u0434\u044b", "amenity": "fast_food", "cuisine": "pizza", "name": "\"\u0414\u043e\u043c\u0438\u043d\u043e\"", "opening_hours": "Mo-Su 09:00-21:00", "operator": "\u041e\u041e\u041e \"\u0417\u043e\u043b\u043e\u0442\u043e\u0435 \u0420\u0443\u043d\u043e\"", "phone": "+7-8442-70-64-71"}}, {"type": "node", "id": 7198129042, "lat": 48.8163109, "lon": 44.6229178, "tags": {"addr:city": "\u0412\u043e\u043b\u0433\u043e\u0433\u0440\u0430\u0434", "addr:housenumber": "15", "addr:street": "\u0443\u043b\u0438\u0446\u0430 \u041c\u0435\u043d\u0436\u0438\u043d\u0441\u043a\u043e\u0433\u043e", "amenity": "fast_food", "opening_hours": "Mo-Su 10:00-20:00", "operator": "\u0418\u041f \u0428\u0430\u043d\u0447\u0443\u043a \u0421. \u0415.", "phone": "+7-902-658-57-58"}}, {"type": "node", "id": 7198148739, "lat": 48.8212996, "lon": 44.6341431, "tags": {"addr:city": "\u0412\u043e\u043b\u0433\u043e\u0433\u0440\u0430\u0434", "addr:street": "\u0443\u043b\u0438\u0446\u0430 \u0410\u043a\u0430\u0434\u0435\u043c\u0438\u043a\u0430 \u0411\u043e\u0433\u043e\u043c\u043e\u043b\u044c\u0446\u0430", "amenity": "fast_food", "opening_hours": "Mo-Su 09:00-21:00", "operator": "\u0418\u041f \u0428\u0430\u043d\u0447\u0443\u043a \u0421. \u0415.", "phone": "+7-902-658-57-58"}}, {"type": "node", "id": 7198189049, "lat": 48.8153918, "lon": 44.6251286, "tags": {"addr:city": "\u0412\u043e\u043b\u0433\u043e\u0433\u0440\u0430\u0434", "addr:housenumber": "6\u0413", "addr:street": "\u0443\u043b\u0438\u0446\u0430 \u041d\u0438\u043a\u043e\u043b\u0430\u044f \u041e\u0442\u0440\u0430\u0434\u044b", "amenity": "fast_food", "name": "\"\u0420\u0443\u0441\u0442\u0435\u0440\u0441\"", "opening_hours": "Mo-Su 09:00-21:00", "operator": "\u0418\u041f \u042f\u0440\u0435\u043c\u0431\u0430\u0448 \u0421. \u0412.", "phone": "+7-8442-37-82-83"}}, {"type": "node", "id": 7198195375, "lat": 48.8007034, "lon": 44.5988446, "tags": {"addr:city": "\u0412\u043e\u043b\u0433\u043e\u0433\u0440\u0430\u0434", "addr:housenumber": "9", "addr:street": "\u041e\u043f\u043e\u043b\u0447\u0435\u043d\u0441\u043a\u0430\u044f \u0443\u043b\u0438\u0446\u0430", "amenity": "fast_food", "name": "\u041a\u0443\u043b\u0438\u043d\u0430\u0440\u0438\u044f", "opening_hours": "Mo-Su 09:00-21:00", "operator": "\u0418\u041f \u0411\u0430\u0442\u0440\u0430\u043a\u043e\u0432\u0430 \u041e. \u0412.", "phone": "+7-8442-39-66-11"}}, {"type": "node", "id": 7198196548, "lat": 48.8006343, "lon": 44.5970911, "tags": {"addr:city": "\u0412\u043e\u043b\u0433\u043e\u0433\u0440\u0430\u0434", "addr:housenumber": "14\u0410", "addr:street": "\u041e\u043f\u043e\u043b\u0447\u0435\u043d\u0441\u043a\u0430\u044f \u0443\u043b\u0438\u0446\u0430", "amenity": "fast_food", "name": "\u0428\u0430\u0443\u0440\u043c\u0430 33", "opening_hours": "Mo-Su 08:00-20:00", "operator": "\u0418\u041f \u0411\u043b\u0438\u043d\u043e\u0432 \u0412. \u0418.", "phone": "+7 (999) 626-97-99"}}, {"type": "node", "id": 7198209484, "lat": 48.8005117, "lon": 44.595207, "tags": {"addr:city": "\u0412\u043e\u043b\u0433\u043e\u0433\u0440\u0430\u0434", "addr:housenumber": "16", "addr:street": "\u041e\u043f\u043e\u043b\u0447\u0435\u043d\u0441\u043a\u0430\u044f \u0443\u043b\u0438\u0446\u0430", "amenity": "fast_food", "name": "\"\u0420\u0443\u0441\u0442\u0435\u0440\u0441\"", "opening_hours": "Mo-Su 09:00-21:00", "operator": "\u0418\u041f \u042f\u0440\u0435\u043c\u0431\u0430\u0448", "phone": "+7-8442-29-29-11"}}, {"type": "node", "id": 7198224507, "lat": 48.8017461, "lon": 44.6032054, "tags": {"addr:city": "\u0412\u043e\u043b\u0433\u043e\u0433\u0440\u0430\u0434", "addr:street": "\u041e\u043f\u043e\u043b\u0447\u0435\u043d\u0441\u043a\u0430\u044f \u0443\u043b\u0438\u0446\u0430", "amenity": "fast_food", "name": "\"\u0428\u0430\u0443\u0440\u043c\u0430\"", "opening_hours": "Mo-Su 09:00-21:00", "operator": "\u0418\u041f \u0414\u0438\u043b\u0430\u043d\u044f\u043d \u0421.\u041b.", "phone": "+7-988-491-94-71"}}, {"type": "node", "id": 7198261744, "lat": 48.8039822, "lon": 44.5979133, "tags": {"addr:city": "\u0412\u043e\u043b\u0433\u043e\u0433\u0440\u0430\u0434", "addr:housenumber": "15", "addr:street": "\u0443\u043b\u0438\u0446\u0430 \u0414\u0437\u0435\u0440\u0436\u0438\u043d\u0441\u043a\u043e\u0433\u043e", "amenity": "fast_food", "opening_hours": "Mo-Su 09:00-21:00", "operator": "\u0418\u041f \u041f\u0430\u0448\u043d\u0438\u043d\u0430 \u0412. \u042e.", "phone": "+7-902-364-38-72"}}, {"type": "node", "id": 7198292140, "lat": 48.8191288, "lon": 44.6368024, "tags": {"addr:city": "\u0412\u043e\u043b\u0433\u043e\u0433\u0440\u0430\u0434", "addr:housenumber": "2", "addr:street": "\u0443\u043b\u0438\u0446\u0430 \u041a\u0430\u0441\u0442\u0435\u0440\u0438\u043d\u0430", "amenity": "fast_food", "opening_hours": "Mo-Su 09:00-21:00", "operator": "\u0418\u041f \u041f\u0430\u043d\u043e\u0432\u0430 \u041b. \u0412.", "phone": "+7-904-751-39-23"}}, {"type": "node", "id": 7198319526, "lat": 48.8041491, "lon": 44.5904979, "tags": {"addr:city": "\u0412\u043e\u043b\u0433\u043e\u0433\u0440\u0430\u0434", "addr:housenumber": "20", "addr:street": "\u0443\u043b\u0438\u0446\u0430 \u0416\u043e\u043b\u0443\u0434\u0435\u0432\u0430", "amenity": "fast_food", "opening_hours": "Mo-Su 09:00-21:00", "operator": "\u0418\u041f \u0410\u043b\u0438\u0435\u0432 \u0412. \u0410.", "phone": "+7-960-887-15-15"}}, {"type": "node", "id": 7205216065, "lat": 48.6730335, "lon": 44.4691193, "tags": {"addr:street": "\u0443\u043b\u0438\u0446\u0430 25-\u043b\u0435\u0442\u0438\u044f \u041e\u043a\u0442\u044f\u0431\u0440\u044f", "amenity": "fast_food", "name": "\u0428\u0430\u0443\u0440\u043c\u0430"}}, {"type": "node", "id": 7205230459, "lat": 48.6758415, "lon": 44.4722246, "tags": {"addr:street": "\u0422\u0443\u0440\u043a\u043c\u0435\u043d\u0441\u043a\u0430\u044f \u0443\u043b\u0438\u0446\u0430", "amenity": "fast_food", "name": "\u0411\u043b\u0438\u043d\u041c\u0430\u0441\u0442\u0435\u0440"}}, {"type": "node", "id": 7205231938, "lat": 48.6757086, "lon": 44.4721559, "tags": {"amenity": "fast_food", "name": "Taksim"}}, {"type": "node", "id": 7205271665, "lat": 48.6784125, "lon": 44.4740949, "tags": {"amenity": "fast_food", "name": "Taksim"}}, {"type": "node", "id": 7205306189, "lat": 48.6765647, "lon": 44.4559881, "tags": {"amenity": "fast_food", "name": "\u0428\u0430\u0443\u0440\u043c\u0430"}}, {"type": "node", "id": 7205357947, "lat": 48.6765546, "lon": 44.4728851, "tags": {"amenity": "fast_food", "name": "MyBox"}}, {"type": "node", "id": 7205390828, "lat": 48.6746132, "lon": 44.4440027, "tags": {"amenity": "fast_food", "name": "\u0411\u043e\u043d-\u0430\u043f\u043f\u0435\u0442\u0438\u0442"}}, {"type": "node", "id": 7205579224, "lat": 48.6757541, "lon": 44.4453147, "tags": {"amenity": "fast_food", "name": "\u0428\u0430\u0443\u0440\u043c\u0430 Club"}}, {"type": "node", "id": 7205579421, "lat": 48.6757674, "lon": 44.4447988, "tags": {"amenity": "fast_food", "name": "\u0428\u0430\u0443\u0440\u043c\u0430 \"\u041f\u043e \u0446\u0430\u0440\u0441\u043a\u0438\""}}, {"type": "node", "id": 7205836869, "lat": 48.6593226, "lon": 44.438802, "tags": {"amenity": "fast_food", "name": "\u0411\u0438\u0441\u0442\u0440\u043e"}}, {"type": "node", "id": 7210798226, "lat": 48.6961246, "lon": 44.5008597, "tags": {"amenity": "fast_food", "fast_food": "cafeteria", "name": "\u041c\u0430\u043d\u0433\u0430\u043b", "operator": "\u0418\u041f \u041a\u0430\u0440\u0430\u043f\u0435\u0442\u044f\u043d \u0410.\u0421."}}, {"type": "node", "id": 7210803109, "lat": 48.6945534, "lon": 44.494784, "tags": {"amenity": "fast_food", "brand": "Subway", "brand:wikidata": "Q244457", "brand:wikipedia": "en:Subway (restaurant)", "cuisine": "sandwich", "description": "\u0418\u041f \u041a\u0440\u0430\u0441\u043e\u0432\u0430 \u042e\u043b\u0438\u044f \u0421\u0435\u0440\u0433\u0435\u0435\u0432\u043d\u0430", "name": "Subway", "takeaway": "yes"}}, {"type": "node", "id": 7217806455, "lat": 48.6893801, "lon": 44.4941188, "tags": {"amenity": "fast_food", "fast_food": "cafeteria", "operator": "\u0418\u041f \u0420\u0443\u0431\u0430\u043d \u041c\u0430\u043a\u0441\u0438\u043c \u0410\u043b\u0435\u043a\u0441\u0430\u043d\u0434\u0440\u043e\u0432\u0438\u0447"}}, {"type": "node", "id": 7217813351, "lat": 48.6895684, "lon": 44.4927277, "tags": {"amenity": "fast_food", "fast_food": "cafeteria", "name": "\u0421\u0442\u043e\u043b\u043e\u0432\u0430\u044f \u21161", "operator": "\u0418\u041f \u041e\u0441\u0438\u043d \u0412\u043b\u0430\u0434\u0438\u0441\u043b\u0430\u0432 \u042e\u0440\u044c\u0435\u0432\u0438\u0447"}}, {"type": "node", "id": 7217827611, "lat": 48.6949633, "lon": 44.494033, "tags": {"amenity": "fast_food", "name": "\u0411\u043b\u0438\u043d\u041c\u0430\u0441\u0442\u0435\u0440"}}, {"type": "node", "id": 7217916366, "lat": 48.6367042, "lon": 44.4357954, "tags": {"amenity": "fast_food", "name": "\u0411\u043b\u0438\u043d \u0431\u0438\u0440\u0438"}}, {"type": "node", "id": 7217925525, "lat": 48.6364684, "lon": 44.4362138, "tags": {"amenity": "fast_food"}}, {"type": "node", "id": 7217940249, "lat": 48.6363834, "lon": 44.4359724, "tags": {"amenity": "fast_food"}}, {"type": "node", "id": 7217940250, "lat": 48.6368743, "lon": 44.4365974, "tags": {"amenity": "fast_food"}}, {"type": "node", "id": 7217940251, "lat": 48.6362097, "lon": 44.4354092, "tags": {"amenity": "fast_food"}}, {"type": "node", "id": 7217940252, "lat": 48.6362504, "lon": 44.4362648, "tags": {"amenity": "fast_food"}}, {"type": "node", "id": 7217940253, "lat": 48.6365943, "lon": 44.4363882, "tags": {"amenity": "fast_food"}}, {"type": "node", "id": 7217940254, "lat": 48.6360714, "lon": 44.4360744, "tags": {"amenity": "fast_food"}}, {"type": "node", "id": 7217940255, "lat": 48.6364844, "lon": 44.4366806, "tags": {"amenity": "fast_food"}}, {"type": "node", "id": 7217940256, "lat": 48.6360927, "lon": 44.4362138, "tags": {"amenity": "fast_food"}}, {"type": "node", "id": 7217940257, "lat": 48.6370835, "lon": 44.4356935, "tags": {"amenity": "fast_food"}}, {"type": "node", "id": 7217940258, "lat": 48.6365358, "lon": 44.4357257, "tags": {"amenity": "fast_food"}}, {"type": "node", "id": 7217940259, "lat": 48.6357382, "lon": 44.4361763, "tags": {"amenity": "fast_food"}}, {"type": "node", "id": 7217940260, "lat": 48.6355148, "lon": 44.4362004, "tags": {"amenity": "fast_food"}}, {"type": "node", "id": 7217940261, "lat": 48.6355591, "lon": 44.4354306, "tags": {"amenity": "fast_food"}}, {"type": "node", "id": 7217940262, "lat": 48.6353961, "lon": 44.4359939, "tags": {"amenity": "fast_food"}}, {"type": "node", "id": 7217940263, "lat": 48.6358729, "lon": 44.4362165, "tags": {"amenity": "fast_food"}}, {"type": "node", "id": 7217940264, "lat": 48.6356141, "lon": 44.4356613, "tags": {"amenity": "fast_food"}}, {"type": "node", "id": 7217940265, "lat": 48.6357328, "lon": 44.4351249, "tags": {"amenity": "fast_food"}}, {"type": "node", "id": 7217940266, "lat": 48.6360094, "lon": 44.4362997, "tags": {"amenity": "fast_food"}}, {"type": "node", "id": 7217940267, "lat": 48.6361352, "lon": 44.4366832, "tags": {"amenity": "fast_food"}}, {"type": "node", "id": 7217940268, "lat": 48.6365074, "lon": 44.4360207, "tags": {"amenity": "fast_food"}}, {"type": "node", "id": 7217940269, "lat": 48.636713, "lon": 44.4355433, "tags": {"amenity": "fast_food", "contact:phone": "+7 341 2908292;+7 800 3334130", "contact:website": "https://coffee-like.com/", "cuisine": "coffee_shop", "name": "Coffee Like", "opening_hours": "Mo-Su 10:00-22:00"}}, {"type": "node", "id": 7217940270, "lat": 48.6367166, "lon": 44.4368334, "tags": {"amenity": "fast_food"}}, {"type": "node", "id": 7217940271, "lat": 48.6364596, "lon": 44.4364472, "tags": {"amenity": "fast_food"}}, {"type": "node", "id": 7217957609, "lat": 48.6766497, "lon": 44.452531, "tags": {"amenity": "fast_food"}}, {"type": "node", "id": 7217957610, "lat": 48.6765735, "lon": 44.4525391, "tags": {"amenity": "fast_food"}}, {"type": "node", "id": 7217967610, "lat": 48.6736569, "lon": 44.4512138, "tags": {"amenity": "fast_food"}}, {"type": "node", "id": 7217967611, "lat": 48.6732229, "lon": 44.4513962, "tags": {"amenity": "fast_food"}}, {"type": "node", "id": 7217967612, "lat": 48.6732318, "lon": 44.4507686, "tags": {"amenity": "fast_food"}}, {"type": "node", "id": 7218008795, "lat": 48.6576153, "lon": 44.4366984, "tags": {"amenity": "fast_food"}}, {"type": "node", "id": 7218008797, "lat": 48.6590362, "lon": 44.4367896, "tags": {"amenity": "fast_food"}}, {"type": "node", "id": 7218008798, "lat": 48.6588838, "lon": 44.4379858, "tags": {"amenity": "fast_food"}}, {"type": "node", "id": 7218238643, "lat": 48.6859677, "lon": 44.3059174, "tags": {"amenity": "fast_food"}}, {"type": "node", "id": 7222050222, "lat": 48.6548549, "lon": 44.4319347, "tags": {"amenity": "fast_food"}}, {"type": "node", "id": 7222053199, "lat": 48.6789702, "lon": 44.4386027, "tags": {"amenity": "fast_food"}}, {"type": "node", "id": 7222059165, "lat": 48.6733682, "lon": 44.4695862, "tags": {"amenity": "fast_food"}}, {"type": "node", "id": 7222059166, "lat": 48.6728031, "lon": 44.4689746, "tags": {"amenity": "fast_food"}}, {"type": "node", "id": 7222067685, "lat": 48.6427215, "lon": 44.4164874, "tags": {"amenity": "fast_food"}}, {"type": "node", "id": 7222067686, "lat": 48.6453538, "lon": 44.4174176, "tags": {"amenity": "fast_food"}}, {"type": "node", "id": 7222188244, "lat": 48.677794, "lon": 44.4809772, "tags": {"amenity": "fast_food"}}, {"type": "node", "id": 7222226471, "lat": 48.6548705, "lon": 44.4353326, "tags": {"amenity": "fast_food"}}, {"type": "node", "id": 7222226472, "lat": 48.6547916, "lon": 44.4353741, "tags": {"amenity": "fast_food"}}, {"type": "node", "id": 7222226473, "lat": 48.6552346, "lon": 44.434202, "tags": {"amenity": "fast_food"}}, {"type": "node", "id": 7222226474, "lat": 48.6602416, "lon": 44.4353031, "tags": {"amenity": "fast_food"}}, {"type": "node", "id": 7222226475, "lat": 48.6603151, "lon": 44.4348618, "tags": {"amenity": "fast_food"}}, {"type": "node", "id": 7229932988, "lat": 48.6749724, "lon": 44.444285, "tags": {"amenity": "fast_food"}}, {"type": "node", "id": 7229932990, "lat": 48.675681, "lon": 44.4448244, "tags": {"amenity": "fast_food"}}, {"type": "node", "id": 7229932991, "lat": 48.6734705, "lon": 44.4457871, "tags": {"amenity": "fast_food"}}, {"type": "node", "id": 7229970484, "lat": 48.6852454, "lon": 44.4496383, "tags": {"amenity": "fast_food"}}, {"type": "node", "id": 7230048969, "lat": 48.6765649, "lon": 44.4717081, "tags": {"amenity": "fast_food"}}, {"type": "node", "id": 7230048970, "lat": 48.6761576, "lon": 44.4713648, "tags": {"amenity": "fast_food"}}, {"type": "node", "id": 7230102750, "lat": 48.6758115, "lon": 44.4725978, "tags": {"amenity": "fast_food"}}, {"type": "node", "id": 7230102752, "lat": 48.6754254, "lon": 44.4722813, "tags": {"amenity": "fast_food"}}, {"type": "node", "id": 7230171348, "lat": 48.6811108, "lon": 44.4312871, "tags": {"amenity": "fast_food"}}, {"type": "node", "id": 7230228053, "lat": 48.6871975, "lon": 44.3208034, "tags": {"amenity": "fast_food"}}, {"type": "node", "id": 7230228055, "lat": 48.687012, "lon": 44.3199054, "tags": {"amenity": "fast_food"}}, {"type": "node", "id": 7230228056, "lat": 48.6870456, "lon": 44.3199725, "tags": {"amenity": "fast_food"}}, {"type": "node", "id": 7230228057, "lat": 48.6869075, "lon": 44.3218366, "tags": {"amenity": "fast_food"}}, {"type": "node", "id": 7230228059, "lat": 48.6878672, "lon": 44.3213404, "tags": {"amenity": "fast_food"}}, {"type": "node", "id": 7230228060, "lat": 48.6881027, "lon": 44.3209783, "tags": {"amenity": "fast_food"}}, {"type": "node", "id": 7230228061, "lat": 48.6879611, "lon": 44.3209622, "tags": {"amenity": "fast_food"}}, {"type": "node", "id": 7230228062, "lat": 48.688834, "lon": 44.3192858, "tags": {"amenity": "fast_food"}}, {"type": "node", "id": 7230228063, "lat": 48.6891315, "lon": 44.3186984, "tags": {"amenity": "fast_food"}}, {"type": "node", "id": 7230228064, "lat": 48.689151, "lon": 44.3188218, "tags": {"amenity": "fast_food"}}, {"type": "node", "id": 7232190779, "lat": 48.6664921, "lon": 44.4384925, "tags": {"amenity": "fast_food"}}, {"type": "node", "id": 7232190780, "lat": 48.663392, "lon": 44.4376557, "tags": {"amenity": "fast_food"}}, {"type": "node", "id": 7232190782, "lat": 48.6629137, "lon": 44.4376235, "tags": {"amenity": "fast_food"}}, {"type": "node", "id": 7232190783, "lat": 48.6622086, "lon": 44.4382887, "tags": {"amenity": "fast_food"}}, {"type": "node", "id": 7232190784, "lat": 48.6624247, "lon": 44.4374411, "tags": {"amenity": "fast_food"}}, {"type": "node", "id": 7232196565, "lat": 48.6895009, "lon": 44.3114362, "tags": {"amenity": "fast_food"}}, {"type": "node", "id": 7232196566, "lat": 48.6909245, "lon": 44.312037, "tags": {"amenity": "fast_food"}}, {"type": "node", "id": 7232196567, "lat": 48.6903862, "lon": 44.3098161, "tags": {"amenity": "fast_food"}}, {"type": "node", "id": 7232196568, "lat": 48.6893714, "lon": 44.3096574, "tags": {"amenity": "fast_food"}}, {"type": "node", "id": 7232196572, "lat": 48.690149, "lon": 44.3098215, "tags": {"amenity": "fast_food"}}, {"type": "node", "id": 7232196573, "lat": 48.6882225, "lon": 44.3117473, "tags": {"amenity": "fast_food"}}, {"type": "node", "id": 7232196574, "lat": 48.6890901, "lon": 44.3084965, "tags": {"amenity": "fast_food"}}, {"type": "node", "id": 7232196575, "lat": 48.6890122, "lon": 44.3103096, "tags": {"amenity": "fast_food"}}, {"type": "node", "id": 7266707374, "lat": 48.7493875, "lon": 44.4977463, "tags": {"amenity": "fast_food", "name": "\u0420\u043e\u0431 \u0420\u043e\u0439"}}, {"type": "node", "id": 7505840263, "lat": 48.7261438, "lon": 44.5411867, "tags": {"amenity": "fast_food", "brand": "\u0411\u0443\u0440\u0433\u0435\u0440 \u041a\u0438\u043d\u0433", "brand:en": "Burger King", "brand:ru": "\u0411\u0443\u0440\u0433\u0435\u0440 \u041a\u0438\u043d\u0433", "brand:wikidata": "Q177054", "contact:email": "FeedBack@burgerking.ru", "contact:phone": "+7 495 5445000", "contact:vk": "https://vk.com/burgerking", "contact:website": "https://burgerkingrus.ru/", "cuisine": "burger", "name": "\u0411\u0443\u0440\u0433\u0435\u0440 \u041a\u0438\u043d\u0433", "name:en": "Burger King", "name:ru": "\u0411\u0443\u0440\u0433\u0435\u0440 \u041a\u0438\u043d\u0433", "opening_hours": "10:00-22:00", "operator": "\u0411\u0423\u0420\u0413\u0415\u0420 \u0420\u0423\u0421", "takeaway": "yes"}}, {"type": "node", "id": 7690945485, "lat": 48.7432943, "lon": 44.5032434, "tags": {"addr:housenumber": "11\u0411", "addr:postcode": "400137", "addr:street": "\u0431\u0443\u043b\u044c\u0432\u0430\u0440 30-\u043b\u0435\u0442\u0438\u044f \u041f\u043e\u0431\u0435\u0434\u044b", "amenity": "fast_food", "cuisine": "russian", "internet_access": "wlan", "name": "\u0416\u0430\u0440 \u041f\u0442\u0438\u0446\u0430", "opening_hours": "Mo-Su 12:00-00:00", "phone": "+7-8442-486655"}}, {"type": "node", "id": 7710154738, "lat": 48.6362, "lon": 44.4359, "tags": {"amenity": "fast_food", "brand": "\u0411\u0443\u0440\u0433\u0435\u0440 \u041a\u0438\u043d\u0433", "brand:en": "Burger King", "brand:ru": "\u0411\u0443\u0440\u0433\u0435\u0440 \u041a\u0438\u043d\u0433", "brand:wikidata": "Q177054", "brand:wikipedia": "en:Burger King", "contact:email": "FeedBack@burgerking.ru", "contact:phone": "+7 495 5445000", "contact:vk": "https://vk.com/burgerking", "contact:website": "https://burgerkingrus.ru/", "cuisine": "burger", "name": "\u0411\u0443\u0440\u0433\u0435\u0440 \u041a\u0438\u043d\u0433", "name:en": "Burger King", "name:ru": "\u0411\u0443\u0440\u0433\u0435\u0440 \u041a\u0438\u043d\u0433", "opening_hours": "Mo-Su 10:00-22:00", "takeaway": "yes"}}, {"type": "node", "id": 7710154760, "lat": 48.7490373, "lon": 44.4976303, "tags": {"amenity": "fast_food", "brand": "\u0411\u0443\u0440\u0433\u0435\u0440 \u041a\u0438\u043d\u0433", "brand:en": "Burger King", "brand:ru": "\u0411\u0443\u0440\u0433\u0435\u0440 \u041a\u0438\u043d\u0433", "brand:wikidata": "Q177054", "brand:wikipedia": "en:Burger King", "contact:email": "FeedBack@burgerking.ru", "contact:phone": "+7 495 5445000", "contact:vk": "https://vk.com/burgerking", "contact:website": "https://burgerkingrus.ru/", "cuisine": "burger", "name": "\u0411\u0443\u0440\u0433\u0435\u0440 \u041a\u0438\u043d\u0433", "name:en": "Burger King", "name:ru": "\u0411\u0443\u0440\u0433\u0435\u0440 \u041a\u0438\u043d\u0433", "opening_hours": "Mo,We-Su 10:00-21:55; Tu 10:00-22:00", "takeaway": "yes"}}, {"type": "node", "id": 7741391236, "lat": 48.7572561, "lon": 44.5019022}, {"type": "node", "id": 7741391237, "lat": 48.7571812, "lon": 44.5019513}, {"type": "node", "id": 7741391238, "lat": 48.7572031, "lon": 44.5020281}, {"type": "node", "id": 7741391239, "lat": 48.757278, "lon": 44.501979}, {"type": "node", "id": 7747291685, "lat": 48.7433328, "lon": 44.5032205, "tags": {"addr:housenumber": "11\u0411", "addr:street": "\u0431\u0443\u043b\u044c\u0432\u0430\u0440 30-\u043b\u0435\u0442\u0438\u044f \u041f\u043e\u0431\u0435\u0434\u044b", "amenity": "fast_food", "cuisine": "russian", "name": "\u0416\u0430\u0440-\u041f\u0442\u0438\u0446\u0430", "opening_hours": "Mo-Su 10:00-00:00", "phone": "+7-8442-486655"}}, {"type": "node", "id": 8716618335, "lat": 48.7223294, "lon": 44.5339692, "tags": {"addr:city": "\u0412\u043e\u043b\u0433\u043e\u0433\u0440\u0430\u0434", "addr:housenumber": "13\u0410", "addr:postcode": "400005", "addr:street": "\u0443\u043b\u0438\u0446\u0430 7-\u0439 \u0413\u0432\u0430\u0440\u0434\u0435\u0439\u0441\u043a\u043e\u0439 \u0414\u0438\u0432\u0438\u0437\u0438\u0438", "amenity": "fast_food", "cuisine": "shawarma", "delivery": "yes", "image": "https://avatars.mds.yandex.net/get-altay/4465653/2a00000177ff046b99eff89ad89466e722ef/XXXL", "name": "\u0413\u0435\u041a\u043e\u0412\u0438", "name:en": "GeKoVi", "opening_hours": "Mo-Su 10:00-21:00", "phone": "+7 902 3824422", "takeaway": "only", "website": "https://www.instagram.com/shaurma_gekovi/", "wheelchair": "limited"}}, {"type": "node", "id": 8716639987, "lat": 48.7223699, "lon": 44.5343051, "tags": {"amenity": "fast_food", "brand": "\u0411\u043b\u0438\u043d\u0431\u0435\u0440\u0440\u0438", "cuisine": "russian;pancake;crepe", "description": "\u0411\u043b\u0438\u043d\u044b \u0438 \u0444\u0430\u0441\u0442\u0444\u0443\u0434", "name": "\u0411\u043b\u0438\u043d\u0431\u0435\u0440\u0440\u0438", "name:en": "Blinberry", "opening_hours": "Mo-Sa 08:30-23:30", "phone": "+7 800 5502220", "website": "https://\u0431\u043b\u0438\u043d\u0431\u0435\u0440\u0438.\u0440\u0444"}}, {"type": "node", "id": 8787437655, "lat": 48.7703316, "lon": 44.5448259}, {"type": "node", "id": 8787437656, "lat": 48.7704211, "lon": 44.5449538}, {"type": "node", "id": 8787437657, "lat": 48.7703916, "lon": 44.5450013}, {"type": "node", "id": 8787437658, "lat": 48.7703021, "lon": 44.5448733}, {"type": "node", "id": 8807476317, "lat": 48.712495, "lon": 44.5101673, "tags": {"amenity": "fast_food", "cuisine": "kebab", "name": "\u0411\u044b\u0441\u0442\u0440\u044b\u0439 \u041f\u0438\u0442\u0442", "opening_hours": "24/7", "phone": "+7 8442 500 052", "website": "https://instagram.com/bistrii_pitt/"}}, {"type": "node", "id": 8809094517, "lat": 48.720339, "lon": 44.5334302, "tags": {"amenity": "fast_food", "cuisine": "kebab", "name": "\u0412\u043a\u0443\u0441 \u0432\u043e\u0441\u0442\u043e\u043a\u0430", "opening_hours": "Mo-Su 09:00-22:00"}}, {"type": "node", "id": 8809597020, "lat": 48.710718, "lon": 44.5140452, "tags": {"amenity": "fast_food", "name": "\u0411\u043e\u043d \u0410\u043f\u043f\u0435\u0442\u0438\u0442", "opening_hours": "24/7"}}, {"type": "node", "id": 8809597119, "lat": 48.710805, "lon": 44.5139251, "tags": {"amenity": "fast_food", "cuisine": "kebab", "name": "\u041a\u0435\u0431\u0430\u0431\u043d\u0438\u043a", "phone": "+7 927 257 8095", "website": "https://instagram.com/kebabnik34/"}}, {"type": "node", "id": 8960257691, "lat": 48.692748, "lon": 44.4933492, "tags": {"amenity": "fast_food", "name": "\u0424\u0440\u0435\u043a\u0435\u043d \u0411\u043e\u043a"}}, {"type": "node", "id": 9281632683, "lat": 48.7609881, "lon": 44.4781699, "tags": {"amenity": "fast_food"}}, {"type": "node", "id": 9282703187, "lat": 48.7420471, "lon": 44.4884555, "tags": {"amenity": "fast_food", "name": "\u0428\u0430\u0448\u043b\u044b\u043a \u043d\u0430 \u0443\u0433\u043b\u044f\u0445"}}, {"type": "node", "id": 9282703200, "lat": 48.7417634, "lon": 44.4887275, "tags": {"amenity": "fast_food", "name": "\u0427\u0435\u0431\u0443\u0440\u0435\u043a\u0438"}}, {"type": "node", "id": 9282713907, "lat": 48.7610008, "lon": 44.4783695, "tags": {"amenity": "fast_food", "name": "\u0427\u0430\u0439\u0445\u0430\u043d\u0430 \u0425\u0430\u0439\u044f\u043c"}}, {"type": "node", "id": 9283444947, "lat": 48.7582922, "lon": 44.4425023, "tags": {"amenity": "fast_food"}}, {"type": "node", "id": 9285468759, "lat": 48.6844447, "lon": 44.4292351, "tags": {"amenity": "fast_food"}}, {"type": "node", "id": 9285468777, "lat": 48.6842048, "lon": 44.4297263, "tags": {"amenity": "fast_food", "name": "\u041a\u043e\u0440\u0435\u0439\u0441\u043a\u0438\u0435 \u0441\u0430\u043b\u0430\u0442\u044b"}}, {"type": "node", "id": 9285469031, "lat": 48.6775312, "lon": 44.4523823, "tags": {"amenity": "fast_food", "name": "Planzo"}}, {"type": "node", "id": 9285881754, "lat": 48.497607, "lon": 44.5930449, "tags": {"amenity": "fast_food"}}, {"type": "node", "id": 9357867713, "lat": 48.743503, "lon": 44.5192858, "tags": {"amenity": "fast_food", "brand": "\u041c\u0430\u043a\u0434\u043e\u043d\u0430\u043b\u0434\u0441", "brand:en": "McDonald's", "brand:ru": "\u041c\u0430\u043a\u0434\u043e\u043d\u0430\u043b\u0434\u0441", "brand:wikidata": "Q38076", "brand:wikipedia": "en:McDonald's", "cuisine": "burger", "name": "\u041c\u0430\u043a\u0434\u043e\u043d\u0430\u043b\u0434\u0441", "name:en": "McDonald's", "name:ru": "\u041c\u0430\u043a\u0434\u043e\u043d\u0430\u043b\u0434\u0441", "takeaway": "yes"}}, {"type": "node", "id": 9357867714, "lat": 48.7435474, "lon": 44.5194351, "tags": {"alt_name": "Kentucky Fried Chicken", "amenity": "fast_food", "brand": "KFC", "brand:wikidata": "Q524757", "brand:wikipedia": "en:KFC", "cuisine": "chicken", "name": "KFC", "takeaway": "yes"}}, {"type": "node", "id": 9357867715, "lat": 48.7435884, "lon": 44.5195636, "tags": {"amenity": "fast_food", "name": "\u0421\u0443\u0448\u0438\u0412\u0435\u0441\u043b\u0430"}}, {"type": "node", "id": 9357867716, "lat": 48.7436292, "lon": 44.5197043, "tags": {"amenity": "fast_food", "name": "\u0411\u043b\u0438\u043d\u0411\u0435\u0440\u0438"}}, {"type": "node", "id": 9743990042, "lat": 48.7071161, "lon": 44.5215216, "tags": {"addr:city": "\u0412\u043e\u043b\u0433\u043e\u0433\u0440\u0430\u0434", "addr:housenumber": "17", "addr:postcode": "400131", "addr:street": "\u0421\u043e\u0432\u0435\u0442\u0441\u043a\u0430\u044f \u0443\u043b\u0438\u0446\u0430", "air_conditioning": "yes", "amenity": "fast_food", "brand": "Subway", "brand:wikidata": "Q244457", "cuisine": "sandwich", "delivery": "yes", "image": "https://avatars.mds.yandex.net/get-altay/5308697/2a0000017b1c8459bf0dd0b28086e6e2d284/XXXL", "name": "Subway", "opening_hours": "Mo-Th 10:00-22:00, Fr-Su 10:00-23:00", "payment:cash": "yes", "payment:credit_cards": "yes", "payment:debit_cards": "yes", "phone": "+7 (909) 383-33-35", "takeaway": "yes", "website": "https://subway.ru"}}, {"type": "node", "id": 9744034487, "lat": 48.70697, "lon": 44.5211167, "tags": {"addr:city": "\u0412\u043e\u043b\u0433\u043e\u0433\u0440\u0430\u0434", "addr:housenumber": "17", "addr:postcode": "400131", "addr:street": "\u0421\u043e\u0432\u0435\u0442\u0441\u043a\u0430\u044f \u0443\u043b\u0438\u0446\u0430", "air_conditioning": "yes", "amenity": "fast_food", "cuisine": "japanese;sushi;asian", "delivery": "yes", "description": "\u0421\u0443\u0448\u0438-\u0431\u0430\u0440, \u0431\u044b\u0441\u0442\u0440\u043e\u0435 \u043f\u0438\u0442\u0430\u043d\u0438\u0435", "image": "https://avatars.mds.yandex.net/get-altay/5235198/2a0000017b9e87d2d47c62c50f9affe41773/XXXL", "name": "\u0421\u0443\u0448\u0438\u0412\u0451\u0441\u043b\u0430", "opening_hours": "Mo-Su 10:00-22:00", "phone": "+7-800-5503030", "takeaway": "yes", "website": "https://\u0441\u0443\u0448\u0438\u0432\u0435\u0441\u043b\u0430.\u0440\u0444"}}, {"type": "node", "id": 9744035340, "lat": 48.7069574, "lon": 44.5210969, "tags": {"addr:city": "\u0412\u043e\u043b\u0433\u043e\u0433\u0440\u0430\u0434", "addr:housenumber": "17", "addr:postcode": "400131", "addr:street": "\u0421\u043e\u0432\u0435\u0442\u0441\u043a\u0430\u044f \u0443\u043b\u0438\u0446\u0430", "air_conditioning": "yes", "amenity": "fast_food", "cuisine": "russian;pancake", "delivery": "yes", "description": "\u0411\u043b\u0438\u043d\u044b, \u0437\u0430\u0432\u0442\u0440\u0430\u043a\u0438, \u0437\u0430\u043a\u0443\u0441\u043a\u0438, \u043a\u043e\u0444\u0435", "image": "https://avatars.mds.yandex.net/get-altay/1246719/2a000001634a7c1844478a30855ba30758f6/XXXL", "name": "\u0411\u043b\u0438\u043d\u0411\u0435\u0440\u0438", "opening_hours": "Mo-Su 09:00-21:00", "payment:cash": "yes", "payment:credit_cards": "yes", "payment:debit_cards": "yes", "phone": "+7-800-5502220", "takeaway": "yes", "website": "https://\u0431\u043b\u0438\u043d\u0431\u0435\u0440\u0438.\u0440\u0444"}}, {"type": "node", "id": 9801347223, "lat": 48.6744603, "lon": 44.4439184, "tags": {"amenity": "fast_food", "name": "\u041c\u043d\u043e\u0433\u043e \u043c\u044f\u0441\u0430 \u043d\u0430 \u043c\u0430\u043d\u0433\u0430\u043b\u0435"}}, {"type": "node", "id": 9801377991, "lat": 48.6585214, "lon": 44.4375089, "tags": {"amenity": "fast_food", "name": "\u0410\u0438\u041a"}}, {"type": "node", "id": 9801388074, "lat": 48.6420197, "lon": 44.4153854, "tags": {"amenity": "fast_food", "name": "\u0411\u0438\u0441\u0442\u0440\u043e"}}, {"type": "node", "id": 9801413001, "lat": 48.642464, "lon": 44.4318321, "tags": {"amenity": "fast_food", "name": "\u0413\u0435\u041a\u043e\u0412\u0438"}}, {"type": "node", "id": 9801782613, "lat": 48.6808396, "lon": 44.4296076, "tags": {"amenity": "fast_food", "name": "\u0428\u0430\u043c\u043f\u0443\u0440\u043e\u043a"}}, {"type": "node", "id": 9819003175, "lat": 48.686171, "lon": 44.321447, "tags": {"amenity": "fast_food", "name": "GoodFood"}}, {"type": "node", "id": 9857410983, "lat": 48.7073695, "lon": 44.5195421, "tags": {"addr:city": "\u0412\u043e\u043b\u0433\u043e\u0433\u0440\u0430\u0434", "addr:housenumber": "17/1", "addr:postcode": "400066", "addr:street": "\u0421\u043e\u0432\u0435\u0442\u0441\u043a\u0430\u044f \u0443\u043b\u0438\u0446\u0430", "amenity": "fast_food", "cuisine": "pizza", "description": "\u041d\u0435\u0430\u043f\u043e\u043b\u0438\u0442\u0430\u043d\u0441\u043a\u0430\u044f \u043f\u0438\u0446\u0446\u0430 \u0432 \u0434\u0440\u043e\u0432\u044f\u043d\u043e\u0439 \u043f\u0435\u0447\u0438", "drive_through": "no", "name": "\u0421\u043a\u0440\u043e\u043c\u043d\u043e", "opening_hours": "Mo-Su 14:00-23:00"}}, {"type": "node", "id": 9873784197, "lat": 48.6177518, "lon": 44.4228694, "tags": {"amenity": "fast_food"}}, {"type": "node", "id": 9873864717, "lat": 48.6129996, "lon": 44.4222364, "tags": {"amenity": "fast_food"}}, {"type": "node", "id": 9873883656, "lat": 48.6120881, "lon": 44.423261, "tags": {"amenity": "fast_food"}}, {"type": "node", "id": 9889821437, "lat": 48.601173, "lon": 44.4212823, "tags": {"amenity": "fast_food"}}, {"type": "node", "id": 9917039040, "lat": 48.7851143, "lon": 44.5648117, "tags": {"addr:city": "\u0412\u043e\u043b\u0433\u043e\u0433\u0440\u0430\u0434", "addr:housenumber": "43\u0410", "addr:street": "\u0443\u043b\u0438\u0446\u0430 \u0413\u0435\u0440\u043c\u0430\u043d\u0430 \u0422\u0438\u0442\u043e\u0432\u0430", "amenity": "fast_food", "cuisine": "shawarma;kebab", "name": "\u041a\u0435\u0431\u0430\u0431\u043d\u0438\u043a-\u0428\u0430\u0443\u0440\u043c\u0430 \u041c\u0430\u0440\u043a\u0435\u0442", "opening_hours": "24/7", "operator": "\u0411\u044b\u0441\u0442\u0440\u043e\u0435 \u043f\u0438\u0442\u0430\u043d\u0438\u0435", "phone": "+7 (927) 257-80-95"}}, {"type": "node", "id": 9917098653, "lat": 48.7852058, "lon": 44.5649261, "tags": {"addr:city": "\u0412\u043e\u043b\u0433\u043e\u0433\u0440\u0430\u0434", "addr:housenumber": "43\u0410", "addr:street": "\u0443\u043b\u0438\u0446\u0430 \u0413\u0435\u0440\u043c\u0430\u043d\u0430 \u0422\u0438\u0442\u043e\u0432\u0430", "amenity": "fast_food", "cuisine": "shawarma;burger", "name": "AIK", "opening_hours": "24/7", "phone": "+7-961-6961111", "website": "https://aikbistro.ru/bistro/"}}, {"type": "node", "id": 9919152358, "lat": 48.5127363, "lon": 44.5415676, "tags": {"amenity": "fast_food", "contact:phone": "+7 341 2908292;+7 800 3334130", "contact:website": "https://coffee-like.com/", "cuisine": "coffee_shop", "name": "Coffee Like", "opening_hours": "Mo-Fr 08:00-20:00;Sa-Su 09:00-21:00"}}, {"type": "node", "id": 9919152359, "lat": 48.7127812, "lon": 44.5173337, "tags": {"amenity": "fast_food", "brand": "Coffee Like", "brand:wikidata": "Q55662627", "contact:phone": "+7 341 2908292;+7 800 3334130", "contact:website": "https://coffee-like.com/", "cuisine": "coffee_shop", "name": "Coffee Like", "opening_hours": "Mo-Su 08:00-22:00", "takeaway": "yes"}}, {"type": "node", "id": 9919152362, "lat": 48.7278121, "lon": 44.5439306, "tags": {"amenity": "fast_food", "brand": "Coffee Like", "brand:wikidata": "Q55662627", "contact:phone": "+7 341 2908292;+7 800 3334130", "contact:website": "https://coffee-like.com/", "cuisine": "coffee_shop", "name": "Coffee Like", "opening_hours": "Mo-Su 10:00-22:00", "takeaway": "yes"}}, {"type": "node", "id": 9919152363, "lat": 48.699917, "lon": 44.5055079, "tags": {"amenity": "fast_food", "brand": "Coffee Like", "brand:wikidata": "Q55662627", "contact:phone": "+7 341 2908292;+7 800 3334130", "contact:website": "https://coffee-like.com/", "cuisine": "coffee_shop", "name": "Coffee Like", "opening_hours": "24/7", "takeaway": "yes"}}, {"type": "node", "id": 9919152364, "lat": 48.520061, "lon": 44.562287, "tags": {"amenity": "fast_food", "brand": "Coffee Like", "brand:wikidata": "Q55662627", "contact:phone": "+7 341 2908292;+7 800 3334130", "contact:website": "https://coffee-like.com/", "cuisine": "coffee_shop", "name": "Coffee Like", "opening_hours": "Mo-Su 10:00-21:00", "takeaway": "yes"}}, {"type": "node", "id": 9919152366, "lat": 48.7244118, "lon": 44.5382767, "tags": {"amenity": "fast_food", "brand": "Coffee Like", "brand:wikidata": "Q55662627", "contact:phone": "+7 341 2908292;+7 800 3334130", "contact:website": "https://coffee-like.com/", "cuisine": "coffee_shop", "name": "Coffee Like", "opening_hours": "Mo-Su 08:30-22:00", "takeaway": "yes"}}, {"type": "node", "id": 9931969417, "lat": 48.7221246, "lon": 44.5340539, "tags": {"addr:housenumber": "43\u0411", "addr:street": "\u043f\u0440\u043e\u0441\u043f\u0435\u043a\u0442 \u041b\u0435\u043d\u0438\u043d\u0430", "amenity": "fast_food", "name": "\u0411\u043e\u043d \u0410\u043f\u043f\u0435\u0442\u0438\u0442", "name:en": "Bon appetit", "opening_hours": "24/7"}}, {"type": "node", "id": 9994149925, "lat": 48.691848, "lon": 44.4953407, "tags": {"addr:city": "\u0412\u043e\u043b\u0433\u043e\u0433\u0440\u0430\u0434", "addr:housenumber": "8/2", "addr:postcode": "400074", "addr:street": "\u0411\u0430\u0440\u0440\u0438\u043a\u0430\u0434\u043d\u0430\u044f \u0443\u043b\u0438\u0446\u0430", "amenity": "fast_food", "cuisine": "\u0445\u043e\u0440\u043e\u0448\u0430\u044f", "name": "\u041a\u043e\u043d\u0442\u0435\u0439\u043d\u0435\u0440", "opening_hours": "Mo-Su 10:00-21:30"}}, {"type": "node", "id": 11067255750, "lat": 48.6958599, "lon": 44.4961552, "tags": {"amenity": "fast_food", "contact:phone": "+7 844 2438683;+7 961 6611391", "contact:website": "https://confetkibaranochki.ru", "name": "\u041a\u043e\u043d\u0444\u0435\u0442\u043a\u0438-\u0431\u0430\u0440\u0430\u043d\u043e\u0447\u043a\u0438", "opening_hours": "Mo-Sa 07:30-21:00; Su 09:00-21:00"}}, {"type": "node", "id": 11067255751, "lat": 48.7522067, "lon": 44.505803, "tags": {"amenity": "fast_food", "contact:phone": "+7 960 8956223", "contact:website": "https://confetkibaranochki.ru", "name": "\u041a\u043e\u043d\u0444\u0435\u0442\u043a\u0438-\u0431\u0430\u0440\u0430\u043d\u043e\u0447\u043a\u0438", "opening_hours": "Mo-Su 08:00-20:00"}}, {"type": "node", "id": 11072733816, "lat": 48.8164892, "lon": 44.6285547, "tags": {"amenity": "fast_food", "contact:phone": "+7 800 2013612", "contact:website": "https://pokupochka.ru/page/ga-ga", "fast_food": "cafeteria", "name": "\u0413\u0430-\u0433\u0430", "opening_hours": "24/7"}}, {"type": "node", "id": 11085234752, "lat": 48.7238549, "lon": 44.5264288}, {"type": "node", "id": 11085234753, "lat": 48.7239917, "lon": 44.5266433, "tags": {"entrance": "yes"}}, {"type": "node", "id": 11117370405, "lat": 48.7098632, "lon": 44.5224102, "tags": {"amenity": "fast_food", "brand": "Subway", "brand:wikidata": "Q244457", "cuisine": "sandwich", "name": "Subway", "takeaway": "yes"}}, {"type": "node", "id": 11121570875, "lat": 48.7100403, "lon": 44.4919067, "tags": {"entrance": "yes"}}, {"type": "node", "id": 11169271822, "lat": 48.7445379, "lon": 44.5183982, "tags": {"amenity": "fast_food", "contact:phone": "+7 927 5140057", "contact:website": "https://www.vitajuice.ru", "cuisine": "juice", "name": "Vita Juice", "opening_hours": "Mo-Su 10:00-22:00"}}, {"type": "node", "id": 11219274574, "lat": 48.7959887, "lon": 44.5895918, "tags": {"addr:housenumber": "35\u0411", "addr:street": "\u041e\u043f\u043e\u043b\u0447\u0435\u043d\u0441\u043a\u0430\u044f \u0443\u043b\u0438\u0446\u0430", "amenity": "fast_food", "name": "\u0413\u0440\u0438\u043b\u044c \u043c\u0430\u0441\u0442\u0435\u0440", "opening_hours": "Mo-Su 08:00-00:00", "phone": "+7 (8442) 98-19-81", "website": "https://grillmaster34.ru/"}}, {"type": "node", "id": 11397344750, "lat": 48.7105589, "lon": 44.5141562, "tags": {"addr:city": "\u0412\u043e\u043b\u0433\u043e\u0433\u0440\u0430\u0434", "addr:housenumber": "5", "addr:postcode": "400066", "addr:street": "\u0443\u043b\u0438\u0446\u0430 \u0413\u043e\u0433\u043e\u043b\u044f", "amenity": "fast_food", "cuisine": "burger;kebab", "drive_through": "no", "name": "\u041c\u043d\u043e\u0433\u043e \u043c\u044f\u0441\u0430 \u043d\u0430 \u043c\u0430\u043d\u0433\u0430\u043b\u0435", "opening_hours": "24/7", "phone": "+7 (927) 533-43-98"}}, {"type": "node", "id": 11397344751, "lat": 48.7104453, "lon": 44.5142365, "tags": {"addr:city": "\u0412\u043e\u043b\u0433\u043e\u0433\u0440\u0430\u0434", "addr:housenumber": "5", "addr:postcode": "400066", "addr:street": "\u0443\u043b\u0438\u0446\u0430 \u0413\u043e\u0433\u043e\u043b\u044f", "amenity": "fast_food", "cuisine": "pankcake", "drive_through": "no", "name": "\u0411\u043b\u0438\u043d\u043c\u0430\u0441\u0442\u0435\u0440", "opening_hours": "Mo-Su 08:00-21:00", "phone": "+7 (905) 064-56-56", "website": "https://blinmaster.ru"}}, {"type": "node", "id": 11397344752, "lat": 48.7102763, "lon": 44.514329, "tags": {"amenity": "fast_food", "name": "Mr. \u0424\u0430\u043b\u0430\u0444\u0435\u043b\u044c"}}, {"type": "node", "id": 11397344753, "lat": 48.7102303, "lon": 44.5143505, "tags": {"addr:city": "\u0412\u043e\u043b\u0433\u043e\u0433\u0440\u0430\u0434", "addr:housenumber": "5", "addr:postcode": "400066", "addr:street": "\u0443\u043b\u0438\u0446\u0430 \u0413\u043e\u0433\u043e\u043b\u044f", "amenity": "fast_food", "drive_through": "no", "name": "Armfood", "opening_hours": "24/7", "phone": "+7 (927) 500-51-44"}}, {"type": "node", "id": 11438014776, "lat": 48.7235404, "lon": 44.5153453}, {"type": "node", "id": 11438014777, "lat": 48.7235105, "lon": 44.5153888}, {"type": "node", "id": 11438014778, "lat": 48.7235333, "lon": 44.5154247}, {"type": "node", "id": 11438014779, "lat": 48.7235632, "lon": 44.5153812}, {"type": "node", "id": 11563441991, "lat": 48.6609945, "lon": 44.41576}, {"type": "node", "id": 11563441992, "lat": 48.6609405, "lon": 44.4157442}, {"type": "node", "id": 11563441993, "lat": 48.6609336, "lon": 44.4157916}, {"type": "node", "id": 11563441994, "lat": 48.6609887, "lon": 44.4158071}, {"type": "node", "id": 11582567243, "lat": 48.7044765, "lon": 44.4818505, "tags": {"amenity": "fast_food", "brand": "\u0412\u043a\u0443\u0441\u043d\u043e \u2014 \u0438 \u0442\u043e\u0447\u043a\u0430", "brand:en": "Vkusno i tochka", "brand:ru": "\u0412\u043a\u0443\u0441\u043d\u043e \u2014 \u0438 \u0442\u043e\u0447\u043a\u0430", "brand:wikidata": "Q112406961", "cuisine": "burger", "name": "\u0412\u043a\u0443\u0441\u043d\u043e \u2014 \u0438 \u0442\u043e\u0447\u043a\u0430", "name:en": "Vkusno i tochka", "name:ru": "\u0412\u043a\u0443\u0441\u043d\u043e \u2014 \u0438 \u0442\u043e\u0447\u043a\u0430", "takeaway": "yes"}}, {"type": "node", "id": 11627208815, "lat": 48.5224179, "lon": 44.5599558, "tags": {"amenity": "fast_food", "contact:instagram": "https://www.instagram.com/kulinariiakraftt/", "contact:telegram": "https://t.me/kulinariiakraftt", "contact:vk": "https://vk.com/kulinariiakraftt", "name": "\u041a\u0443\u043b\u0438\u043d\u0430\u0440\u0438\u044f \u00abKraftt\u00bb", "opening_hours": "Mo-Su 09:00-21:00", "phone": "+7-902-659-49-77"}}, {"type": "node", "id": 11628078099, "lat": 48.4858337, "lon": 44.6331031}, {"type": "node", "id": 11628078100, "lat": 48.4856891, "lon": 44.6333174}, {"type": "node", "id": 11628078101, "lat": 48.4857174, "lon": 44.6333609}, {"type": "node", "id": 11628078102, "lat": 48.4856365, "lon": 44.6334808}, {"type": "node", "id": 11628078103, "lat": 48.485458, "lon": 44.6332067}, {"type": "node", "id": 11628078104, "lat": 48.4855479, "lon": 44.6330736}, {"type": "node", "id": 11628078105, "lat": 48.485576, "lon": 44.6331167}, {"type": "node", "id": 11628078106, "lat": 48.4857117, "lon": 44.6329156}, {"type": "node", "id": 11635060923, "lat": 48.513328, "lon": 44.5491758, "tags": {"amenity": "fast_food", "fast_food": "cafeteria", "name": "\u041a\u0443\u043b\u0438\u043d\u0430\u0440\u0438\u044f \u00abKraftt\u00bb", "opening_hours": "Mo-Su 09:00-20:00"}}, {"type": "node", "id": 11635714911, "lat": 48.485506, "lon": 44.6332804, "tags": {"building": "entrance", "entrance": "yes"}}, {"type": "node", "id": 11637228935, "lat": 48.7121648, "lon": 44.5265673, "tags": {"amenity": "fast_food", "fast_food": "cafeteria", "name": "\u0412\u0440\u0435\u043c\u044f \u0415\u0441\u0442\u044c!", "name:ru": "\u0412\u0440\u0435\u043c\u044f \u0415\u0441\u0442\u044c!", "opening_hours": "summer: Mo-Su 08:00-21:00; winter: Mo-Su: 09:000-20:00", "operator": "\u041e\u041e\u041e \"\u041b\u0438\u0444\u0438\u0442\"", "phone": "+7\u2012961\u2012660\u201217\u201258"}}, {"type": "node", "id": 11715797025, "lat": 48.6611055, "lon": 44.4150749, "tags": {"amenity": "fast_food", "name": "\u041f\u0438\u0442-\u0441\u0442\u043e\u043f"}}, {"type": "node", "id": 11806908308, "lat": 48.5162479, "lon": 44.5344173, "tags": {"amenity": "fast_food", "contact:phone": "+7 961 6961111;+7 961 6962222;+7 961 6963333", "name": "Aik \u0411\u0438\u0441\u0442\u0440\u043e", "opening_hours": "24/7"}}, {"type": "node", "id": 11806908309, "lat": 48.5175827, "lon": 44.5630108, "tags": {"amenity": "fast_food", "contact:phone": "+7 961 6961111;+7 961 6962222;+7 961 6963333", "name": "Aik \u0411\u0438\u0441\u0442\u0440\u043e", "opening_hours": "24/7"}}, {"type": "node", "id": 11806908311, "lat": 48.7518705, "lon": 44.5492017, "tags": {"amenity": "fast_food", "contact:phone": "+7 961 6961111;+7 961 6962222;+7 961 6963333", "name": "Aik \u0411\u0438\u0441\u0442\u0440\u043e", "opening_hours": "24/7"}}, {"type": "node", "id": 11806908314, "lat": 48.7361564, "lon": 44.4989558, "tags": {"amenity": "fast_food", "contact:phone": "+7 961 6961111;+7 961 6962222;+7 961 6963333", "name": "Aik \u0411\u0438\u0441\u0442\u0440\u043e", "opening_hours": "24/7"}}, {"type": "node", "id": 11806908315, "lat": 48.800997, "lon": 44.60345, "tags": {"amenity": "fast_food", "contact:phone": "+7 961 6961111;+7 961 6962222;+7 961 6963333", "name": "Aik \u0411\u0438\u0441\u0442\u0440\u043e", "opening_hours": "24/7"}}, {"type": "way", "id": 123544351, "nodes": [1377325172, 1377325182, 1377304155, 11121570875, 1377304172, 1377325172], "tags": {"addr:country": "RU", "addr:housenumber": "2\u0414", "addr:street": "\u0443\u043b\u0438\u0446\u0430 \u0420\u043e\u043a\u043e\u0441\u0441\u043e\u0432\u0441\u043a\u043e\u0433\u043e", "alt_name": "Kentucky Fried Chicken", "amenity": "fast_food", "brand": "KFC", "brand:wikidata": "Q524757", "brand:wikipedia": "en:KFC", "building": "yes", "building:levels": "1", "cuisine": "chicken", "name": "KFC", "takeaway": "yes", "website": "https://www.kfc.ru/"}}, {"type": "way", "id": 147573522, "nodes": [1607755763, 1607756218, 1607756475, 1607756507, 1607755763], "tags": {"amenity": "fast_food", "building": "yes", "cuisine": "pizza", "name": "\u0420\u0443\u0441\u0442\u0435\u0440\u0441"}}, {"type": "way", "id": 147632720, "nodes": [1608382644, 1608382497, 1608382491, 1608383079, 1608382644], "tags": {"addr:housenumber": "9\u0410", "addr:street": "\u0443\u043b\u0438\u0446\u0430 \u041a\u0443\u0440\u0447\u0430\u0442\u043e\u0432\u0430", "amenity": "fast_food", "building": "yes", "name": "\u041c\u0430\u043a\u0434\u043e\u043d\u0430\u043b\u0434\u0441", "source:addr": "\u0415\u0413\u0420\u041d"}}, {"type": "way", "id": 151213134, "nodes": [1640355995, 1640356005, 1640356011, 1640356003, 1640355995], "tags": {"addr:city": "\u0412\u043e\u043b\u0433\u043e\u0433\u0440\u0430\u0434", "addr:housenumber": "112\u0410", "addr:postcode": "400067", "addr:street": "\u0443\u043b\u0438\u0446\u0430 \u041a\u0438\u0440\u043e\u0432\u0430", "amenity": "fast_food", "building": "yes"}}, {"type": "way", "id": 319010036, "nodes": [3254240499, 3254240500, 3254240498, 3254240497, 3254240499], "tags": {"addr:housenumber": "46\u0411", "addr:street": "\u041a\u0440\u0430\u0441\u043d\u043e\u043f\u043e\u043b\u044f\u043d\u0441\u043a\u0430\u044f \u0443\u043b\u0438\u0446\u0430", "amenity": "fast_food", "building": "retail", "building:levels": "1", "name": "\u0420\u0443\u0441\u0442\u0435\u0440c", "name:en": "Roosters", "opening_hours": "24/7", "phone": "+7 (8442) 98-88-30", "website": "https://roosters-pizza.ru/"}}, {"type": "way", "id": 320731105, "nodes": [3273683217, 3273683218, 3273683219, 3273683220, 3273683217], "tags": {"amenity": "fast_food", "building": "kiosk", "building:levels": "1", "name": "\u0428\u0430\u0443\u0440\u043c\u0430 King"}}, {"type": "way", "id": 320731755, "nodes": [3273688858, 3273688859, 3273688860, 3273692461, 3273688858], "tags": {"amenity": "fast_food", "building": "kiosk", "building:levels": "1", "name": "\u0411\u043b\u0438\u043d\u0411\u0435\u0440\u0440\u0438"}}, {"type": "way", "id": 337514672, "nodes": [3445935138, 3445935139, 1937050530, 3445935135, 3445935138], "tags": {"amenity": "fast_food", "building": "retail", "building:levels": "1", "name": "\u0428\u0430\u0432\u0435\u0440\u043c\u0430", "name:ru": "\u0428\u0430\u0443\u0440\u043c\u0430", "wheelchair": "yes"}}, {"type": "way", "id": 337516292, "nodes": [3445949111, 1789614166, 3445949113, 3445949112, 3445949111], "tags": {"amenity": "fast_food", "building": "kiosk", "building:levels": "1", "name": "\u0411\u043b\u0438\u043d\u0411\u0435\u0440\u0440\u0438"}}, {"type": "way", "id": 338434462, "nodes": [3455121022, 3455121021, 3455121019, 3455121020, 3455121022], "tags": {"amenity": "fast_food", "building": "retail", "building:levels": "1", "check_date": "2017-10-06", "name": "\u0420\u0443\u0441\u0442\u0435\u0440\u0441"}}, {"type": "way", "id": 340305687, "nodes": [3475212059, 3475212061, 3475212060, 3475212058, 3475212059], "tags": {"amenity": "fast_food", "building": "retail", "building:levels": "1", "cuisine": "turkish", "name": "\u0428\u0430\u0443\u0440\u043c\u0430 \u043f\u043e-\u0442\u0443\u0440\u0435\u0446\u043a\u0438"}}, {"type": "way", "id": 372008697, "nodes": [3755485793, 3755485792, 3755485790, 3755485791, 3755485793], "tags": {"amenity": "fast_food", "building": "house", "building:levels": "1", "name": "\u0411\u043e\u043d \u0410\u043f\u043f\u0435\u0442\u0438\u0442"}}, {"type": "way", "id": 594588657, "nodes": [5669430329, 6902273714, 5669430330, 5669430331, 5669430332, 6902273716, 5669430329], "tags": {"addr:country": "RU", "addr:housenumber": "21\u041a", "addr:street": "\u0431\u0443\u043b\u044c\u0432\u0430\u0440 30-\u043b\u0435\u0442\u0438\u044f \u041f\u043e\u0431\u0435\u0434\u044b", "amenity": "fast_food", "brand": "\u041c\u0430\u043a\u0434\u043e\u043d\u0430\u043b\u0434\u0441", "brand:en": "McDonald's", "brand:ru": "\u041c\u0430\u043a\u0434\u043e\u043d\u0430\u043b\u0434\u0441", "brand:wikidata": "Q38076", "brand:wikipedia": "en:McDonald's", "building": "yes", "cuisine": "burger", "name": "\u041c\u0430\u043a\u0434\u043e\u043d\u0430\u043b\u0434\u0441", "name:en": "McDonald's", "name:ru": "\u041c\u0430\u043a\u0434\u043e\u043d\u0430\u043b\u0434\u0441", "roof:colour": "grey", "takeaway": "yes"}}, {"type": "way", "id": 599154073, "nodes": [5701284373, 5701284374, 5884355065, 5701284376, 5701284373], "tags": {"addr:street": "\u043f\u0440\u043e\u0441\u043f\u0435\u043a\u0442 \u041b\u0435\u043d\u0438\u043d\u0430", "air_conditioning": "yes", "amenity": "fast_food", "brand": "\u041c\u0430\u043a\u0434\u043e\u043d\u0430\u043b\u0434\u0441", "brand:en": "McDonald's", "brand:ru": "\u041c\u0430\u043a\u0434\u043e\u043d\u0430\u043b\u0434\u0441", "brand:wikidata": "Q38076", "brand:wikipedia": "en:McDonald's", "building": "yes", "cuisine": "burger", "drive_through": "yes", "name": "\u041c\u0430\u043a\u0434\u043e\u043d\u0430\u043b\u0434\u0441", "name:en": "McDonald's", "name:ru": "\u041c\u0430\u043a\u0434\u043e\u043d\u0430\u043b\u0434\u0441", "opening_hours": "24/7", "takeaway": "yes"}}, {"type": "way", "id": 628143084, "nodes": [5930115410, 5930115411, 5930115412, 5930115413, 6815824989, 5930115410], "tags": {"addr:city": "\u0412\u043e\u043b\u0433\u043e\u0433\u0440\u0430\u0434", "addr:housenumber": "34\u0411", "addr:street": "\u0443\u043b\u0438\u0446\u0430 \u041d\u0438\u043a\u043e\u043b\u0430\u044f \u041e\u0442\u0440\u0430\u0434\u044b", "alt_name": "Kentucky Fried Chicken", "amenity": "fast_food", "brand": "KFC", "brand:wikidata": "Q524757", "brand:wikipedia": "en:KFC", "building": "commercial", "building:levels": "1", "cuisine": "chicken", "delivery": "no", "drive_through": "yes", "name": "KFC", "opening_hours": "Mo-Su 09:00-23:00", "operator": "\u0437\u0430\u043a\u0443\u0441\u043e\u0447\u043d\u0430\u044f \"KFS\" \u041e\u041e\u041e \"\u042f\u043c! \u0420\u0435\u0441\u0442\u043e\u0440\u0430\u043d\u0441\u0442\u0440\u0430\u0448\u0430\u0438\u043d\u0442\u0435\u0440\u043d\u0435\u0448\u0435\u043d\u0435\u043b \u0441\u0438\u0430\u0439\u0441\"", "outdoor_seating": "yes", "phone": "+7-916-686-77-37", "takeaway": "yes", "wheelchair": "yes"}}, {"type": "way", "id": 693426148, "nodes": [6509989533, 6509989534, 6509989535, 6509989536, 6509989537, 6509989538, 6509989533], "tags": {"addr:city": "\u0412\u043e\u043b\u0433\u043e\u0433\u0440\u0430\u0434", "addr:street": "\u043f\u0440\u043e\u0441\u043f\u0435\u043a\u0442 \u0438\u043c. \u0412.\u0418. \u041b\u0435\u043d\u0438\u043d\u0430", "amenity": "fast_food", "brand": "\u0414\u043e\u0434\u043e \u041f\u0438\u0446\u0446\u0430", "brand:en": "Dodo Pizza", "brand:ru": "\u0414\u043e\u0434\u043e \u041f\u0438\u0446\u0446\u0430", "brand:wikidata": "Q61949318", "brand:wikipedia": "ru:\u0414\u043e\u0434\u043e \u041f\u0438\u0446\u0446\u0430", "building": "yes", "cuisine": "pizza", "name": "\u0414\u043e\u0434\u043e \u041f\u0438\u0446\u0446\u0430", "name:en": "Dodo Pizza", "name:ru": "\u0414\u043e\u0434\u043e \u041f\u0438\u0446\u0446\u0430", "takeaway": "yes"}}, {"type": "way", "id": 693521365, "nodes": [6511094113, 6511094114, 6511094115, 6511094116, 6828761369, 6511094113], "tags": {"addr:city": "\u0412\u043e\u043b\u0433\u043e\u0433\u0440\u0430\u0434", "addr:street": "\u0443\u043b\u0438\u0446\u0430 \u0438\u043c. \u043c\u0430\u0440\u0448\u0430\u043b\u0430 \u0415\u0440\u0435\u043c\u0435\u043d\u043a\u043e", "air_conditioning": "yes", "amenity": "fast_food", "building": "yes", "cuisine": "pizza", "drive_through": "no", "name": "\u0420\u0443\u0441\u0442\u0435\u0440\u0441", "opening_hours": "24/7"}}, {"type": "way", "id": 693521379, "nodes": [6511094172, 6511094173, 6511094174, 6511094175, 6511094172], "tags": {"addr:city": "\u0412\u043e\u043b\u0433\u043e\u0433\u0440\u0430\u0434", "addr:street": "\u0443\u043b\u0438\u0446\u0430 \u041f\u0435\u043b\u044c\u0448\u0435", "amenity": "fast_food", "building": "yes", "cuisine": "middle_eastern", "drive_through": "no", "name": "\u0428\u0430\u0443\u0440\u043c\u0430 \u0425\u0430\u0443\u0437"}}, {"type": "way", "id": 718095264, "nodes": [6743754519, 6743754520, 6743754521, 6743754522, 6743754519], "tags": {"addr:city": "\u0412\u043e\u043b\u0433\u043e\u0433\u0440\u0430\u0434", "addr:housenumber": "20\u0413/3", "addr:postcode": "400050", "addr:street": "\u0443\u043b\u0438\u0446\u0430 \u0422\u043a\u0430\u0447\u0451\u0432\u0430", "amenity": "fast_food", "brand": "Subway", "brand:wikidata": "Q244457", "building": "yes", "cuisine": "sandwich", "name": "Subway", "takeaway": "yes"}}, {"type": "way", "id": 722102731, "nodes": [6773593094, 11085234753, 6773593095, 11085234752, 6773593096, 6773593097, 6773593094], "tags": {"addr:city": "\u0412\u043e\u043b\u0433\u043e\u0433\u0440\u0430\u0434", "addr:country": "RU", "addr:housenumber": "57\u041a", "addr:postcode": "400050", "addr:street": "\u0443\u043b\u0438\u0446\u0430 \u041f\u0430\u0440\u0445\u043e\u043c\u0435\u043d\u043a\u043e", "amenity": "fast_food", "brand": "\u0412\u043a\u0443\u0441\u043d\u043e \u2014 \u0438 \u0442\u043e\u0447\u043a\u0430", "brand:en": "Vkusno i tochka", "brand:ru": "\u0412\u043a\u0443\u0441\u043d\u043e \u2014 \u0438 \u0442\u043e\u0447\u043a\u0430", "brand:wikidata": "Q112406961", "brand:wikipedia": "en:McDonald's", "building": "yes", "cuisine": "burger", "drive_through": "yes", "name": "\u0412\u043a\u0443\u0441\u043d\u043e \u2014 \u0438 \u0442\u043e\u0447\u043a\u0430", "name:en": "Vkusno i tochka", "name:ru": "\u0412\u043a\u0443\u0441\u043d\u043e \u2014 \u0438 \u0442\u043e\u0447\u043a\u0430", "opening_hours": "Mo-Su 07:00-24:00", "phone": "+7 (8442) 33-59-34", "takeaway": "yes", "website": "https://vkusnoitochka.ru"}}, {"type": "way", "id": 729100550, "nodes": [6830826692, 6830826693, 6830826694, 6830826695, 6830826692], "tags": {"amenity": "fast_food", "building": "yes", "delivery": "yes", "name": "Pancho Grill", "payment:cards": "yes", "payment:cash": "yes", "payment:credit_cards": "yes", "phone": "+79608888482", "website": "https://vk.com/panchogrill34"}}, {"type": "way", "id": 736525489, "nodes": [6895858403, 6895858404, 6895858405, 6895858406, 6895858407, 6895858408, 6895858409, 6895858391, 6895858392, 6895858395, 6895858396, 6895858397, 6895858398, 6895858399, 6895858400, 6895858401, 6895858402, 6895858393, 6895858394, 6895858403], "tags": {"addr:country": "RU", "amenity": "fast_food", "building": "yes", "building:levels": "1", "cuisine": "pancake", "drive_through": "no", "name": "\u0411\u043b\u0438\u043d\u041c\u0430\u0441\u0442\u0435\u0440"}}, {"type": "way", "id": 755983413, "nodes": [7060826324, 7060826325, 7060826326, 7060826327, 7060826324], "tags": {"addr:country": "RU", "amenity": "fast_food", "building": "yes", "building:levels": "1", "name": "\u0411\u043b\u0438\u043d\u041c\u0430\u0441\u0442\u0435\u0440"}}, {"type": "way", "id": 829379072, "nodes": [7741391236, 7741391237, 7741391238, 7741391239, 7741391236], "tags": {"addr:country": "RU", "amenity": "fast_food", "building": "yes"}}, {"type": "way", "id": 949229072, "nodes": [8787437655, 8787437656, 8787437657, 8787437658, 8787437655], "tags": {"amenity": "fast_food", "building": "yes"}}, {"type": "way", "id": 1232871371, "nodes": [11438014776, 11438014777, 11438014778, 11438014779, 11438014776], "tags": {"addr:city": "\u0412\u043e\u043b\u0433\u043e\u0433\u0440\u0430\u0434", "addr:housenumber": "20\u0413/1", "addr:postcode": "400050", "addr:street": "\u0443\u043b\u0438\u0446\u0430 \u0422\u043a\u0430\u0447\u0451\u0432\u0430", "amenity": "fast_food", "building": "yes"}}, {"type": "way", "id": 1243974745, "nodes": [11563441991, 11563441992, 11563441993, 11563441994, 11563441991], "tags": {"amenity": "fast_food", "building": "commercial", "building:levels": "1", "name": "\u0412\u043e\u0441\u0442\u043e\u0447\u043d\u044b\u0439 \u043f\u0435\u0440\u0435\u0440\u044b\u0432"}}, {"type": "way", "id": 1250934780, "nodes": [11628078106, 11628078105, 11628078104, 11628078103, 11635714911, 11628078102, 11628078101, 11628078100, 11628078099, 11628078106], "tags": {"amenity": "fast_food", "building": "yes", "fast_food": "cafeteria", "name": "\u0421\u0442\u043e\u043b\u043e\u0432\u0430\u044f \u211678"}}]}