{"version": 0.6, "generator": "Overpass API 0.7.62.1 084b4234", "osm3s": {"timestamp_osm_base": "2024-05-14T08:29:51Z", "copyright": "The data included in this document is from www.openstreetmap.org. The data is made available under ODbL."}, "elements": [{"type": "node", "id": 416334355, "lat": 48.7078842, "lon": 44.5145294, "tags": {"amenity": "cafe", "cuisine": "italian;pizza;international", "name": "Massimo", "opening_hours": "Su-Th 08:00-24:00, Fr,Sa 08:00-01:00"}}, {"type": "node", "id": 1244746415, "lat": 48.7370362, "lon": 44.502435, "tags": {"amenity": "cafe", "name": "\u0423 \u0420\u043e\u0434\u043d\u0438\u043a\u0430"}}, {"type": "node", "id": 1244746457, "lat": 48.7386955, "lon": 44.4932941, "tags": {"amenity": "cafe", "name": "\u041a\u043e\u043c\u0444\u043e\u0440\u0442"}}, {"type": "node", "id": 1262309361, "lat": 48.697814, "lon": 44.4995867, "tags": {"amenity": "cafe", "name": "\u0424\u0440\u0430\u043d\u0442\u042d\u043b\u044c"}}, {"type": "node", "id": 1308405685, "lat": 48.7261738, "lon": 44.5201475, "tags": {"amenity": "cafe"}}, {"type": "node", "id": 1311129671, "lat": 48.7159303, "lon": 44.4879644}, {"type": "node", "id": 1311129681, "lat": 48.7156848, "lon": 44.488344}, {"type": "node", "id": 1311129696, "lat": 48.7157917, "lon": 44.4878895}, {"type": "node", "id": 1311129712, "lat": 48.7158235, "lon": 44.488419}, {"type": "node", "id": 1377290683, "lat": 48.6909817, "lon": 44.4904612, "tags": {"amenity": "cafe", "name": "\u0410\u043d\u0438\u0442\u0430"}}, {"type": "node", "id": 1377290687, "lat": 48.690888, "lon": 44.4902975, "tags": {"amenity": "cafe", "name": "\u0411\u0430\u0432\u0430\u0440\u0438\u044f"}}, {"type": "node", "id": 1383903418, "lat": 48.7052076, "lon": 44.5232413}, {"type": "node", "id": 1383903431, "lat": 48.7051318, "lon": 44.5229468}, {"type": "node", "id": 1383903452, "lat": 48.7050772, "lon": 44.5230212}, {"type": "node", "id": 1383903478, "lat": 48.7052846, "lon": 44.5232045}, {"type": "node", "id": 1387159737, "lat": 48.6977008, "lon": 44.4945496, "tags": {"amenity": "cafe", "name": "\u042d\u043d\u0435\u0440\u0413\u043e"}}, {"type": "node", "id": 1397174226, "lat": 48.7116099, "lon": 44.5220747}, {"type": "node", "id": 1397174240, "lat": 48.7115687, "lon": 44.5221299}, {"type": "node", "id": 1397174252, "lat": 48.7114297, "lon": 44.5218916}, {"type": "node", "id": 1397174262, "lat": 48.711471, "lon": 44.5218364}, {"type": "node", "id": 1398438271, "lat": 48.7030396, "lon": 44.5184711}, {"type": "node", "id": 1398438272, "lat": 48.7031405, "lon": 44.5187098}, {"type": "node", "id": 1398438292, "lat": 48.7030077, "lon": 44.5185113}, {"type": "node", "id": 1398438308, "lat": 48.7031121, "lon": 44.5182994}, {"type": "node", "id": 1398438324, "lat": 48.7030024, "lon": 44.5185408}, {"type": "node", "id": 1398438325, "lat": 48.7030289, "lon": 44.5185891}, {"type": "node", "id": 1398438326, "lat": 48.7030467, "lon": 44.5185972}, {"type": "node", "id": 1398438332, "lat": 48.7030112, "lon": 44.518573}, {"type": "node", "id": 1398438340, "lat": 48.7030204, "lon": 44.5184836}, {"type": "node", "id": 1398438350, "lat": 48.7032484, "lon": 44.5184818}, {"type": "node", "id": 1398438354, "lat": 48.7031493, "lon": 44.5183799}, {"type": "node", "id": 1398438369, "lat": 48.7031653, "lon": 44.518345}, {"type": "node", "id": 1409424697, "lat": 48.705287, "lon": 44.5180173, "tags": {"amenity": "cafe", "name": "\u041e\u043b\u0435"}}, {"type": "node", "id": 1409424700, "lat": 48.7047737, "lon": 44.5169953, "tags": {"amenity": "cafe", "name": "\u0421\u0442\u044d\u0439\u043a \u0425\u0430\u0443\u0441"}}, {"type": "node", "id": 1409435093, "lat": 48.7060747, "lon": 44.517446, "tags": {"amenity": "cafe", "name": "Hungry", "opening_hours": "Mo-Su 10:00-00:00"}}, {"type": "node", "id": 1572413801, "lat": 48.708004, "lon": 44.5230426, "tags": {"amenity": "cafe", "name": "\u041d\u043e\u0432\u0430\u044f \u0421\u0442\u043e\u043b\u043e\u0432\u0430\u044f"}}, {"type": "node", "id": 1595093557, "lat": 48.7054039, "lon": 44.5204462, "tags": {"amenity": "cafe", "name": "\u041f\u0438\u0432\u043e\u0442\u0435\u043a\u0430"}}, {"type": "node", "id": 1648563770, "lat": 48.7093835, "lon": 44.5105667}, {"type": "node", "id": 1648563779, "lat": 48.7094897, "lon": 44.5109148}, {"type": "node", "id": 1648563780, "lat": 48.709419, "lon": 44.5109257}, {"type": "node", "id": 1648563782, "lat": 48.7094728, "lon": 44.5106938}, {"type": "node", "id": 1648563784, "lat": 48.7094472, "lon": 44.510973}, {"type": "node", "id": 1648563785, "lat": 48.7093595, "lon": 44.5106054}, {"type": "node", "id": 1648563786, "lat": 48.7093978, "lon": 44.5111222}, {"type": "node", "id": 1648563793, "lat": 48.7094489, "lon": 44.5107325}, {"type": "node", "id": 1648563795, "lat": 48.7095059, "lon": 44.510942}, {"type": "node", "id": 1648563797, "lat": 48.7094621, "lon": 44.511002}, {"type": "node", "id": 1648563800, "lat": 48.7093429, "lon": 44.5110301}, {"type": "node", "id": 1648563802, "lat": 48.7094726, "lon": 44.5110197}, {"type": "node", "id": 1650359277, "lat": 48.7406967, "lon": 44.547016}, {"type": "node", "id": 1650359370, "lat": 48.7405695, "lon": 44.5470004}, {"type": "node", "id": 1650359372, "lat": 48.7407067, "lon": 44.5468294}, {"type": "node", "id": 1650359466, "lat": 48.7405795, "lon": 44.5468137}, {"type": "node", "id": 1776180336, "lat": 48.6985594, "lon": 44.4852229, "tags": {"amenity": "cafe"}}, {"type": "node", "id": 1796937767, "lat": 48.7227288, "lon": 44.5116424}, {"type": "node", "id": 1796937774, "lat": 48.7226811, "lon": 44.5111959}, {"type": "node", "id": 1796937775, "lat": 48.7225572, "lon": 44.5113876}, {"type": "node", "id": 1796937778, "lat": 48.7228527, "lon": 44.5114508}, {"type": "node", "id": 1798276725, "lat": 48.7239047, "lon": 44.5147401}, {"type": "node", "id": 1798276735, "lat": 48.7240345, "lon": 44.5149416}, {"type": "node", "id": 1798276753, "lat": 48.7241325, "lon": 44.5147964}, {"type": "node", "id": 1798276806, "lat": 48.7240027, "lon": 44.514595}, {"type": "node", "id": 1798283005, "lat": 48.722702, "lon": 44.5112296}, {"type": "node", "id": 1798283095, "lat": 48.7239234, "lon": 44.5147692}, {"type": "node", "id": 1798283118, "lat": 48.7227904, "lon": 44.511357}, {"type": "node", "id": 1799133275, "lat": 48.704374, "lon": 44.5087367, "tags": {"amenity": "cafe"}}, {"type": "node", "id": 1799133421, "lat": 48.7088695, "lon": 44.506736, "tags": {"amenity": "cafe"}}, {"type": "node", "id": 1799151859, "lat": 48.6961937, "lon": 44.5008116, "tags": {"amenity": "cafe"}}, {"type": "node", "id": 1799151877, "lat": 48.6961512, "lon": 44.4999131, "tags": {"amenity": "cafe", "cuisine": "regional;\u043a\u0430\u0432\u043a\u0430\u0437\u0441\u043a\u0430\u044f", "name": "\u0423\u0434\u0430\u0447\u0430"}}, {"type": "node", "id": 2150915485, "lat": 48.7056506, "lon": 44.509358}, {"type": "node", "id": 2150915487, "lat": 48.7057039, "lon": 44.5094567}, {"type": "node", "id": 2150915489, "lat": 48.70567, "lon": 44.5094987}, {"type": "node", "id": 2150915524, "lat": 48.7056167, "lon": 44.5094}, {"type": "node", "id": 3126225374, "lat": 48.7036648, "lon": 44.5158708, "tags": {"amenity": "cafe", "cuisine": "breakfast;pancake;ice_cream;crepe;chicken;tea;coffee_shop", "entrance": "yes", "name": "\u0411\u043b\u0438\u043d \u041a\u043b\u0443\u0431", "opening_hours": "Su-Th 10:00-23:00; Fr-Sa 10:00-00:00", "phone": "+7-8442-380505"}}, {"type": "node", "id": 3177377686, "lat": 48.7050186, "lon": 44.5102006, "tags": {"amenity": "cafe", "name": "\u041a\u0430\u043f\u0443\u0447\u0438\u043d\u043e", "opening_hours": "10:00-23:00", "website": "https://capucino.ru/krasnoznamenskaya.html"}}, {"type": "node", "id": 3177430964, "lat": 48.7044827, "lon": 44.5095623, "tags": {"amenity": "cafe", "name": "\u0411\u043b\u0438\u043d\u0431\u0435\u0440\u0440\u0438"}}, {"type": "node", "id": 3177430967, "lat": 48.704595, "lon": 44.509723, "tags": {"amenity": "cafe", "name": "\u041f\u0438\u0446\u0446\u0435\u0440\u0438\u044f"}}, {"type": "node", "id": 3213968175, "lat": 48.7063907, "lon": 44.5085195, "tags": {"amenity": "cafe", "contact:phone": "+7 (8442) 59-19-11", "contact:website": "http://kazanmangal.gidm.ru/", "name": "\u041a\u0430\u0437\u0430\u043d-\u041c\u0430\u043d\u0433\u0430\u043b", "opening_hours": "11:00-24:00"}}, {"type": "node", "id": 3214023773, "lat": 48.7421598, "lon": 44.488786}, {"type": "node", "id": 3214023774, "lat": 48.7422458, "lon": 44.489066}, {"type": "node", "id": 3214023775, "lat": 48.7422938, "lon": 44.4886914}, {"type": "node", "id": 3214023776, "lat": 48.7423798, "lon": 44.4889714}, {"type": "node", "id": 3234746540, "lat": 48.711967, "lon": 44.5156348, "tags": {"amenity": "cafe", "name": "\u0421\u0442\u043e\u043b\u043e\u0432\u0430\u044f"}}, {"type": "node", "id": 3269450891, "lat": 48.7074553, "lon": 44.5234942, "tags": {"amenity": "cafe", "cuisine": "german", "internet_access": "wlan", "name": "Bamberg", "opening_hours": "Mo-Su 11:00-00:00", "phone": "+7 (8442) 38-84-12", "smoking": "no", "website": "https://bamberg-volgograd.ru/"}}, {"type": "node", "id": 3273665314, "lat": 48.7039811, "lon": 44.5101676, "tags": {"amenity": "cafe", "name": "\u0424\u0440\u0430\u043d\u0442\u042d\u043b\u044c"}}, {"type": "node", "id": 3300556724, "lat": 48.7228673, "lon": 44.5110801, "tags": {"amenity": "cafe", "name": "\u0428\u0430\u0448\u043b\u044b\u0447\u043d\u044b\u0439 \u0434\u0432\u043e\u0440", "opening_hours": "24/7"}}, {"type": "node", "id": 3338698301, "lat": 48.7297839, "lon": 44.5246017, "tags": {"addr:housenumber": "62", "addr:postcode": "400005", "addr:street": "\u0443\u043b\u0438\u0446\u0430 \u0420\u043e\u043a\u043e\u0441\u0441\u043e\u0432\u0441\u043a\u043e\u0433\u043e", "amenity": "cafe", "cuisine": "regional", "name": "Eco house", "phone": "+7 (8442) 98-65-26", "website": "http://www.eco-house34.ru/"}}, {"type": "node", "id": 3340241114, "lat": 48.7245606, "lon": 44.5156294, "tags": {"amenity": "cafe", "name": "\u0411\u0438\u0441\u0442\u0440\u043e", "name:ru": "\u0411\u0438\u0441\u0442\u0440\u043e \u0444\u0440\u0430\u043d\u0442\u044d\u043b\u044c"}}, {"type": "node", "id": 3360254246, "lat": 48.6971747, "lon": 44.5007685, "tags": {"amenity": "cafe", "level": "4", "name": "Highway"}}, {"type": "node", "id": 3561673058, "lat": 48.7412036, "lon": 44.5325429, "tags": {"amenity": "cafe", "name": "\u0411\u043b\u0438\u043d\u0434\u0430\u0436", "opening_hours": "09:00 - 20:00"}}, {"type": "node", "id": 3576441352, "lat": 48.6920546, "lon": 44.4893811}, {"type": "node", "id": 3576441353, "lat": 48.6921839, "lon": 44.489546}, {"type": "node", "id": 3576441354, "lat": 48.692039, "lon": 44.4897445}, {"type": "node", "id": 3576441355, "lat": 48.6918815, "lon": 44.4894807}, {"type": "node", "id": 3590142560, "lat": 48.7246016, "lon": 44.5359556}, {"type": "node", "id": 3590142561, "lat": 48.7246296, "lon": 44.5358713}, {"type": "node", "id": 3590142562, "lat": 48.7247041, "lon": 44.536034}, {"type": "node", "id": 3590142563, "lat": 48.7247321, "lon": 44.5359497}, {"type": "node", "id": 3710174150, "lat": 48.7084849, "lon": 44.5270086, "tags": {"addr:city": "\u0412\u043e\u043b\u0433\u043e\u0433\u0440\u0430\u0434", "addr:housenumber": "23", "addr:postcode": "400066", "addr:street": "\u0443\u043b\u0438\u0446\u0430 \u0427\u0443\u0439\u043a\u043e\u0432\u0430", "amenity": "cafe", "cuisine": "russian;regional", "description": "\u041a\u0430\u0444\u0435, \u0431\u044b\u0441\u0442\u0440\u043e\u0435 \u043f\u0438\u0442\u0430\u043d\u0438\u0435, \u043f\u0435\u043b\u044c\u043c\u0435\u043d\u043d\u0430\u044f", "image": "https://avatars.mds.yandex.net/get-altay/4544819/2a0000017a19555afe650e34aac5feed88c8/XXXL", "name": "\u041f\u0435\u043b\u044c\u043c\u0435\u043d\u043d\u0430\u044f", "opening_hours": "Mo-Su 09:30-18:00", "phone": "+7 (8442) 38-67-04"}}, {"type": "node", "id": 3791187271, "lat": 48.7271549, "lon": 44.4879102, "tags": {"amenity": "cafe"}}, {"type": "node", "id": 3854884953, "lat": 48.7217284, "lon": 44.5179728}, {"type": "node", "id": 3854884954, "lat": 48.7217696, "lon": 44.5180387}, {"type": "node", "id": 3854884955, "lat": 48.7218435, "lon": 44.5178074}, {"type": "node", "id": 3854884956, "lat": 48.7218847, "lon": 44.5178732}, {"type": "node", "id": 4128595430, "lat": 48.7111568, "lon": 44.5196133, "tags": {"amenity": "cafe", "name": "\u041d\u043e\u0441\u043e\u0440\u043e\u0433", "website": "http://nosorogcafe.ru/"}}, {"type": "node", "id": 4140358504, "lat": 48.7024432, "lon": 44.4976124, "tags": {"amenity": "cafe", "name": "\u0411\u0443\u0444\u0435\u0442", "opening_hours": "Mo-Fr 09:30-18:30"}}, {"type": "node", "id": 4177041200, "lat": 48.711381, "lon": 44.4904354, "tags": {"amenity": "cafe", "name": "\u0421\u0442\u043e\u043b\u043e\u0432\u0430\u044f"}}, {"type": "node", "id": 4443962533, "lat": 48.7368008, "lon": 44.4884247}, {"type": "node", "id": 4443962534, "lat": 48.7369634, "lon": 44.4882963}, {"type": "node", "id": 4443962535, "lat": 48.7369747, "lon": 44.488329}, {"type": "node", "id": 4443962536, "lat": 48.7370374, "lon": 44.4882795}, {"type": "node", "id": 4443962537, "lat": 48.7370793, "lon": 44.4884016}, {"type": "node", "id": 4443962538, "lat": 48.736854, "lon": 44.4885796}, {"type": "node", "id": 4445814292, "lat": 48.7419206, "lon": 44.4909752, "tags": {"amenity": "cafe"}}, {"type": "node", "id": 4488208190, "lat": 48.7027026, "lon": 44.5032945, "tags": {"amenity": "cafe", "name": "\u041e\u041e\u041e \"\u0412\u0438\u0440\u0438\u043d\u0435\u044f\","}}, {"type": "node", "id": 4656659221, "lat": 48.7115178, "lon": 44.5029622, "tags": {"amenity": "cafe", "name": "\u0425\u0443\u043a\u0430 \u041f\u043b\u0435\u0439\u0441 \u043a\u0430\u043b\u044c\u044f\u043d\u043d\u0430\u044f", "name:en": "Hookah Place"}}, {"type": "node", "id": 4824790822, "lat": 48.7046246, "lon": 44.5192446, "tags": {"amenity": "cafe", "cuisine": "russian", "internet_access": "wlan", "name": "\u041c\u0430\u0440\u0443\u0441\u044f", "name:en": "Marusya", "opening_hours": "Mo-Su 09:00-00:00", "phone": "+78442595924", "website": "https://www.marusya34.ru/"}}, {"type": "node", "id": 5256074533, "lat": 48.7120873, "lon": 44.5158605, "tags": {"amenity": "cafe", "cafe": "time_cafe", "description": "\u0414\u0432\u0430 \u0431\u043e\u043b\u044c\u0448\u0438\u0445 \u0437\u0430\u043b\u0430 \u0438 VIP-\u0437\u043e\u043d\u0430. \u041c\u044f\u0433\u043a\u0438\u0435 \u0434\u0438\u0432\u0430\u043d\u044b \u0438 \u0441\u0442\u043e\u043b\u0438\u043a\u0438, WiFi, \u0442\u0435\u043b\u0435\u0432\u0438\u0437\u043e\u0440\u044b, \u0438\u0433\u0440\u043e\u0432\u044b\u0435 \u043f\u0440\u0438\u0441\u0442\u0430\u0432\u043a\u0438, \u043d\u0430\u0441\u0442\u043e\u043b\u044c\u043d\u044b\u0435 \u0438\u0433\u0440\u044b, \u043d\u0435\u0431\u043e\u043b\u044c\u0448\u0430\u044f \u0431\u0438\u0431\u043b\u0438\u043e\u0442\u0435\u043a\u0430, \u0447\u0430\u0439/\u043a\u043e\u0444\u0435 \u0438 \u0441\u043b\u0430\u0434\u043e\u0441\u0442\u0438, \u043a\u043e\u0444\u0435\u043c\u0430\u0448\u0438\u043d\u0430, \u0430\u0432\u0442\u043e\u043c\u0430\u0442\u044b \u0441 \u0441\u043e\u043a\u0430\u043c\u0438 \u0438 \u0432\u043e\u0434\u043e\u0439.", "internet_access": "yes", "name": "\u041f\u043e\u0441\u0438\u0434\u0435\u043b\u043a\u0438", "opening_hours": "24/7", "phone": "+79375569600", "website": "http://anticafeposidelki.ru"}}, {"type": "node", "id": 5526169921, "lat": 48.7104539, "lon": 44.5215495, "tags": {"amenity": "cafe", "name": "\u0412\u043e\u0440\u043e\u043d\u043a\u0430", "opening_hours": "Mo-Su 07:30-21:00"}}, {"type": "node", "id": 5537252421, "lat": 48.7217617, "lon": 44.5350676, "tags": {"amenity": "cafe", "diet:vegan": "only", "email": "VEGA-GRAD@YANDEX.RU", "internet_access": "wlan", "name": "\u0412\u0435\u0433\u0430 - \u041c\u0438\u0440\u043d\u0430\u044f \u0435\u0434\u0430", "name:en": "Vega - Mirnaya Eda", "opening_hours": "Mo-Su 08:30-20:00", "operator": "\u0420\u044f\u0431\u0438\u043d\u043e\u0432\u0430 \u0422. \u041c.", "phone": "+7 903 4676734", "website": "http://WWW.VEGAGRAD.RU"}}, {"type": "node", "id": 5595943865, "lat": 48.7050847, "lon": 44.5230109}, {"type": "node", "id": 5642277666, "lat": 48.7055708, "lon": 44.5200698, "tags": {"addr:city": "\u0412\u043e\u043b\u0433\u043e\u0433\u0440\u0430\u0434", "addr:postcode": "400131", "addr:street": "\u0443\u043b\u0438\u0446\u0430 \u0410\u043b\u043b\u0435\u044f \u0413\u0435\u0440\u043e\u0435\u0432", "addr:unit": "2", "amenity": "cafe", "cuisine": "coffee_shop;french;international;regional", "internet_access": "wlan", "internet_access:fee": "no", "name": "\u0421\u0447\u0430\u0441\u0442\u044c\u0435 \u0415\u0441\u0442\u044c", "opening_hours": "Mo-Th 10:00-22:00; Fr-Su 10:00-23:00", "outdoor_seating": "summer", "smoking": "no", "website": "https://instagram.com/schastie.club/"}}, {"type": "node", "id": 5642277667, "lat": 48.6941084, "lon": 44.4930803, "tags": {"addr:city": "\u0412\u043e\u043b\u0433\u043e\u0433\u0440\u0430\u0434", "addr:housenumber": "30\u0410", "addr:postcode": "400074", "addr:street": "\u0420\u0430\u0431\u043e\u0447\u0435-\u041a\u0440\u0435\u0441\u0442\u044c\u044f\u043d\u0441\u043a\u0430\u044f \u0443\u043b\u0438\u0446\u0430", "amenity": "cafe", "cuisine": "coffee_shop;french;international;regional", "internet_access": "wlan", "internet_access:fee": "no", "name": "\u0421\u0447\u0430\u0441\u0442\u044c\u0435 \u0415\u0441\u0442\u044c (\u21165)", "opening_hours": "Mo-Su 10:00-22:00", "outdoor_seating": "no", "smoking": "outside", "website": "https://instagram.com/schastie.club/"}}, {"type": "node", "id": 5940634586, "lat": 48.7118578, "lon": 44.5154112, "tags": {"amenity": "cafe", "cuisine": "burger;sandwich;breakfast;fish_and_chips;coffee_shop", "internet_access": "wlan", "name:en": "CoffeeLine", "opening_hours": "Mo-Sa 08:00-22:00; Su 09:00-22:00"}}, {"type": "node", "id": 6439323388, "lat": 48.6965172, "lon": 44.5004245, "tags": {"addr:housenumber": "9/1", "addr:street": "\u0420\u0430\u0431\u043e\u0447\u0435-\u041a\u0440\u0435\u0441\u0442\u044c\u044f\u043d\u0441\u043a\u0430\u044f \u0443\u043b\u0438\u0446\u0430", "amenity": "cafe", "name": "42", "opening_hours": "Mo-Su 09:00-21:30", "website": "https://instagram.com/42sorok2"}}, {"type": "node", "id": 6494912555, "lat": 48.71514, "lon": 44.528932, "tags": {"amenity": "cafe", "brand": "Coffee Like", "brand:wikidata": "Q55662627", "contact:email": "hotline@coffee-like.com", "contact:phone": "+7 341 2908292;+7 800 3334130", "contact:website": "https://coffee-like.com/", "cuisine": "coffee_shop", "name": "Coffee Like", "opening_hours": "Mo-Fr 09:00-21:00;Sa-Su 10:00-21:00", "operator": "\"\u041a\u043e\u0444\u0435 \u041b\u0430\u0439\u043a \u0412\u043e\u043b\u0433\u043e\u0433\u0440\u0430\u0434\"", "takeaway": "yes"}}, {"type": "node", "id": 6535718937, "lat": 48.717982, "lon": 44.5299714}, {"type": "node", "id": 6535718938, "lat": 48.7179409, "lon": 44.5300729}, {"type": "node", "id": 6535718939, "lat": 48.7178685, "lon": 44.5300055}, {"type": "node", "id": 6535718940, "lat": 48.7179096, "lon": 44.529904}, {"type": "node", "id": 6536736989, "lat": 48.710379, "lon": 44.514846, "tags": {"addr:city": "\u0412\u043e\u043b\u0433\u043e\u0433\u0440\u0430\u0434", "addr:housenumber": "4", "addr:postcode": "400066", "addr:street": "\u0443\u043b\u0438\u0446\u0430 \u0413\u043e\u0433\u043e\u043b\u044f", "amenity": "cafe", "brand": "Coffee Like", "brand:wikidata": "Q55662627", "contact:email": "hotline@coffee-like.com", "contact:phone": "+7 341 2908292;+7 800 3334130", "contact:website": "https://coffee-like.com/", "cuisine": "coffee_shop", "name": "Coffee Like", "opening_hours": "24/7", "operator": "\u0420\u043e\u0434\u0438\u043e\u043d\u043e\u0432\u0430 \u0422\u0430\u0442\u044c\u044f\u043d\u0430 \u0410\u043d\u0434\u0440\u0435\u0435\u0432\u043d\u0430", "takeaway": "yes"}}, {"type": "node", "id": 6541857785, "lat": 48.7030591, "lon": 44.5159618, "tags": {"amenity": "cafe", "diet:vegan": "yes", "name": "AngelCakes", "opening_hours": "Mo-Su 09:00-21:00", "phone": "+79197971010", "website": "http://angelcakes.ru"}}, {"type": "node", "id": 6546786900, "lat": 48.7145987, "lon": 44.5202361, "tags": {"amenity": "cafe"}}, {"type": "node", "id": 6676207785, "lat": 48.7102787, "lon": 44.5212633, "tags": {"amenity": "cafe", "brand": "Coffee Like", "brand:wikidata": "Q55662627", "brand:wikipedia": "ru:Coffee Like", "contact:email": "hotline@coffee-like.com", "contact:phone": "+7 341 2908292;+7 800 3334130", "contact:website": "https://coffee-like.com/", "cuisine": "coffee_shop", "name": "Coffee Like", "opening_hours": "Mo-Su 08:00-22:00", "operator": "\u0420\u043e\u0434\u0438\u043e\u043d\u043e\u0432\u0430 \u0422\u0430\u0442\u044c\u044f\u043d\u0430 \u0410\u043d\u0434\u0440\u0435\u0435\u0432\u043d\u0430", "takeaway": "yes"}}, {"type": "node", "id": 6690633322, "lat": 48.7437791, "lon": 44.5195735, "tags": {"amenity": "cafe", "contact:email": "horeca@33pingvina.ru", "contact:phone": "+7 800 1005033", "contact:website": "https://33pingvina.ru/", "cuisine": "ice_cream", "name": "33 \u043f\u0438\u043d\u0433\u0432\u0438\u043d\u0430", "opening_hours": "Mo-Su 10:00-21:00", "operator": "\u0418\u043d\u0442\u0435\u0440\u043e\u043f\u0442", "shop": "ice_cream"}}, {"type": "node", "id": 6745214150, "lat": 48.7277358, "lon": 44.5440093, "tags": {"amenity": "cafe", "name": "\u0411\u0430\u043a\u0443"}}, {"type": "node", "id": 6825017069, "lat": 48.7144884, "lon": 44.4997024, "tags": {"amenity": "cafe", "name": "\u041c\u0430\u0440\u0438\u0442\u043e\u0432\u0430\u0440\u0438"}}, {"type": "node", "id": 6825019494, "lat": 48.7158098, "lon": 44.501798, "tags": {"amenity": "cafe", "name": "\u0421\u0442\u043e\u043b\u043e\u0432\u0430\u044f \u0434\u043e\u043c\u0430\u0448\u043d\u044f\u044f", "opening_hours": "Mo-Fr 09:30-16:00"}}, {"type": "node", "id": 6825611276, "lat": 48.7122485, "lon": 44.5039474, "tags": {"amenity": "cafe"}}, {"type": "node", "id": 6825777140, "lat": 48.7114749, "lon": 44.5029269, "tags": {"amenity": "cafe", "name": "\u0427\u0451?\u0445\u0430\u0440\u0447\u043e", "opening_hours": "08:00-20:00"}}, {"type": "node", "id": 6828069424, "lat": 48.6970657, "lon": 44.5036419, "tags": {"amenity": "cafe"}}, {"type": "node", "id": 6828091002, "lat": 48.6978377, "lon": 44.5018616, "tags": {"amenity": "cafe", "name": "Beefy burgers", "opening_hours": "Mo-Th, Su 10:00-22:00, 10:00-23:00"}}, {"type": "node", "id": 6828199924, "lat": 48.7035172, "lon": 44.5121156, "tags": {"amenity": "cafe", "name": "\u0411\u043b\u0438\u043d \u0431\u0435\u0440\u0440\u0438", "opening_hours": "Mo-Su 08:00-22:00"}}, {"type": "node", "id": 6828249575, "lat": 48.7062629, "lon": 44.5166743, "tags": {"addr:city": "\u0412\u043e\u043b\u0433\u043e\u0433\u0440\u0430\u0434", "addr:housenumber": "5", "addr:postcode": "400131", "addr:street": "\u0443\u043b\u0438\u0446\u0430 \u0410\u043b\u043b\u0435\u044f \u0413\u0435\u0440\u043e\u0435\u0432", "amenity": "cafe", "description": "\u0411\u0443\u043b\u043e\u0447\u043d\u0430\u044f-\u043a\u043e\u043d\u0434\u0438\u0442\u0435\u0440\u0441\u043a\u0430\u044f", "image": "https://avatars.mds.yandex.net/get-altay/1526642/2a0000016aab61df2e190d91a024390df441/XXXL", "name": "\u0411\u0443\u043b\u043e\u0447\u043d\u0430\u044f", "opening_hours": "Mo-Su 09:00-21:00", "phone": "+7 (927) 529-91-11"}}, {"type": "node", "id": 6867953396, "lat": 48.6918868, "lon": 44.489434}, {"type": "node", "id": 6867953397, "lat": 48.6921434, "lon": 44.4894783}, {"type": "node", "id": 6867953398, "lat": 48.6920246, "lon": 44.4896411}, {"type": "node", "id": 6867953399, "lat": 48.6919987, "lon": 44.4895977}, {"type": "node", "id": 6867953400, "lat": 48.6921006, "lon": 44.489458}, {"type": "node", "id": 6867953401, "lat": 48.6920139, "lon": 44.489437}, {"type": "node", "id": 6867953402, "lat": 48.6919801, "lon": 44.4893806}, {"type": "node", "id": 6867953403, "lat": 48.6919194, "lon": 44.4893893}, {"type": "node", "id": 6867953404, "lat": 48.6919439, "lon": 44.4894303}, {"type": "node", "id": 6879238685, "lat": 48.7047353, "lon": 44.5170362, "tags": {"amenity": "cafe", "name": "Steak House", "opening_hours": "Mo-Su 09:00-23:00", "phone": "+78442503950,+78442255060"}}, {"type": "node", "id": 7182383887, "lat": 48.7057744, "lon": 44.5258212}, {"type": "node", "id": 7182383888, "lat": 48.7057341, "lon": 44.5257672}, {"type": "node", "id": 7182383889, "lat": 48.705751, "lon": 44.5257382}, {"type": "node", "id": 7182383890, "lat": 48.705725, "lon": 44.5257033}, {"type": "node", "id": 7182383891, "lat": 48.7057375, "lon": 44.525682}, {"type": "node", "id": 7182383892, "lat": 48.7057825, "lon": 44.5257425}, {"type": "node", "id": 7182383893, "lat": 48.7057664, "lon": 44.52577}, {"type": "node", "id": 7182383894, "lat": 48.7057876, "lon": 44.5257985}, {"type": "node", "id": 7207977939, "lat": 48.695689, "lon": 44.4920988, "tags": {"amenity": "cafe", "description": "\u0418\u041f \u041c\u043e\u0440\u043e\u0437\u043e\u0432 \u041c.\u0410. (\u043f\u0438\u0432\u0431\u0430\u0440, \u0422\u0432\u043e\u0439 \u0433\u0440\u0430\u0434\u0443\u0441)", "name": "BEER MARKET"}}, {"type": "node", "id": 7208048468, "lat": 48.6966, "lon": 44.4995445, "tags": {"amenity": "cafe", "name": "\u0428\u0430\u0443\u0440\u043c\u0430 House"}}, {"type": "node", "id": 7208056919, "lat": 48.7032468, "lon": 44.4909049, "tags": {"amenity": "cafe", "name": "\u0418\u041f \u0411\u043b\u043e\u0448\u043a\u0438\u043d\u0430 \u0415\u043b\u0435\u043d\u0430 \u0410\u043b\u0435\u043a\u0441\u0430\u043d\u0434\u0440\u043e\u0432\u043d\u0430 \u041a\u0430\u0444\u0435 \"\u041d\u0435\u0433\u0430\""}}, {"type": "node", "id": 7208058125, "lat": 48.6927626, "lon": 44.4934357, "tags": {"amenity": "cafe", "name": "\u0418\u041f \u0410\u0432\u0430\u043a\u044f\u043d \u0411\u0430\u0433\u0440\u0430\u0442 \u0413\u0430\u043c\u043b\u0435\u0442\u043e\u0432\u0438\u0447 \u041a\u0430\u0444\u0435-\u0437\u0430\u043a\u0443\u0441\u043e\u0447\u043d\u0430\u044f \"\u0415\u0448\u043a\u0430\""}}, {"type": "node", "id": 7208060626, "lat": 48.6928817, "lon": 44.4935914, "tags": {"amenity": "cafe", "description": "\u0418\u041f \u0413\u0430\u043b\u043e\u044f\u043d \u0410\u0440\u043c\u0435\u043d \u0420\u0443\u0431\u0435\u043d\u043e\u0432\u0438\u0447", "name": "\"\u0428\u0430\u0443\u0440\u043c\u0430\" \u0424\u0440\u0435\u043a\u043a\u0435\u043d \u0411\u043e\u043a"}}, {"type": "node", "id": 7208070177, "lat": 48.693014, "lon": 44.493897, "tags": {"amenity": "cafe", "description": "\u0418\u041f \u0411\u0430\u0448\u043a\u0430\u0442\u043e\u0432 \u0410\u043d\u0434\u0440\u0435\u0439 \u0413\u0435\u043d\u043d\u0430\u0434\u044c\u0435\u0432\u0438\u0447,", "name": "\u0425\u043b\u0435\u0431\u043d\u0438\u0447\u043d\u0430\u044f \u043f\u0435\u043a\u0430\u0440\u043d\u044f (\u043a\u0443\u043b\u0438\u043d\u0430\u0440\u0438\u044f)"}}, {"type": "node", "id": 7210779447, "lat": 48.6899303, "lon": 44.4890411, "tags": {"amenity": "cafe", "name": "\u0418\u041f \u0418\u043b\u044e\u0448\u0438\u043d \u0410.\u0421., \u041f\u0438\u0432\u043a\u043b\u0443\u0431 \"\u0411\u043e\u0447\u043a\u0430\""}}, {"type": "node", "id": 7210785640, "lat": 48.6906381, "lon": 44.4873319, "tags": {"amenity": "cafe", "name": "\u0418\u041f \u0417\u0430\u0440\u0431\u0430\u043b\u0438\u0435\u0432 \u0420\u0430\u043c\u0438\u043b \u0421\u0438\u0440\u0430\u0434\u0436\u0435\u0434\u0434\u0438\u043d \u043e\u0433\u043b\u044b \u0420\u0435\u0441\u0442\u043e\u0440\u0430\u043d \"GUSTO\""}}, {"type": "node", "id": 7210792429, "lat": 48.6976038, "lon": 44.5017363, "tags": {"amenity": "cafe", "name": "\u0418\u041f \u041a\u0443\u043f\u043a\u043e \u0415\u0432\u0433\u0435\u043d\u0438\u0439 \u0410\u043b\u0435\u043a\u0441\u0430\u043d\u0434\u0440\u043e\u0432\u0438\u0447\"\u0411\u043b\u0438\u043d \u0411\u0435\u0440\u0438\""}}, {"type": "node", "id": 7210793905, "lat": 48.7000567, "lon": 44.4872407, "tags": {"amenity": "cafe", "name": "\u0418\u041f \u0417\u0435\u043c\u043b\u044f\u043d\u0441\u043a\u0438\u0439 \u042e.\u0421. \u043a\u043e\u043d\u0434\u0438\u0442\u0435\u0440\u0441\u043a\u0430\u044f \"\u041f\u0435\u043a\u0430\u0440\u043d\u044f-\u0425\u043b\u0435\u0431\u043d\u0438\u0446\u0430\"\""}}, {"type": "node", "id": 7210796958, "lat": 48.696531, "lon": 44.4995825, "tags": {"amenity": "cafe", "description": "\u0418\u041f \u041a\u0443\u043f\u043a\u043e \u0415\u0432\u0433\u0435\u043d\u0438\u0439 \u0410\u043b\u0435\u043a\u0441\u0430\u043d\u0434\u0440\u043e\u0432\u0438\u0447", "name": "\u0411\u043b\u0438\u043d \u0411\u0435\u0440\u0438"}}, {"type": "node", "id": 7210800897, "lat": 48.6975295, "lon": 44.5014198, "tags": {"amenity": "cafe", "name": "\u0418\u041f \u041a\u0443\u0431\u0435\u043a\u043e\u0432 \u041a\u043e\u043d\u0441\u0442\u0430\u043d\u0442\u0438\u043d \u0412\u043b\u0430\u0434\u0438\u043c\u0438\u0440\u043e\u0432\u0438\u0447 Beefy Burgers"}}, {"type": "node", "id": 7210802114, "lat": 48.6982928, "lon": 44.5023895, "tags": {"amenity": "cafe", "name": "\u0418\u041f \u041a\u0440\u0430\u0441\u043e\u0432\u0430 \u042e\u043b\u0438\u044f \u0421\u0435\u0440\u0433\u0435\u0435\u0432\u043d\u0430 \u041a\u0430\u0444\u0435 \"Subway\""}}, {"type": "node", "id": 7210803099, "lat": 48.6978051, "lon": 44.5108584, "tags": {"amenity": "cafe", "name": "\u0418\u041f \u041a\u0438\u0447\u043a\u0438\u043d \u0410\u043d\u0434\u0440\u0435\u0439 \u0410\u043d\u0434\u0440\u0435\u0435\u0432\u0438\u0447 (\u041a\u0430\u043b\u044c\u044f\u043d-\u0431\u0430\u0440)\"\u041c\u044f\u0442\u0430\""}}, {"type": "node", "id": 7210810748, "lat": 48.6925148, "lon": 44.4937417, "tags": {"amenity": "cafe", "name": "\u0418\u041f \u041a\u043e\u0440\u043d\u0435\u0435\u0432\u0430 \u042d\u043b\u044c\u0432\u0438\u0440\u0430 \u0421\u0435\u043c\u0435\u043d\u043e\u0432\u043d\u0430 \"\u041c\u0430\u043d\u0434\u0430\u0440\u0438\u043d\u043a\u0430\""}}, {"type": "node", "id": 7217724118, "lat": 48.696831, "lon": 44.5007153, "tags": {"amenity": "cafe", "name": "\u0418\u041f \u041b\u0435\u0432\u043e\u043d\u044f\u043d \u0420\u043e\u043c\u0430\u043d \u0425\u0430\u0436\u0430\u043a\u043e\u0432\u0438\u0447 \"\u0428\u0430\u0443\u0440\u043c\u0430 \u0435\u0441\u0442\u044c\""}}, {"type": "node", "id": 7217803769, "lat": 48.6967602, "lon": 44.5007689, "tags": {"amenity": "cafe", "name": "\u0418\u041f \u041c\u0443\u043a\u0430\u0435\u0432\u0430 \u0415\u043b\u0435\u043d\u0430 \u0420\u0438\u043d\u0430\u0442\u043e\u0432\u043d\u0430 \" Phobo\""}}, {"type": "node", "id": 7217804855, "lat": 48.6970718, "lon": 44.5008708, "tags": {"amenity": "cafe", "name": "\u0418\u041f \u041c\u043e\u0438\u0441\u0435\u0435\u043d\u043a\u043e \u0412\u0430\u0441\u0438\u043b\u0438\u0439 \u0424\u0435\u0434\u043e\u0440\u043e\u0432\u0438\u0447 \"\u0428\u0430\u0443\u0440\u043c\u0430"}}, {"type": "node", "id": 7217806903, "lat": 48.6891849, "lon": 44.4920828, "tags": {"amenity": "cafe", "name": "\u0418\u041f \u0420\u043e\u0434\u0438\u043e\u043d\u043e\u0432\u0430 \u0415\u043a\u0430\u0442\u0435\u0440\u0438\u043d\u0430 \u0412\u043b\u0430\u0434\u0438\u043c\u0438\u0440\u043e\u0432\u043d\u0430, \u043f\u0435\u043a\u0430\u0440\u043d\u044f \"\u0411\u0440\u0435\u0446\u0435\u043b\u044c\""}}, {"type": "node", "id": 7217811354, "lat": 48.6970077, "lon": 44.501092, "tags": {"amenity": "cafe", "name": "\u0418\u041f \u041f\u0435\u0445\u0442\u0435\u043b\u0435\u0432 \u0410\u043b\u0435\u043a\u0441\u0430\u043d\u0434\u0440 \u041f\u0435\u0442\u0440\u043e\u0432\u0438\u0447 \" Cuter D\u0451ner\""}}, {"type": "node", "id": 7217812541, "lat": 48.6970177, "lon": 44.4988597, "tags": {"amenity": "cafe", "name": "\u042e\u0422\u0410\" \u041f\u0438\u0446\u0446\u0430"}}, {"type": "node", "id": 7217823436, "lat": 48.6890791, "lon": 44.4918819, "tags": {"amenity": "cafe", "name": "\u0418\u041f \u0422\u0430\u0442\u0430\u0440\u0438\u043d\u043e\u0432\u0430 \u041d\u0430\u0442\u0430\u043b\u044c\u044f \u0412\u043b\u0430\u0434\u0438\u043c\u0438\u0440\u043e\u0432\u043d\u0430, \u0431\u0430\u0440 \"\u0411\u0430\u0432\u0430\u0440\u0438\u044f\""}}, {"type": "node", "id": 7217825147, "lat": 48.6888301, "lon": 44.4857292, "tags": {"amenity": "cafe", "name": "\u0418\u041f \u0422\u0435\u0441\u043b\u0435\u043d\u043a\u043e \u0421\u0435\u0440\u0433\u0435\u0439 \u0410\u043d\u0430\u0442\u043e\u043b\u044c\u0435\u0432\u0438\u0447 \"\u0411\u043b\u0438\u043d \u041c\u0430\u0441\u0442\u0435\u0440\""}}, {"type": "node", "id": 7217843141, "lat": 48.6922165, "lon": 44.4942703, "tags": {"amenity": "cafe", "name": "\u041e\u041e\u041e \"\u0411\u043e\u043d-\u0410\u043f\u043f\u0435\u0442\u0438\u0442\" 3"}}, {"type": "node", "id": 7221704139, "lat": 48.7006446, "lon": 44.5039698, "tags": {"amenity": "cafe", "name": "\u041e\u041e\u041e \"\u0414\u0440\u0430\u0439\u0432\", \u043d\u043e\u0447\u043d\u043e\u0439 \u043a\u043b\u0443\u0431 \"PUSH\""}}, {"type": "node", "id": 7221712067, "lat": 48.7029069, "lon": 44.4983371, "tags": {"amenity": "cafe", "name": "\u041e\u041e\u041e \"\u0413\u0443\u0440\u043c\u0430\u043d\u0438\u044f\""}}, {"type": "node", "id": 7221712739, "lat": 48.7004994, "lon": 44.5035889, "tags": {"amenity": "cafe", "name": "\u041e\u041e\u041e \"\u0415\u0432\u0440\u043e\u0431\u0430\u043b\u0442\" \"Vok-\u043a\u0430\u0444\u0435\""}}, {"type": "node", "id": 7221712870, "lat": 48.6945404, "lon": 44.4950648, "tags": {"amenity": "cafe", "description": "(\u0433\u0430\u0441\u0442\u0440\u043e\u0431\u0430\u0440 \u0420\u0430\u043a\u043e\u0432\u0430\u0440\u043d\u044f) \u0434\u0438\u0440\u0435\u043a\u0442\u043e\u0440 \u0420\u0435\u0439\u0445 \u041c\u0430\u043a\u0441\u0438\u043c \u0411\u043e\u0440\u0438\u0441\u043e\u0432\u0438\u0447", "name": "\u0414\u043e\u043d\u0430\u0442\u0441"}}, {"type": "node", "id": 7221713311, "lat": 48.6946847, "lon": 44.4946555, "tags": {"amenity": "cafe", "description": "\u043a\u043e\u0444\u0435\u0439\u043d\u044f, \u0432\u0438\u043d\u043e) \u0434\u0438\u0440\u0435\u043a\u0442\u043e\u0440 \u0413\u0443\u043b\u0438\u043d \u0412\u0438\u043a\u0442\u043e\u0440 \u0410\u043d\u0434\u0440\u0435\u0435\u0432\u0438\u0447", "name": "\u0412\u043e\u0440\u043e\u043d\u043a\u0430"}}, {"type": "node", "id": 7221721098, "lat": 48.7003711, "lon": 44.5062426, "tags": {"amenity": "cafe", "name": "\u0412\u043e\u0441\u0442\u043e\u043a \"\u0420\u0438\u043c\u0438\u043d\u0438\"", "opening_hours": "Mo-Su 11:00-23:00"}}, {"type": "node", "id": 7221732791, "lat": 48.6967676, "lon": 44.4966366, "tags": {"amenity": "cafe", "name": "\u041e\u041e\u041e \"\u0416\u0431\u0430\u043d\u0431\u0435\u0440\u0433\" \u0431\u0430\u0440 \"\u041f\u043e\u043d\u0435\u0441\u043b\u043e\u0441\u044c\""}}, {"type": "node", "id": 7221737024, "lat": 48.6975416, "lon": 44.5014725, "tags": {"amenity": "cafe", "name": "\u041e\u041e\u041e \"\u041a\u0430\u0441\u043a\u0430\u0440\u0430 \u043a\u043e\u0444\u0435\" \"\u041a\u0441\u0442\u0430\u0442\u0438, \u043a\u043e\u0444\u0435\""}}, {"type": "node", "id": 7242118154, "lat": 48.6999422, "lon": 44.5059572, "tags": {"amenity": "cafe", "name": "\u041a\u0430\u0440\u0430\u043e\u043a\u0435-\u043a\u0430\u0444\u0435\"\u0421\u0435\u0440\u0435\u0431\u0440\u043e"}}, {"type": "node", "id": 7247432312, "lat": 48.708878, "lon": 44.5190669, "tags": {"amenity": "cafe", "name": "Blues Rock Cafe"}}, {"type": "node", "id": 7247434239, "lat": 48.710557, "lon": 44.5217115, "tags": {"amenity": "cafe", "brand": "Surf Coffee", "brand:wikidata": "Q110278756", "cuisine": "coffee_shop", "name": "Surf Coffee", "takeaway": "yes", "website": "https://www.surfcoffee.ru/"}}, {"type": "node", "id": 7288071743, "lat": 48.6929165, "lon": 44.4969841}, {"type": "node", "id": 7288071744, "lat": 48.6930563, "lon": 44.4972152}, {"type": "node", "id": 7288071745, "lat": 48.6933783, "lon": 44.4967535}, {"type": "node", "id": 7288071746, "lat": 48.6932339, "lon": 44.4965255}, {"type": "node", "id": 7690916290, "lat": 48.7432632, "lon": 44.5030746, "tags": {"addr:housenumber": "11\u0411", "addr:postcode": "400137", "addr:street": "\u0431\u0443\u043b\u044c\u0432\u0430\u0440 30-\u043b\u0435\u0442\u0438\u044f \u041f\u043e\u0431\u0435\u0434\u044b", "amenity": "cafe", "cuisine": "coffee_shop;grill;russian", "email": "restoran7nebo@mail.ru", "internet_access": "wlan", "name": "\u041c\u0435\u043b\u044c\u043d\u0438\u0446\u0430", "opening_hours": "Mo-Su 12:00-00:00", "phone": "+78442487070", "website": "http://7nebo.gidm.ru"}}, {"type": "node", "id": 8310563017, "lat": 48.7020038, "lon": 44.5005895, "tags": {"amenity": "cafe", "cuisine": "coffee_shop", "name:en": "PUNTO coffee", "opening_hours": "Mo-Fr 09:00-20:00"}}, {"type": "node", "id": 8390507617, "lat": 48.7075352, "lon": 44.5147181, "tags": {"amenity": "cafe", "name": "Garden-Lounge", "opening_hours": "Mo-Su 12:00-02:00"}}, {"type": "node", "id": 8390508017, "lat": 48.7072111, "lon": 44.5217116, "tags": {"amenity": "cafe", "name": "Black&White(\u0421\u0442\u043e\u043b\u043e\u0432\u0430\u044f)"}}, {"type": "node", "id": 8807292917, "lat": 48.7094919, "lon": 44.5109372, "tags": {"amenity": "cafe", "name": "\u0428\u0430\u043c\u043f\u0443\u0440", "opening_hours": "PH,Mo-Su 09:00-23:00"}}, {"type": "node", "id": 8808621730, "lat": 48.7010202, "lon": 44.5191446, "tags": {"addr:city": "\u0412\u043e\u043b\u0433\u043e\u0433\u0440\u0430\u0434", "addr:housenumber": "6", "addr:postcode": "400066", "addr:street": "\u043d\u0430\u0431\u0435\u0440\u0435\u0436\u043d\u0430\u044f 62-\u0439 \u0410\u0440\u043c\u0438\u0438", "amenity": "cafe", "cuisine": "coffee_shop;italian;international;pizza;sandwich", "level": "5", "name": "Organza", "name:en": "Organza", "opening_hours": "Mo-Su 08:30-23:00", "phone": "+7 (844) 222-20-02", "website": "https://organzacafe.ru"}}, {"type": "node", "id": 8808745536, "lat": 48.7080094, "lon": 44.5225654, "tags": {"amenity": "cafe", "brand": "Coffee Like", "brand:wikidata": "Q55662627", "cuisine": "coffee_shop", "name": "Coffee Like", "name:en": "Coffee Like", "opening_hours": "Mo-Fr 08:00-21:00; Sa-Su 10:00-22:00", "takeaway": "yes"}}, {"type": "node", "id": 8808855217, "lat": 48.7147954, "lon": 44.5330933, "tags": {"amenity": "cafe", "name": "\u0414\u043e\u0431\u043b\u0435\u0441\u0442\u044c", "opening_hours": "Su, Tu-Th 10:00-18:00; Fr-Sa 10:00-20:00"}}, {"type": "node", "id": 8809143417, "lat": 48.7261951, "lon": 44.5409301, "tags": {"amenity": "cafe", "name:en": "Basetta", "opening_hours": "Mo-Su 09:00-22:00"}}, {"type": "node", "id": 8809409317, "lat": 48.706943, "lon": 44.5181837, "tags": {"addr:city": "\u0412\u043e\u043b\u0433\u043e\u0433\u0440\u0430\u0434", "addr:housenumber": "4", "addr:postcode": "400131", "addr:street": "\u0443\u043b\u0438\u0446\u0430 \u0410\u043b\u043b\u0435\u044f \u0413\u0435\u0440\u043e\u0435\u0432", "amenity": "cafe", "cuisine": "coffee_shop", "image": "https://avatars.mds.yandex.net/get-altay/5254653/2a0000017b8bbb845c418668b34bccef35cd/XXXL", "name": "\u0412\u043e\u0440\u043e\u043d\u043a\u0430 \u2116 3", "opening_hours": "Mo-Fr 08:00-23:00; Sa-Su 09:00-23:00", "outdoor_seating": "yes", "phone": "+7 (995) 664-00-51"}}, {"type": "node", "id": 8811272117, "lat": 48.6934097, "lon": 44.4945109, "tags": {"amenity": "cafe", "name": "\u041a\u043e\u0440\u0438\u0446\u0430", "opening_hours": "Mo-Fr 08:00-21:00; Sa-Su 09:00-21:00"}}, {"type": "node", "id": 8812496617, "lat": 48.7060187, "lon": 44.5195307, "tags": {"addr:city": "\u0412\u043e\u043b\u0433\u043e\u0433\u0440\u0430\u0434", "addr:housenumber": "4", "addr:postcode": "400131", "addr:street": "\u0443\u043b\u0438\u0446\u0430 \u0410\u043b\u043b\u0435\u044f \u0413\u0435\u0440\u043e\u0435\u0432", "amenity": "cafe", "cuisine": "coffee_shop", "name": "Stolbovoy coffee", "opening_hours": "Mo-Su 07:30-24:00"}}, {"type": "node", "id": 8929387310, "lat": 48.7146204, "lon": 44.5313225, "tags": {"addr:city": "\u0412\u043e\u043b\u0433\u043e\u0433\u0440\u0430\u0434", "addr:housenumber": "28", "addr:postcode": "400005", "addr:street": "\u0421\u043e\u0432\u0435\u0442\u0441\u043a\u0430\u044f \u0443\u043b\u0438\u0446\u0430", "amenity": "cafe", "cuisine": "teahouse", "name": "\u0411\u0435\u043b\u044b\u0435 \u041e\u0431\u043b\u0430\u043a\u0430", "opening_hours": "Mo-Su 10:00-23:00", "outdoor_seating": "no", "phone": "+7 995 0890028;+7 927 5103595;+7 844 2503595;+7 844 2235292"}}, {"type": "node", "id": 9743536898, "lat": 48.705114, "lon": 44.5189049, "tags": {"addr:city": "\u0412\u043e\u043b\u0433\u043e\u0433\u0440\u0430\u0434", "addr:housenumber": "1", "addr:postcode": "400131", "addr:street": "\u0443\u043b\u0438\u0446\u0430 \u0410\u043b\u043b\u0435\u044f \u0413\u0435\u0440\u043e\u0435\u0432", "amenity": "cafe", "check_date:opening_hours": "2023-08-06", "cuisine": "regional;coffee_shop;ice_cream;sandwich", "description": "\u041a\u0430\u0444\u0435, \u043a\u043e\u043d\u0434\u0438\u0442\u0435\u0440\u0441\u043a\u0430\u044f", "image": "https://avatars.mds.yandex.net/get-altay/3629247/2a000001751bbb9338bd0a67c14f99558020/XXXL", "name": "\u041a\u043e\u0444\u0435-\u043c\u043e\u0440\u043e\u0436\u0435\u043d\u043e\u0435", "opening_hours": "Mo-Su 09:00-22:00", "outdoor_seating": "yes", "phone": "+7 (8442) 38-21-97"}}, {"type": "node", "id": 9743624305, "lat": 48.707458, "lon": 44.5196855, "tags": {"addr:city": "\u0412\u043e\u043b\u0433\u043e\u0433\u0440\u0430\u0434", "addr:housenumber": "17/1", "addr:postcode": "400131", "addr:street": "\u0421\u043e\u0432\u0435\u0442\u0441\u043a\u0430\u044f \u0443\u043b\u0438\u0446\u0430", "amenity": "cafe", "cuisine": "sandwich", "image": "https://avatars.mds.yandex.net/get-altay/5234599/2a0000017b1c42dec8f69b489aa6c99e01b8/XXXL", "name": "\u041c\u0438\u0441\u0442\u0435\u0440 \u0441\u044d\u043d\u0434\u0432\u0438\u0447", "opening_hours": "Mo-Su 11:00-24:00", "outdoor_seating": "yes", "phone": "+7 (937) 090-66-63"}}, {"type": "node", "id": 9743659175, "lat": 48.7074205, "lon": 44.5196025, "tags": {"addr:city": "\u0412\u043e\u043b\u0433\u043e\u0433\u0440\u0430\u0434", "addr:housenumber": "17/1", "addr:postcode": "400131", "addr:street": "\u0421\u043e\u0432\u0435\u0442\u0441\u043a\u0430\u044f \u0443\u043b\u0438\u0446\u0430", "amenity": "cafe", "cuisine": "vietnamese", "description": "\u043f\u0430\u043d\u0430\u0437\u0438\u0430\u0442\u0441\u043a\u0430\u044f \u043a\u0443\u0445\u043d\u044f, \u043f\u0438\u0432\u043e", "name": "Fat Mao", "opening_hours": "Mo-Su 14:00-23:00", "outdoor_seating": "yes", "phone": "+7 (919) 795-60-65", "website": "+7 (919) 795-60-65"}}, {"type": "node", "id": 9743691076, "lat": 48.7071957, "lon": 44.5238723, "tags": {"addr:city": "\u0412\u043e\u043b\u0433\u043e\u0433\u0440\u0430\u0434", "addr:housenumber": "20", "addr:postcode": "400131", "addr:street": "\u0421\u043e\u0432\u0435\u0442\u0441\u043a\u0430\u044f \u0443\u043b\u0438\u0446\u0430", "amenity": "cafe", "cuisine": "european;coffee_shop;breakfast", "delivery": "yes", "image": "https://avatars.mds.yandex.net/get-altay/2714499/2a000001738ef0dfd1f864e555f89e03add5/XXXL", "name": "\u0413\u0440\u0435\u0442\u0435\u043b\u044c", "opening_hours": "Mo-Su 07:30-24:00", "outdoor_seating": "yes", "phone": "+7 (8442) 59-51-95", "takeaway": "yes", "website": "https://gretelcafe.ru"}}, {"type": "node", "id": 9743992277, "lat": 48.7092005, "lon": 44.5247662, "tags": {"addr:city": "\u0412\u043e\u043b\u0433\u043e\u0433\u0440\u0430\u0434", "addr:housenumber": "21", "addr:postcode": "400131", "addr:street": "\u0421\u043e\u0432\u0435\u0442\u0441\u043a\u0430\u044f \u0443\u043b\u0438\u0446\u0430", "amenity": "cafe", "cuisine": "coffee_shop", "description": "\u041c\u042b - \u043f\u0435\u0440\u0432\u0430\u044f \u043a\u043e\u0444\u0435\u0439\u043d\u044f \u0432 \u0433\u043e\u0440\u043e\u0434\u0435, \u0440\u0430\u0431\u043e\u0442\u0430\u044e\u0449\u0430\u044f \u043f\u043e \u0435\u0432\u0440\u043e\u043f\u0435\u0439\u0441\u043a\u0438\u043c \u0441\u0442\u0430\u043d\u0434\u0430\u0440\u0442\u0430\u043c \u043a\u0430\u0447\u0435\u0441\u0442\u0432\u0430 \u0438 \u043e\u0431\u0441\u043b\u0443\u0436\u0438\u0432\u0430\u043d\u0438\u044f. \u041a\u0430\u0436\u0434\u044b\u0439 \u0434\u0435\u043d\u044c \u043c\u044b \u043f\u0440\u0435\u0434\u043b\u0430\u0433\u0430\u0435\u043c \u043f\u043e\u0441\u0435\u0442\u0438\u0442\u0435\u043b\u044f\u043c \u043f\u0440\u0435\u0432\u043e\u0441\u0445\u043e\u0434\u043d\u044b\u0439 \u043a\u043e\u0444\u0435 \u0438 \u0434\u0440\u0443\u0433\u0438\u0435 \u043d\u0430\u043f\u0438\u0442\u043a\u0438, \u0447\u0442\u043e\u0431\u044b \u0441\u0434\u0435\u043b\u0430\u0442\u044c \u0438\u0445 \u0434\u0435\u043d\u044c \u043b\u0435\u0433\u043a\u0438\u043c \u0438 \u043f\u0440\u0438\u044f\u0442\u043d\u044b\u043c. \u041c\u044b \u0437\u0430\u0438\u043d\u0442\u0435\u0440\u0435\u0441\u043e\u0432\u0430\u043d\u044b \u0432 \u0440\u0430\u0441\u0448\u0438\u0440\u0435\u043d\u0438\u0438 \u043a\u0440\u0443\u0433\u043e\u0437\u043e\u0440\u0430 \u043d\u0430\u0448\u0438\u0445", "image": "https://avatars.mds.yandex.net/get-altay/5234013/2a0000017b1caed97b1e82eb4821fbe10355/XXXL", "name": "Custom coffee", "opening_hours": "Mo-Fr 08:30-23:00, Sa-Su 10:00-23:00", "phone": "+7 (8442) 98-87-22", "takeaway": "yes", "website": "https://vk.com/customcoffee"}}, {"type": "node", "id": 9748367797, "lat": 48.7073357, "lon": 44.5130374, "tags": {"addr:city": "\u0412\u043e\u043b\u0433\u043e\u0433\u0440\u0430\u0434", "addr:housenumber": "10", "addr:postcode": "400066", "addr:street": "\u0443\u043b\u0438\u0446\u0430 \u041c\u0438\u0440\u0430", "amenity": "cafe", "cuisine": "coffee_shop", "name": "Colba. coffee", "opening_hours": "Mo-Fr 08:00-21:30, Sa-Su 09:00-22:00", "phone": "+7 (969) 657-98-80", "takeaway": "yes"}}, {"type": "node", "id": 9755153321, "lat": 48.703886, "lon": 44.5500165}, {"type": "node", "id": 9755153322, "lat": 48.703818, "lon": 44.5502471}, {"type": "node", "id": 9755153323, "lat": 48.7035336, "lon": 44.5500542}, {"type": "node", "id": 9755153324, "lat": 48.7035591, "lon": 44.5499678}, {"type": "node", "id": 9755153325, "lat": 48.7036727, "lon": 44.5500448}, {"type": "node", "id": 9755153326, "lat": 48.703692, "lon": 44.5499794}, {"type": "node", "id": 9755153327, "lat": 48.7035798, "lon": 44.5499034}, {"type": "node", "id": 9755153328, "lat": 48.7036031, "lon": 44.5498247}, {"type": "node", "id": 9916996040, "lat": 48.7040024, "lon": 44.5131836, "tags": {"addr:city": "\u0412\u043e\u043b\u0433\u043e\u0433\u0440\u0430\u0434", "addr:housenumber": "2\u0410", "addr:street": "\u043f\u0440\u043e\u0441\u043f\u0435\u043a\u0442 \u041b\u0435\u043d\u0438\u043d\u0430", "amenity": "cafe", "cuisine": "coffee_shop", "name": "Zicaffe", "opening_hours": "08:30 - 21:00", "outdoor_seating": "yes", "phone": "+7\u2012905\u2012396\u201284\u201208"}}, {"type": "node", "id": 9917110525, "lat": 48.7130911, "lon": 44.5228015, "tags": {"addr:city": "\u0412\u043e\u043b\u0433\u043e\u0433\u0440\u0430\u0434", "addr:housenumber": "26", "addr:street": "\u0443\u043b\u0438\u0446\u0430 \u041c\u0438\u0440\u0430", "amenity": "cafe", "cuisine": "coffee_shop", "name": "So So Coffee", "opening_hours": "07:30 - 22:00", "outdoor_seating": "yes", "phone": "+7\u2012927\u2012511\u201270\u201204 +7 (8442) 51\u201270\u201204", "website": "https://sosocoffee.ru/"}}, {"type": "node", "id": 9917143135, "lat": 48.7127806, "lon": 44.5253113, "tags": {"addr:city": "\u0412\u043e\u043b\u0433\u043e\u0433\u0440\u0430\u0434", "addr:housenumber": "9", "addr:street": "\u0443\u043b\u0438\u0446\u0430 \u0413\u0430\u0433\u0430\u0440\u0438\u043d\u0430", "amenity": "cafe", "name": "\u0421\u0443\u0448\u0438\u0412\u0435\u0441\u043b\u0430", "opening_hours": "10:00 - 23:00", "phone": "+7-800-5503030", "website": "\u0441\u0443\u0448\u0438\u0432\u0435\u0441\u043b\u0430.\u0440\u0444"}}, {"type": "node", "id": 10092011153, "lat": 48.7044605, "lon": 44.5189414, "tags": {"addr:city": "\u0412\u043e\u043b\u0433\u043e\u0433\u0440\u0430\u0434", "addr:housenumber": "9", "addr:postcode": "400131", "addr:street": "\u0443\u043b\u0438\u0446\u0430 \u041c\u0430\u0440\u0448\u0430\u043b\u0430 \u0427\u0443\u0439\u043a\u043e\u0432\u0430", "amenity": "cafe", "cuisine": "coffee_shop", "name": "\u0414\u0436\u0430\u0441\u0442 \u043a\u043e\u0444\u0435", "opening_hours": "Mo-Su 07:00-23:00", "outdoor_seating": "yes", "phone": "+7 (927) 524-42-44"}}, {"type": "node", "id": 10092011154, "lat": 48.7042611, "lon": 44.5185724, "tags": {"addr:city": "\u0412\u043e\u043b\u0433\u043e\u0433\u0440\u0430\u0434", "addr:housenumber": "9", "addr:postcode": "400131", "addr:street": "\u0443\u043b\u0438\u0446\u0430 \u041c\u0430\u0440\u0448\u0430\u043b\u0430 \u0427\u0443\u0439\u043a\u043e\u0432\u0430", "amenity": "cafe", "cuisine": "coffee_shop", "name": "Jetlag", "opening_hours": "Mo-Su 08:00-23:00", "outdoor_seating": "yes", "phone": "+7 (902) 656-48-52"}}, {"type": "node", "id": 10142638465, "lat": 48.7094473, "lon": 44.5196023, "tags": {"addr:city": "\u0412\u043e\u043b\u0433\u043e\u0433\u0440\u0430\u0434", "addr:housenumber": "15", "addr:street": "\u043f\u0440\u043e\u0441\u043f\u0435\u043a\u0442 \u041b\u0435\u043d\u0438\u043d\u0430", "amenity": "cafe", "cuisine": "coffee_shop", "internet_access": "wlan", "name": "Ko Ko Coffee", "opening_hours": "Mo-Su 08:00-21:00", "outdoor_seating": "no", "phone": "+7 (919) 794-56-27", "website": "https://vk.com/koko_coffee"}}, {"type": "node", "id": 10142640738, "lat": 48.7096019, "lon": 44.5218901, "tags": {"addr:city": "\u0412\u043e\u043b\u0433\u043e\u0433\u0440\u0430\u0434", "addr:housenumber": "8", "addr:postcode": "400066", "addr:street": "\u041a\u043e\u043c\u0441\u043e\u043c\u043e\u043b\u044c\u0441\u043a\u0430\u044f \u0443\u043b\u0438\u0446\u0430", "amenity": "cafe", "cuisine": "coffee_shop;\u200b\u0431\u0435\u043b\u044c\u0433\u0438\u0439\u0441\u043a\u0438\u0435_\u0432\u0430\u0444\u043b\u0438;\u043f\u043e\u043a\u0435;\u043f\u043e\u043d\u0447\u0438\u043a\u0438;\u0441\u0430\u043b\u0430\u0442\u044b", "internet_access": "wlan", "name": "\u0412\u0430\u0444\u043b\u0438 \u0438 \u041a\u043e\u0444\u0435", "opening_hours": "Mo-Su 08:00-22:00", "outdoor_seating": "no", "phone": "+7\u2012988\u2012393\u201275\u201212"}}, {"type": "node", "id": 10142641460, "lat": 48.7090664, "lon": 44.5193866, "tags": {"addr:city": "\u0412\u043e\u043b\u0433\u043e\u0433\u0440\u0430\u0434", "addr:housenumber": "15", "addr:street": "\u043f\u0440\u043e\u0441\u043f\u0435\u043a\u0442 \u041b\u0435\u043d\u0438\u043d\u0430", "amenity": "cafe", "cuisine": "\u043a\u043e\u0444\u0435;\u0434\u0435\u0441\u0435\u0440\u0442\u044b", "internet_access": "no", "name": "\u041a\u043e\u0444\u0435 \u0420\u043e\u044f\u043b\u044c", "opening_hours": "Mo-Su 08:00-22:00", "outdoor_seating": "no", "phone": "+7\u2012937\u2012535\u201255\u201295"}}, {"type": "node", "id": 10142674888, "lat": 48.7105322, "lon": 44.521711, "tags": {"addr:city": "\u0412\u043e\u043b\u0433\u043e\u0433\u0440\u0430\u0434", "addr:housenumber": "10", "addr:street": "\u041a\u043e\u043c\u0441\u043e\u043c\u043e\u043b\u044c\u0441\u043a\u0430\u044f \u0443\u043b\u0438\u0446\u0430", "amenity": "cafe", "cuisine": "coffee_shop", "internet_access": "wlan", "internet_access:fee": "no", "name": "Waves", "opening_hours": "Mo-Su 07:30-22:00", "outdoor_seating": "no", "phone": "+7 (927) 064-66-26"}}, {"type": "node", "id": 10142684544, "lat": 48.7115456, "lon": 44.5220562, "tags": {"addr:city": "\u0412\u043e\u043b\u0433\u043e\u0433\u0440\u0430\u0434", "addr:housenumber": "11\u0410", "addr:street": "\u0443\u043b\u0438\u0446\u0430 \u041f\u043e\u0440\u0442-\u0421\u0430\u0438\u0434\u0430", "amenity": "cafe", "cuisine": "\u0430\u0444\u0440\u0438\u043a\u0430\u043d\u0441\u043a\u0430\u044f;\u0435\u0432\u0440\u043e\u043f\u0435\u0439\u0441\u043a\u0430\u044f;\u0430\u0432\u0442\u043e\u0440\u0441\u043a\u0430\u044f", "name": "\u0417\u0430\u043d\u0437\u0438\u0431\u0430\u0440 \u0413\u0430\u0441\u0442\u0440\u043e\u0431\u0438\u0441\u0442\u0440\u043e", "opening_hours": "Mo-Su 12:00-23:00", "outdoor_seating": "yes", "phone": "+7 (917) 338-02-38", "wheelchair": "yes"}}, {"type": "node", "id": 10142793167, "lat": 48.7000445, "lon": 44.5043221, "tags": {"addr:city": "\u0412\u043e\u043b\u0433\u043e\u0433\u0440\u0430\u0434", "addr:housenumber": "2/2", "addr:street": "\u0420\u0430\u0431\u043e\u0447\u0435-\u041a\u0440\u0435\u0441\u0442\u044c\u044f\u043d\u0441\u043a\u0430\u044f \u0443\u043b\u0438\u0446\u0430", "amenity": "cafe", "cuisine": "coffee_shop", "name": "So So Coffee Go", "opening_hours": "Mo-Su 07:00-21:30", "outdoor_seating": "no", "phone": "+7 (927) 511-70-04", "website": "https://sosocoffee.ru/", "wheelchair": "no"}}, {"type": "node", "id": 11078520789, "lat": 48.7285881, "lon": 44.5218336}, {"type": "node", "id": 11078520790, "lat": 48.7285381, "lon": 44.5219067}, {"type": "node", "id": 11078520791, "lat": 48.728477, "lon": 44.5218106}, {"type": "node", "id": 11078520792, "lat": 48.728527, "lon": 44.5217375}, {"type": "node", "id": 11078553276, "lat": 48.7122335, "lon": 44.5085804, "tags": {"amenity": "cafe", "cuisine": "dessert;coffee_shop", "level": "0", "name": "Lis Boris", "opening_hours": "Mo-Su 08:00-22:00", "outdoor_seating": "no", "phone": "+7 (8442) 50\u201275\u201257", "takeaway": "yes", "toilets": "yes", "website": "https://lisboris.eater.ru/"}}, {"type": "node", "id": 11082655059, "lat": 48.7114669, "lon": 44.530086, "tags": {"addr:city": "\u0412\u043e\u043b\u0433\u043e\u0433\u0440\u0430\u0434", "addr:housenumber": "37", "addr:postcode": "400131", "addr:street": "\u0443\u043b\u0438\u0446\u0430 \u0427\u0443\u0439\u043a\u043e\u0432\u0430", "amenity": "cafe", "cuisine": "pankcake", "name": "\u0411\u043b\u0438\u043d\u0411\u0435\u0440\u0438", "opening_hours": "Mo-Su 07:30-23:00", "outdoor_seating": "yes", "website": "https://\u0431\u043b\u0438\u043d\u0431\u0435\u0440\u0438.\u0440\u0444"}}, {"type": "node", "id": 11083186485, "lat": 48.7152435, "lon": 44.5121591, "tags": {"addr:city": "\u0412\u043e\u043b\u0433\u043e\u0433\u0440\u0430\u0434", "addr:housenumber": "2", "addr:postcode": "400087", "addr:street": "\u041d\u0435\u0432\u0441\u043a\u0430\u044f \u0443\u043b\u0438\u0446\u0430", "amenity": "cafe", "cuisine": "pizza;chicken", "name": "\u0420\u0443\u0441\u0442\u0435\u0440\u0441", "opening_hours": "Mo-Su 10:30-23:00", "phone": "8 (800) 100-77-20", "website": "https://roosters-pizza.ru"}}, {"type": "node", "id": 11085234754, "lat": 48.7244472, "lon": 44.5261819}, {"type": "node", "id": 11085234755, "lat": 48.7244266, "lon": 44.5262873}, {"type": "node", "id": 11085234756, "lat": 48.7243556, "lon": 44.5264013}, {"type": "node", "id": 11085234757, "lat": 48.7242871, "lon": 44.5263032}, {"type": "node", "id": 11085234758, "lat": 48.7243219, "lon": 44.5261255}, {"type": "node", "id": 11096745143, "lat": 48.7052559, "lon": 44.5232437}, {"type": "node", "id": 11096745144, "lat": 48.7052335, "lon": 44.523206}, {"type": "node", "id": 11107480373, "lat": 48.7061664, "lon": 44.5193327, "tags": {"addr:city": "\u0412\u043e\u043b\u0433\u043e\u0433\u0440\u0430\u0434", "addr:housenumber": "4", "addr:postcode": "400131", "addr:street": "\u0443\u043b\u0438\u0446\u0430 \u0410\u043b\u043b\u0435\u044f \u0413\u0435\u0440\u043e\u0435\u0432", "amenity": "cafe", "cuisine": "asian;japanese;chinese;vietnamese", "name": "True Asia", "opening_hours": "Mo-Su 12:00-24:00", "outdoor_seating": "no", "phone": "+7 (8442) 22-01-11", "website": "http://trueasia.rest"}}, {"type": "node", "id": 11107785923, "lat": 48.7061059, "lon": 44.519685, "tags": {"addr:city": "\u0412\u043e\u043b\u0433\u043e\u0433\u0440\u0430\u0434", "addr:housenumber": "15", "addr:postcode": "400131", "addr:street": "\u0421\u043e\u0432\u0435\u0442\u0441\u043a\u0430\u044f \u0443\u043b\u0438\u0446\u0430", "amenity": "cafe", "name": "Rebra Bar", "opening_hours": "Mo-Su 12:00-24:00", "phone": "+7 (8442) 43-55-52", "website": "https://vk.com/rebra_bar"}}, {"type": "node", "id": 11109011394, "lat": 48.7072196, "lon": 44.5179909, "tags": {"amenity": "cafe", "cuisine": "coffee_shop", "name": "\u041a\u0430\u0440\u0434\u0430\u043c\u043e\u043d\u044a", "opening_hours": "Mo-Su 10:00-22:00"}}, {"type": "node", "id": 11397344754, "lat": 48.7103462, "lon": 44.5142941, "tags": {"addr:city": "\u0412\u043e\u043b\u0433\u043e\u0433\u0440\u0430\u0434", "addr:housenumber": "5", "addr:postcode": "400066", "addr:street": "\u0443\u043b\u0438\u0446\u0430 \u0413\u043e\u0433\u043e\u043b\u044f", "amenity": "cafe", "cuisine": "coffee_shop", "name": "\u041a\u043e\u0444\u0435 \u0421\u043c\u0430\u0439\u043b", "opening_hours": "Mo-Su 09:00-21:00", "phone": "+7 (995) 143-44-95"}}, {"type": "node", "id": 11633754593, "lat": 48.7080082, "lon": 44.5193184, "tags": {"amenity": "cafe", "name": "\u041a\u0430\u043f\u0443\u0447\u0438\u043d\u043e"}}, {"type": "node", "id": 11828933892, "lat": 48.717705, "lon": 44.5133306, "tags": {"amenity": "cafe", "name": "\u041a\u0430\u0448\u0442\u0430\u043d"}}, {"type": "node", "id": 11883178669, "lat": 48.7122781, "lon": 44.5276922, "tags": {"amenity": "cafe", "name": "\u0421\u0442\u043e\u043b\u043e\u0432\u0430\u044f"}}, {"type": "node", "id": 11883193669, "lat": 48.7128213, "lon": 44.5174049, "tags": {"amenity": "cafe", "name": "\u0421\u0442\u043e\u043b\u043e\u0432\u0430\u044f"}}, {"type": "node", "id": 11891650569, "lat": 48.7109934, "lon": 44.5241464, "tags": {"amenity": "cafe", "name": "\u0412\u0438\u043b\u043a\u0430 \u0438 \u041b\u043e\u0436\u043a\u0430"}}, {"type": "node", "id": 11891667069, "lat": 48.7109934, "lon": 44.5241464, "tags": {"amenity": "cafe", "name": "\u0412\u0438\u043b\u043a\u0430-\u041b\u043e\u0436\u043a\u0430"}}, {"type": "way", "id": 116244783, "nodes": [1311129696, 1311129681, 1311129712, 1311129671, 1311129696], "tags": {"addr:housenumber": "15\u0413", "addr:street": "\u0410\u043d\u0433\u0430\u0440\u0441\u043a\u0430\u044f \u0443\u043b\u0438\u0446\u0430", "amenity": "cafe", "building": "yes", "name": "\u0413\u041e\u0421\u0422"}}, {"type": "way", "id": 124298353, "nodes": [1383903431, 1383903478, 11096745143, 11096745144, 1383903418, 1383903452, 5595943865, 1383903431], "tags": {"addr:city": "\u0412\u043e\u043b\u0433\u043e\u0433\u0440\u0430\u0434", "addr:housenumber": "5\u0411", "addr:postcode": "400066", "addr:street": "\u043d\u0430\u0431\u0435\u0440\u0435\u0436\u043d\u0430\u044f 62-\u0439 \u0410\u0440\u043c\u0438\u0438", "amenity": "cafe", "building": "yes", "cuisine": "italian;russian;\u0435\u0432\u0440\u043e\u043f\u0435\u0439\u0441\u043a\u0430\u044f", "internet_access": "wlan", "name": "\u0413\u0430\u0440\u043d\u0438", "opening_hours": "Su-Th 12:00-23:00; Fr-Sa 12:00-00:00", "outdoor_seating": "yes", "phone": "+7 (906) 174-22-22", "roof:colour": "red", "roof:shape": "gabled", "website": "onegincafe.inmykitchen.ru"}}, {"type": "way", "id": 125913198, "nodes": [1397174262, 1397174252, 1397174240, 1397174226, 1397174262], "tags": {"addr:country": "RU", "addr:postcode": "400066", "amenity": "cafe", "building": "yes", "building:levels": "1"}}, {"type": "way", "id": 126054645, "nodes": [1398438308, 1398438271, 1398438340, 1398438292, 1398438324, 1398438332, 1398438325, 1398438326, 1398438272, 1398438350, 1398438354, 1398438369, 1398438308], "tags": {"addr:housenumber": "3", "addr:postcode": "400066", "addr:street": "\u043d\u0430\u0431\u0435\u0440\u0435\u0436\u043d\u0430\u044f 62-\u0439 \u0410\u0440\u043c\u0438\u0438", "amenity": "cafe", "building": "yes", "building:levels": "1", "name": "\u041c\u044d\u0440\u0438\u0442\u0430\u0436", "opening_hours": "Mo-Su 12:00-23:00"}}, {"type": "way", "id": 152024724, "nodes": [1648563780, 1648563800, 1648563786, 1648563802, 1648563797, 1648563795, 1648563779, 1648563784, 1648563780], "tags": {"addr:city": "\u0412\u043e\u043b\u0433\u043e\u0433\u0440\u0430\u0434", "addr:housenumber": "8\u041a", "addr:postcode": "400066", "addr:street": "\u041a\u043e\u043c\u043c\u0443\u043d\u0438\u0441\u0442\u0438\u0447\u0435\u0441\u043a\u0430\u044f \u0443\u043b\u0438\u0446\u0430", "amenity": "cafe", "building": "yes", "building:levels": "1", "cuisine": "russian;\u0448\u0430\u0448\u043b\u044b\u043a", "delivery": "yes", "name": "\u0428\u0430\u043c\u043f\u0443\u0440", "name:en": "Shampur (Skewer)", "opening_hours": "Mo-Sa 09:00-23:00", "outdoor_seating": "yes", "phone": "+7 8442 98-98-94", "roof:shape": "flat", "takeaway": "yes", "website": "https://shampur34.ru/"}}, {"type": "way", "id": 152024726, "nodes": [1648563770, 1648563785, 1648563793, 1648563782, 1648563770], "tags": {"addr:city": "\u0412\u043e\u043b\u0433\u043e\u0433\u0440\u0430\u0434", "addr:country": "RU", "addr:housenumber": "8\u041a/1", "addr:postcode": "400066", "addr:street": "\u041a\u043e\u043c\u043c\u0443\u043d\u0438\u0441\u0442\u0438\u0447\u0435\u0441\u043a\u0430\u044f \u0443\u043b\u0438\u0446\u0430", "amenity": "cafe", "building": "yes", "cuisine": "italian;russian", "name": "Veranda", "opening_hours": "Mo-Su 12:00-23:00", "phone": "+7 8442 98-98-94 ext. 2"}}, {"type": "way", "id": 152201268, "nodes": [1650359372, 1650359466, 1650359370, 1650359277, 1650359372], "tags": {"addr:city": "\u0412\u043e\u043b\u0433\u043e\u0433\u0440\u0430\u0434", "addr:housenumber": "61", "addr:street": "\u043f\u0440\u043e\u0441\u043f\u0435\u043a\u0442 \u0438\u043c. \u0412.\u0418. \u041b\u0435\u043d\u0438\u043d\u0430", "amenity": "cafe", "building": "yes", "name": "\u0410\u0440\u0438100\u043a\u0440\u0430\u0442"}}, {"type": "way", "id": 168428196, "nodes": [1796937774, 1798283005, 1798283118, 1796937778, 1796937767, 1796937775, 1796937774], "tags": {"addr:country": "RU", "addr:housenumber": "87", "addr:street": "\u0443\u043b\u0438\u0446\u0430 \u0420\u043e\u043a\u043e\u0441\u0441\u043e\u0432\u0441\u043a\u043e\u0433\u043e", "amenity": "cafe", "building": "yes", "building:levels": "1", "contact:phone": "+7 844 2500008;+7 927 5380008", "contact:website": "https://pirat.bar", "name": "\u041f\u0438\u0440\u0430\u0442\u0441\u043a\u0430\u044f \u0431\u0443\u0445\u0442\u0430", "opening_hours": "Fr-Sa 12:00-05:00; Mo-Th,Su 12:00-02:00"}}, {"type": "way", "id": 168587385, "nodes": [1798276806, 1798276753, 1798276735, 1798283095, 1798276725, 1798276806], "tags": {"addr:city": "\u0412\u043e\u043b\u0433\u043e\u0433\u0440\u0430\u0434", "addr:country": "RU", "addr:housenumber": "48\u0411", "addr:postcode": "400050", "addr:street": "\u0443\u043b\u0438\u0446\u0430 \u0420\u043e\u043a\u043e\u0441\u0441\u043e\u0432\u0441\u043a\u043e\u0433\u043e", "amenity": "cafe", "building": "yes", "name": "\u041f\u0435\u0440\u0441\u043e\u043d\u0430\u0436\u0438"}}, {"type": "way", "id": 205121655, "nodes": [2150915485, 2150915524, 2150915489, 2150915487, 2150915485], "tags": {"amenity": "cafe", "building": "yes", "name": "\u0411\u0438\u0441\u0442\u0440\u043e"}}, {"type": "way", "id": 315291523, "nodes": [3214023775, 3214023776, 3214023774, 3214023773, 3214023775], "tags": {"addr:housenumber": "117", "addr:street": "\u043f\u0440\u043e\u0441\u043f\u0435\u043a\u0442 \u041c\u0430\u0440\u0448\u0430\u043b\u0430 \u0416\u0443\u043a\u043e\u0432\u0430", "amenity": "cafe", "building": "yes", "name": "\u041a\u0430\u043f\u0443\u0447\u0438\u043d\u043e", "opening_hours": "12:00-24:00", "roof:colour": "8f8b8c", "website": "https://capucino.ru/"}}, {"type": "way", "id": 351841425, "nodes": [3576441352, 6867953400, 6867953399, 6867953398, 6867953397, 3576441353, 3576441354, 3576441355, 6867953396, 6867953403, 6867953404, 6867953402, 6867953401, 3576441352], "tags": {"addr:housenumber": "38\u0410/1", "addr:street": "\u0420\u0430\u0431\u043e\u0447\u0435-\u041a\u0440\u0435\u0441\u0442\u044c\u044f\u043d\u0441\u043a\u0430\u044f \u0443\u043b\u0438\u0446\u0430", "amenity": "cafe", "building": "yes", "roof:colour": "red"}}, {"type": "way", "id": 353236606, "nodes": [3590142562, 3590142560, 3590142561, 3590142563, 3590142562], "tags": {"addr:country": "RU", "addr:housenumber": "49\u0411", "addr:street": "\u043f\u0440\u043e\u0441\u043f\u0435\u043a\u0442 \u041b\u0435\u043d\u0438\u043d\u0430", "amenity": "cafe", "building": "yes", "cuisine": "georgian", "internet_access": "wlan", "name": "\u0427\u0438\u0442\u043e \u0413\u0432\u0440\u0438\u0442\u043e", "opening_hours": "Mo-Su 11:00-23:00", "phone": "+7 (8442) 50-50-57", "website": "https://chitogvrito.cafe/"}}, {"type": "way", "id": 382295096, "nodes": [3854884956, 3854884954, 3854884953, 3854884955, 3854884956], "tags": {"addr:country": "RU", "addr:housenumber": "14\u0411", "addr:street": "\u0443\u043b\u0438\u0446\u0430 \u0422\u043a\u0430\u0447\u0451\u0432\u0430", "amenity": "cafe", "building": "yes", "building:levels": "1", "name": "\u042f\u043d\u0442\u0430\u0440\u044c"}}, {"type": "way", "id": 447222493, "nodes": [4443962533, 4443962534, 4443962535, 4443962536, 4443962537, 4443962538, 4443962533], "tags": {"addr:city": "\u0412\u043e\u043b\u0433\u043e\u0433\u0440\u0430\u0434", "addr:housenumber": "8\u0410", "addr:postcode": "400107", "addr:street": "\u0420\u0438\u043e\u043d\u0441\u043a\u0430\u044f \u0443\u043b\u0438\u0446\u0430", "amenity": "cafe", "building": "yes", "roof:colour": "8f8b8c"}}, {"type": "way", "id": 696019191, "nodes": [6535718937, 6535718938, 6535718939, 6535718940, 6535718937], "tags": {"addr:housenumber": "34\u0411", "addr:street": "\u043f\u0440\u043e\u0441\u043f\u0435\u043a\u0442 \u041b\u0435\u043d\u0438\u043d\u0430", "amenity": "cafe", "building": "yes", "name": "\u0411\u043b\u0438\u043d\u0411\u0435\u0440\u0440\u0438", "opening_hours": "Mo-Su 08:00-00:00", "phone": "+7-800-5502220", "website": "http://\u0431\u043b\u0438\u043d\u0431\u0435\u0440\u0438.\u0440\u0444"}}, {"type": "way", "id": 769449934, "nodes": [7182383887, 7182383888, 7182383889, 7182383890, 7182383891, 7182383892, 7182383893, 7182383894, 7182383887], "tags": {"addr:postcode": "400066", "amenity": "cafe", "building": "yes"}}, {"type": "way", "id": 780487882, "nodes": [7288071744, 7288071745, 7288071746, 7288071743, 7288071744], "tags": {"addr:city": "\u0412\u043e\u043b\u0433\u043e\u0433\u0440\u0430\u0434", "addr:housenumber": "1", "addr:street": "\u0410\u043a\u0430\u0434\u0435\u043c\u0438\u0447\u0435\u0441\u043a\u0430\u044f \u0443\u043b\u0438\u0446\u0430", "amenity": "cafe", "building": "yes", "cuisine": "regional", "ele": "2", "name": "\u0421\u0442\u043e\u043b\u043e\u0432\u0430\u044f \u0418\u0410\u0438\u0421 \u0412\u043e\u043b\u0433\u0413\u0422\u0423", "outdoor_seating": "no"}}, {"type": "way", "id": 1061809889, "nodes": [9755153321, 9755153322, 9755153323, 9755153324, 9755153325, 9755153326, 9755153327, 9755153328, 9755153321], "tags": {"amenity": "cafe", "building": "yes", "cuisine": "regional", "name": "\u0412\u043e\u043b\u0436\u0430\u043d\u043a\u0430"}}, {"type": "way", "id": 1193528487, "nodes": [11078520789, 11078520790, 11078520791, 11078520792, 11078520789], "tags": {"addr:city": "\u0412\u043e\u043b\u0433\u043e\u0433\u0440\u0430\u0434", "addr:housenumber": "18/1", "addr:postcode": "400050", "addr:street": "\u0443\u043b\u0438\u0446\u0430 \u0425\u0438\u0440\u043e\u0441\u0438\u043c\u044b", "amenity": "cafe", "building": "yes", "name": "\u0411\u043b\u0438\u043d\u0411\u0435\u0440\u0438", "opening_hours": "Mo-Su 08:00-24:00"}}, {"type": "way", "id": 1194219949, "nodes": [11085234754, 11085234755, 11085234756, 11085234757, 11085234758, 11085234754], "tags": {"addr:city": "\u0412\u043e\u043b\u0433\u043e\u0433\u0440\u0430\u0434", "addr:housenumber": "63\u0410", "addr:postcode": "400050", "addr:street": "\u0443\u043b\u0438\u0446\u0430 \u041f\u0430\u0440\u0445\u043e\u043c\u0435\u043d\u043a\u043e", "amenity": "cafe", "building": "yes", "cuisine": "chinese;asian", "name": "\u0417\u043e\u043b\u043e\u0442\u043e\u0439 \u0434\u0440\u0430\u043a\u043e\u043d", "opening_hours": "Mo-Su 12:00-24:00", "phone": "+7 (8442) 25-10-00", "website": "https://drakon34.ru/"}}]}