{"version": 0.6, "generator": "Overpass API 0.7.62.1 084b4234", "osm3s": {"timestamp_osm_base": "2024-04-22T13:35:33Z", "copyright": "The data included in this document is from www.openstreetmap.org. The data is made available under ODbL."}, "elements": [{"type": "node", "id": 1397147004, "lat": 48.703826, "lon": 44.5148194}, {"type": "node", "id": 1397147009, "lat": 48.7038812, "lon": 44.5148492}, {"type": "node", "id": 1397147017, "lat": 48.7037658, "lon": 44.5149412}, {"type": "node", "id": 1397147021, "lat": 48.7036361, "lon": 44.5147296, "tags": {"entrance": "yes"}}, {"type": "node", "id": 1397147023, "lat": 48.7035094, "lon": 44.5144831}, {"type": "node", "id": 1397147031, "lat": 48.7034705, "lon": 44.514462}, {"type": "node", "id": 1397147038, "lat": 48.7035755, "lon": 44.5144146}, {"type": "node", "id": 1397147045, "lat": 48.7038456, "lon": 44.5147917}, {"type": "node", "id": 1397147046, "lat": 48.7035603, "lon": 44.5143344}, {"type": "node", "id": 1397147055, "lat": 48.7037895, "lon": 44.5149793}, {"type": "node", "id": 1397147059, "lat": 48.7036976, "lon": 44.5146452}, {"type": "node", "id": 1397147062, "lat": 48.7037802, "lon": 44.5149206}, {"type": "node", "id": 1397147066, "lat": 48.7034957, "lon": 44.5145027}, {"type": "node", "id": 1397147071, "lat": 48.7035938, "lon": 44.5143886}, {"type": "node", "id": 1398438271, "lat": 48.7030396, "lon": 44.5184711}, {"type": "node", "id": 1398438272, "lat": 48.7031405, "lon": 44.5187098}, {"type": "node", "id": 1398438292, "lat": 48.7030077, "lon": 44.5185113}, {"type": "node", "id": 1398438308, "lat": 48.7031121, "lon": 44.5182994}, {"type": "node", "id": 1398438324, "lat": 48.7030024, "lon": 44.5185408}, {"type": "node", "id": 1398438325, "lat": 48.7030289, "lon": 44.5185891}, {"type": "node", "id": 1398438326, "lat": 48.7030467, "lon": 44.5185972}, {"type": "node", "id": 1398438332, "lat": 48.7030112, "lon": 44.518573}, {"type": "node", "id": 1398438340, "lat": 48.7030204, "lon": 44.5184836}, {"type": "node", "id": 1398438350, "lat": 48.7032484, "lon": 44.5184818}, {"type": "node", "id": 1398438354, "lat": 48.7031493, "lon": 44.5183799}, {"type": "node", "id": 1398438369, "lat": 48.7031653, "lon": 44.518345}, {"type": "node", "id": 1409435087, "lat": 48.7031222, "lon": 44.5137392, "tags": {"amenity": "restaurant", "name": "\u0428\u0432\u0435\u0439\u043a"}}, {"type": "node", "id": 1645776072, "lat": 48.7000912, "lon": 44.5152978}, {"type": "node", "id": 1645776087, "lat": 48.7002366, "lon": 44.5155766}, {"type": "node", "id": 1645776089, "lat": 48.7002509, "lon": 44.5153308, "tags": {"amenity": "restaurant", "name": "\u041c\u0430\u044f\u043a"}}, {"type": "node", "id": 1645776102, "lat": 48.7003931, "lon": 44.5154179}, {"type": "node", "id": 1645776109, "lat": 48.7003657, "lon": 44.5154812}, {"type": "node", "id": 1645776147, "lat": 48.7002653, "lon": 44.5156771}, {"type": "node", "id": 1645776153, "lat": 48.7001158, "lon": 44.5154493}, {"type": "node", "id": 1645776162, "lat": 48.7001733, "lon": 44.5151088}, {"type": "node", "id": 1645776164, "lat": 48.700094, "lon": 44.5153692}, {"type": "node", "id": 1645776178, "lat": 48.7001449, "lon": 44.5151386}, {"type": "node", "id": 1645776189, "lat": 48.7002967, "lon": 44.5156656}, {"type": "node", "id": 1645776191, "lat": 48.7003474, "lon": 44.5151319}, {"type": "node", "id": 1645776193, "lat": 48.7002101, "lon": 44.515087}, {"type": "node", "id": 1645776206, "lat": 48.7001991, "lon": 44.5155472}, {"type": "node", "id": 1645776218, "lat": 48.7001026, "lon": 44.5152278}, {"type": "node", "id": 1645776221, "lat": 48.7003185, "lon": 44.5151042}, {"type": "node", "id": 1645776228, "lat": 48.7002936, "lon": 44.5150895}, {"type": "node", "id": 1645776230, "lat": 48.7002316, "lon": 44.5156796}, {"type": "node", "id": 1645776237, "lat": 48.7001202, "lon": 44.5151798}, {"type": "node", "id": 1645776252, "lat": 48.7002567, "lon": 44.51508}, {"type": "node", "id": 1645776260, "lat": 48.7003256, "lon": 44.5155291}, {"type": "node", "id": 1645776267, "lat": 48.7003642, "lon": 44.5156185}, {"type": "node", "id": 1645776281, "lat": 48.7003298, "lon": 44.5156484}, {"type": "node", "id": 1645776293, "lat": 48.700147, "lon": 44.5155031}, {"type": "node", "id": 1645776318, "lat": 48.7003818, "lon": 44.5151894}, {"type": "node", "id": 1645776327, "lat": 48.7004064, "lon": 44.5153409}, {"type": "node", "id": 1645776331, "lat": 48.7004011, "lon": 44.515254}, {"type": "node", "id": 3126225374, "lat": 48.7036648, "lon": 44.5158708, "tags": {"amenity": "cafe", "cuisine": "breakfast;pancake;ice_cream;crepe;chicken;tea;coffee_shop", "entrance": "yes", "name": "\u0411\u043b\u0438\u043d \u041a\u043b\u0443\u0431", "opening_hours": "Su-Th 10:00-23:00; Fr-Sa 10:00-00:00", "phone": "+7-8442-380505"}}, {"type": "node", "id": 3273665314, "lat": 48.7039811, "lon": 44.5101676, "tags": {"amenity": "cafe", "name": "\u0424\u0440\u0430\u043d\u0442\u042d\u043b\u044c"}}, {"type": "node", "id": 6351132623, "lat": 48.7023869, "lon": 44.5116286}, {"type": "node", "id": 6351132624, "lat": 48.7026273, "lon": 44.5120954}, {"type": "node", "id": 6351132625, "lat": 48.702649, "lon": 44.5120697}, {"type": "node", "id": 6351132626, "lat": 48.702684, "lon": 44.5121376}, {"type": "node", "id": 6351132627, "lat": 48.7027269, "lon": 44.512162}, {"type": "node", "id": 6351132628, "lat": 48.7027591, "lon": 44.512162}, {"type": "node", "id": 6351132630, "lat": 48.7031053, "lon": 44.5117148}, {"type": "node", "id": 6351132632, "lat": 48.7031428, "lon": 44.5115766}, {"type": "node", "id": 6351132634, "lat": 48.7031267, "lon": 44.5114424}, {"type": "node", "id": 6351132637, "lat": 48.7029121, "lon": 44.5110237}, {"type": "node", "id": 6351132638, "lat": 48.7028665, "lon": 44.5109993}, {"type": "node", "id": 6351132639, "lat": 48.7028289, "lon": 44.5110196}, {"type": "node", "id": 6351132641, "lat": 48.7026854, "lon": 44.5111672}, {"type": "node", "id": 6351132642, "lat": 48.7026638, "lon": 44.511119}, {"type": "node", "id": 6351132644, "lat": 48.7027565, "lon": 44.5110237}, {"type": "node", "id": 6351132645, "lat": 48.7027645, "lon": 44.5109749}, {"type": "node", "id": 6351132646, "lat": 48.7027591, "lon": 44.5109139}, {"type": "node", "id": 6351132647, "lat": 48.702743, "lon": 44.510857}, {"type": "node", "id": 6351132649, "lat": 48.7025638, "lon": 44.5104973}, {"type": "node", "id": 6351132650, "lat": 48.7017049, "lon": 44.5114794}, {"type": "node", "id": 6351132651, "lat": 48.7018417, "lon": 44.5117541}, {"type": "node", "id": 6351132653, "lat": 48.7019118, "lon": 44.5118252}, {"type": "node", "id": 6351132654, "lat": 48.701955, "lon": 44.5118394}, {"type": "node", "id": 6351132655, "lat": 48.7020179, "lon": 44.5118217}, {"type": "node", "id": 6351132656, "lat": 48.7020693, "lon": 44.5117863}, {"type": "node", "id": 6351132657, "lat": 48.7023171, "lon": 44.5114932}, {"type": "node", "id": 6541857785, "lat": 48.7030591, "lon": 44.5159618, "tags": {"amenity": "cafe", "diet:vegan": "yes", "name": "AngelCakes", "opening_hours": "Mo-Su 09:00-21:00", "phone": "+79197971010", "website": "http://angelcakes.ru"}}, {"type": "node", "id": 6708189697, "lat": 48.7003975, "lon": 44.518794, "tags": {"amenity": "restaurant", "brand": "\u042f\u043a\u0438\u0442\u043e\u0440\u0438\u044f", "brand:wikidata": "Q66088063", "cuisine": "japanese;international", "name": "\u042f\u043a\u0438\u0442\u043e\u0440\u0438\u044f", "name:en": "Yakitoria", "opening_hours": "Su-Th 11:00-00:00; Fr-Sa 11:00-02:00", "phone": "+79178494103"}}, {"type": "node", "id": 6828199924, "lat": 48.7035172, "lon": 44.5121156, "tags": {"amenity": "cafe", "name": "\u0411\u043b\u0438\u043d \u0431\u0435\u0440\u0440\u0438", "opening_hours": "Mo-Su 08:00-22:00"}}, {"type": "node", "id": 7210803099, "lat": 48.6978051, "lon": 44.5108584, "tags": {"amenity": "cafe", "name": "\u0418\u041f \u041a\u0438\u0447\u043a\u0438\u043d \u0410\u043d\u0434\u0440\u0435\u0439 \u0410\u043d\u0434\u0440\u0435\u0435\u0432\u0438\u0447 (\u041a\u0430\u043b\u044c\u044f\u043d-\u0431\u0430\u0440)\"\u041c\u044f\u0442\u0430\""}}, {"type": "node", "id": 7775443984, "lat": 48.7038226, "lon": 44.5149323, "tags": {"entrance": "yes"}}, {"type": "node", "id": 8808621730, "lat": 48.7010202, "lon": 44.5191446, "tags": {"addr:city": "\u0412\u043e\u043b\u0433\u043e\u0433\u0440\u0430\u0434", "addr:housenumber": "6", "addr:postcode": "400066", "addr:street": "\u043d\u0430\u0431\u0435\u0440\u0435\u0436\u043d\u0430\u044f 62-\u0439 \u0410\u0440\u043c\u0438\u0438", "amenity": "cafe", "cuisine": "coffee_shop;italian;international;pizza;sandwich", "level": "5", "name": "Organza", "name:en": "Organza", "opening_hours": "Mo-Su 08:30-23:00", "phone": "+7 (844) 222-20-02", "website": "https://organzacafe.ru"}}, {"type": "node", "id": 9690501017, "lat": 48.7008599, "lon": 44.519233, "tags": {"addr:city": "\u0412\u043e\u043b\u0433\u043e\u0433\u0440\u0430\u0434", "addr:housenumber": "6", "addr:postcode": "400066", "addr:street": "\u043d\u0430\u0431\u0435\u0440\u0435\u0436\u043d\u0430\u044f 62-\u0439 \u0410\u0440\u043c\u0438\u0438", "amenity": "restaurant", "cuisine": "georgian;regional;seafood", "image": "https://avatars.mds.yandex.net/get-altay/4547379/2a000001798a0254f4f5fa4199722cbe3acf/XXXL", "level": "5", "name": "\u0420\u0435\u043a\u0430", "opening_hours": "Mo-Su 12:00-00:00", "phone": "+78442222020", "website": "https://rekarest.ru/"}}, {"type": "node", "id": 9792728168, "lat": 48.7007603, "lon": 44.5193781, "tags": {"addr:city": "\u0412\u043e\u043b\u0433\u043e\u0433\u0440\u0430\u0434", "addr:housenumber": "6", "addr:postcode": "400066", "addr:street": "\u043d\u0430\u0431\u0435\u0440\u0435\u0436\u043d\u0430\u044f 62-\u0439 \u0410\u0440\u043c\u0438\u0438", "amenity": "restaurant", "cuisine": "georgian", "delivery": "yes", "name": "\u041f\u0435\u0440\u0441\u043e\u043d\u0430\u0436\u0438", "opening_hours": "Mo-Su 11:08-24:00", "phone": "+7(8442)60-02-57", "takeaway": "yes", "website": "https://personazhi.rest"}}, {"type": "node", "id": 9916996040, "lat": 48.7040024, "lon": 44.5131836, "tags": {"addr:city": "\u0412\u043e\u043b\u0433\u043e\u0433\u0440\u0430\u0434", "addr:housenumber": "2\u0410", "addr:street": "\u043f\u0440\u043e\u0441\u043f\u0435\u043a\u0442 \u041b\u0435\u043d\u0438\u043d\u0430", "amenity": "cafe", "cuisine": "coffee_shop", "name": "Zicaffe", "opening_hours": "08:30 - 21:00", "outdoor_seating": "yes", "phone": "+7\u2012905\u2012396\u201284\u201208"}}, {"type": "node", "id": 10092011153, "lat": 48.7044605, "lon": 44.5189414, "tags": {"addr:city": "\u0412\u043e\u043b\u0433\u043e\u0433\u0440\u0430\u0434", "addr:housenumber": "9", "addr:postcode": "400131", "addr:street": "\u0443\u043b\u0438\u0446\u0430 \u041c\u0430\u0440\u0448\u0430\u043b\u0430 \u0427\u0443\u0439\u043a\u043e\u0432\u0430", "amenity": "cafe", "cuisine": "coffee_shop", "name": "\u0414\u0436\u0430\u0441\u0442 \u043a\u043e\u0444\u0435", "opening_hours": "Mo-Su 07:00-23:00", "outdoor_seating": "yes", "phone": "+7 (927) 524-42-44"}}, {"type": "node", "id": 10092011154, "lat": 48.7042611, "lon": 44.5185724, "tags": {"addr:city": "\u0412\u043e\u043b\u0433\u043e\u0433\u0440\u0430\u0434", "addr:housenumber": "9", "addr:postcode": "400131", "addr:street": "\u0443\u043b\u0438\u0446\u0430 \u041c\u0430\u0440\u0448\u0430\u043b\u0430 \u0427\u0443\u0439\u043a\u043e\u0432\u0430", "amenity": "cafe", "cuisine": "coffee_shop", "name": "Jetlag", "opening_hours": "Mo-Su 08:00-23:00", "outdoor_seating": "yes", "phone": "+7 (902) 656-48-52"}}, {"type": "way", "id": 125910237, "nodes": [1397147046, 1397147071, 1397147038, 1397147059, 1397147004, 1397147045, 1397147009, 7775443984, 1397147055, 1397147017, 1397147062, 1397147021, 1397147023, 1397147066, 1397147031, 1397147046], "tags": {"addr:country": "RU", "addr:housenumber": "5", "addr:postcode": "400131", "addr:street": "\u0421\u043e\u0432\u0435\u0442\u0441\u043a\u0430\u044f \u0443\u043b\u0438\u0446\u0430", "building": "yes", "building:colour": "beige", "building:levels": "15", "fire_operator": "RU-VGG-1-3", "fire_rank": "2", "name": "\u0413\u043e\u0441\u0442\u0438\u043d\u0438\u0446\u0430 \u041e\u0431\u043b\u0441\u043e\u0432\u043f\u0440\u043e\u0444\u0430", "roof:colour": "grey", "tourism": "hotel"}}, {"type": "way", "id": 126054645, "nodes": [1398438308, 1398438271, 1398438340, 1398438292, 1398438324, 1398438332, 1398438325, 1398438326, 1398438272, 1398438350, 1398438354, 1398438369, 1398438308], "tags": {"addr:housenumber": "3", "addr:postcode": "400066", "addr:street": "\u043d\u0430\u0431\u0435\u0440\u0435\u0436\u043d\u0430\u044f 62-\u0439 \u0410\u0440\u043c\u0438\u0438", "amenity": "cafe", "building": "yes", "building:levels": "1", "name": "\u041c\u044d\u0440\u0438\u0442\u0430\u0436", "opening_hours": "Mo-Su 12:00-23:00"}}, {"type": "way", "id": 678283838, "nodes": [6351132624, 6351132625, 6351132626, 6351132627, 6351132628, 6351132630, 6351132632, 6351132634, 6351132637, 6351132638, 6351132639, 6351132641, 6351132642, 6351132644, 6351132645, 6351132646, 6351132647, 6351132649, 6351132650, 6351132651, 6351132653, 6351132654, 6351132655, 6351132656, 6351132657, 6351132623, 6351132624], "tags": {"addr:housenumber": "5\u0410", "addr:street": "\u041a\u0440\u0430\u0441\u043d\u043e\u0437\u043d\u0430\u043c\u0435\u043d\u0441\u043a\u0430\u044f \u0443\u043b\u0438\u0446\u0430", "building": "hotel", "check_date": "2021-09-11", "height": "12", "name": "ID Tower", "roof:colour": "grey"}}, {"type": "way", "id": 844069348, "nodes": [1645776162, 1645776193, 1645776252, 1645776228, 1645776221, 1645776191, 1645776318, 1645776331, 1645776327, 1645776102, 1645776109, 1645776260, 1645776267, 1645776281, 1645776189, 1645776147, 1645776230, 1645776087, 1645776206, 1645776293, 1645776153, 1645776164, 1645776072, 1645776218, 1645776237, 1645776178, 1645776162], "tags": {"addr:housenumber": "1\u0410", "addr:postcode": "400066", "addr:street": "\u043d\u0430\u0431\u0435\u0440\u0435\u0436\u043d\u0430\u044f 62-\u0439 \u0410\u0440\u043c\u0438\u0438", "amenity": "restaurant", "architect": "\u0415\u0444\u0438\u043c \u0418\u043e\u0441\u0438\u0444\u043e\u0432\u0438\u0447 \u041b\u0435\u0432\u0438\u0442\u0430\u043d", "building": "yes", "name": "\u041c\u0430\u044f\u043a", "start_date": "1955", "website": "restoran-mayak.ru", "wikidata": "Q53803959", "wikipedia": "ru:\u041c\u0430\u044f\u043a (\u0440\u0435\u0441\u0442\u043e\u0440\u0430\u043d)"}}]}