{"version": 0.6, "generator": "Overpass API 0.7.62.1 084b4234", "osm3s": {"timestamp_osm_base": "2024-04-22T13:41:45Z", "copyright": "The data included in this document is from www.openstreetmap.org. The data is made available under ODbL."}, "elements": [{"type": "node", "id": 1014200504, "lat": 48.7308916, "lon": 44.5232696, "tags": {"amenity": "restaurant"}}, {"type": "node", "id": 1308405654, "lat": 48.7261122, "lon": 44.5206049, "tags": {"amenity": "restaurant", "name": "\u0420\u0430\u0434\u0433\u043e\u0441\u0442"}}, {"type": "node", "id": 1308405685, "lat": 48.7261738, "lon": 44.5201475, "tags": {"amenity": "cafe"}}, {"type": "node", "id": 1311716243, "lat": 48.7387774, "lon": 44.5544154}, {"type": "node", "id": 1311716253, "lat": 48.7394139, "lon": 44.553777}, {"type": "node", "id": 1311716288, "lat": 48.7390863, "lon": 44.5539384}, {"type": "node", "id": 1311716298, "lat": 48.738906, "lon": 44.5540072}, {"type": "node", "id": 1311716320, "lat": 48.7393865, "lon": 44.5536819}, {"type": "node", "id": 1311716328, "lat": 48.7391505, "lon": 44.5534971}, {"type": "node", "id": 1311716331, "lat": 48.7392032, "lon": 44.5533372}, {"type": "node", "id": 1311716356, "lat": 48.7393593, "lon": 44.5543239}, {"type": "node", "id": 1311716372, "lat": 48.7392799, "lon": 44.5536826}, {"type": "node", "id": 1311716398, "lat": 48.7392799, "lon": 44.5535952}, {"type": "node", "id": 1311716400, "lat": 48.7391534, "lon": 44.5539907}, {"type": "node", "id": 1311716420, "lat": 48.7388988, "lon": 44.5531064}, {"type": "node", "id": 1311716429, "lat": 48.7387289, "lon": 44.5531379}, {"type": "node", "id": 1311716445, "lat": 48.7393014, "lon": 44.5536174}, {"type": "node", "id": 1311716541, "lat": 48.7393669, "lon": 44.5537414}, {"type": "node", "id": 1311716557, "lat": 48.7392568, "lon": 44.5536651}, {"type": "node", "id": 1311716585, "lat": 48.7386508, "lon": 44.5533747}, {"type": "node", "id": 1311716588, "lat": 48.7391802, "lon": 44.5538948}, {"type": "node", "id": 1311716603, "lat": 48.7392167, "lon": 44.5547573}, {"type": "node", "id": 1311716609, "lat": 48.7392111, "lon": 44.5537996}, {"type": "node", "id": 1311716610, "lat": 48.7388565, "lon": 44.5532346}, {"type": "node", "id": 1311716611, "lat": 48.7391173, "lon": 44.5538446}, {"type": "node", "id": 1311716629, "lat": 48.7391058, "lon": 44.5541535}, {"type": "node", "id": 1311716635, "lat": 48.7393248, "lon": 44.5542992}, {"type": "node", "id": 1357211370, "lat": 48.7387067, "lon": 44.5110941}, {"type": "node", "id": 1357211372, "lat": 48.7386557, "lon": 44.5108797}, {"type": "node", "id": 1357211373, "lat": 48.7387915, "lon": 44.51088}, {"type": "node", "id": 1357211388, "lat": 48.7386175, "lon": 44.511047}, {"type": "node", "id": 1357211393, "lat": 48.7387116, "lon": 44.5108381}, {"type": "node", "id": 1357211394, "lat": 48.7386495, "lon": 44.5111086}, {"type": "node", "id": 1357211395, "lat": 48.7386586, "lon": 44.5110686}, {"type": "node", "id": 1357211397, "lat": 48.7387388, "lon": 44.511111}, {"type": "node", "id": 1357211401, "lat": 48.7386977, "lon": 44.5111338}, {"type": "node", "id": 1357211413, "lat": 48.7386972, "lon": 44.5109015}, {"type": "node", "id": 1650359277, "lat": 48.7406967, "lon": 44.547016}, {"type": "node", "id": 1650359370, "lat": 48.7405695, "lon": 44.5470004}, {"type": "node", "id": 1650359372, "lat": 48.7407067, "lon": 44.5468294}, {"type": "node", "id": 1650359466, "lat": 48.7405795, "lon": 44.5468137}, {"type": "node", "id": 1656774654, "lat": 48.7394429, "lon": 44.5539196}, {"type": "node", "id": 1656774717, "lat": 48.7393816, "lon": 44.553875}, {"type": "node", "id": 1664495970, "lat": 48.749859, "lon": 44.5225807}, {"type": "node", "id": 1664495989, "lat": 48.7498359, "lon": 44.522417}, {"type": "node", "id": 1664496022, "lat": 48.7499553, "lon": 44.5225495}, {"type": "node", "id": 1664496301, "lat": 48.7499323, "lon": 44.5223858}, {"type": "node", "id": 1664527955, "lat": 48.7499085, "lon": 44.5225647}, {"type": "node", "id": 1664528155, "lat": 48.7498488, "lon": 44.5224128}, {"type": "node", "id": 3298084824, "lat": 48.7274639, "lon": 44.5218313, "tags": {"name": "Frant Hotel", "tourism": "hotel"}}, {"type": "node", "id": 3338698301, "lat": 48.7297839, "lon": 44.5246017, "tags": {"addr:housenumber": "62", "addr:postcode": "400005", "addr:street": "\u0443\u043b\u0438\u0446\u0430 \u0420\u043e\u043a\u043e\u0441\u0441\u043e\u0432\u0441\u043a\u043e\u0433\u043e", "amenity": "cafe", "cuisine": "regional", "name": "Eco house", "phone": "+7 (8442) 98-65-26", "website": "http://www.eco-house34.ru/"}}, {"type": "node", "id": 3340241114, "lat": 48.7245606, "lon": 44.5156294, "tags": {"amenity": "cafe", "name": "\u0411\u0438\u0441\u0442\u0440\u043e", "name:ru": "\u0411\u0438\u0441\u0442\u0440\u043e \u0444\u0440\u0430\u043d\u0442\u044d\u043b\u044c"}}, {"type": "node", "id": 3395920902, "lat": 48.7443426, "lon": 44.5192676, "tags": {"amenity": "fast_food", "brand": "\u041c\u0430\u043a\u0434\u043e\u043d\u0430\u043b\u0434\u0441", "brand:en": "McDonald's", "brand:ru": "\u041c\u0430\u043a\u0434\u043e\u043d\u0430\u043b\u0434\u0441", "brand:wikidata": "Q38076", "brand:wikipedia": "en:McDonald's", "cuisine": "burger", "name": "\u041c\u0430\u043a\u0434\u043e\u043d\u0430\u043b\u0434\u0441", "name:en": "McDonald's", "name:ru": "\u041c\u0430\u043a\u0434\u043e\u043d\u0430\u043b\u0434\u0441", "opening_hours": "10:00-23:00", "takeaway": "yes"}}, {"type": "node", "id": 3561673058, "lat": 48.7412036, "lon": 44.5325429, "tags": {"amenity": "cafe", "name": "\u0411\u043b\u0438\u043d\u0434\u0430\u0436", "opening_hours": "09:00 \u2013 20:00"}}, {"type": "node", "id": 3590142560, "lat": 48.7246016, "lon": 44.5359556}, {"type": "node", "id": 3590142561, "lat": 48.7246296, "lon": 44.5358713}, {"type": "node", "id": 3590142562, "lat": 48.7247041, "lon": 44.536034}, {"type": "node", "id": 3590142563, "lat": 48.7247321, "lon": 44.5359497}, {"type": "node", "id": 3618060299, "lat": 48.7375364, "lon": 44.5141304}, {"type": "node", "id": 3731303622, "lat": 48.7499334, "lon": 44.5225566, "tags": {"entrance": "main"}}, {"type": "node", "id": 4075124166, "lat": 48.7375007, "lon": 44.5140843, "tags": {"amenity": "restaurant", "name": "\u0410\u0439 \u0434\u0430 \u0445\u0443\u0442\u043e\u0440\u043e\u043a"}}, {"type": "node", "id": 4075124184, "lat": 48.7372277, "lon": 44.5139588}, {"type": "node", "id": 4075124185, "lat": 48.7372749, "lon": 44.5137638}, {"type": "node", "id": 4075124186, "lat": 48.7375836, "lon": 44.5139355}, {"type": "node", "id": 4682055691, "lat": 48.7280819, "lon": 44.5211669, "tags": {"amenity": "fast_food", "drive_through": "no", "name": "Aik", "outdoor_seating": "no", "takeaway": "only"}}, {"type": "node", "id": 4682094589, "lat": 48.7260241, "lon": 44.5179408, "tags": {"amenity": "fast_food", "contact:phone": "+7 844 2599882;+7 961 6611393", "contact:website": "https://confetkibaranochki.ru", "name": "\u041a\u043e\u043d\u0444\u0435\u0442\u043a\u0438-\u0431\u0430\u0440\u0430\u043d\u043e\u0447\u043a\u0438", "name:ru": "\u041a\u043e\u043d\u0444\u0435\u0442\u043a\u0438-\u0431\u0430\u0440\u0430\u043d\u043e\u0447\u043a\u0438", "opening_hours": "Mo-Su 07:30-21:00"}}, {"type": "node", "id": 4834155959, "lat": 48.7272194, "lon": 44.5388179, "tags": {"addr:city": "\u0412\u043e\u043b\u0433\u043e\u0433\u0440\u0430\u0434", "addr:housenumber": "56\u0410", "addr:postcode": "400005", "addr:street": "\u043f\u0440\u043e\u0441\u043f\u0435\u043a\u0442 \u041b\u0435\u043d\u0438\u043d\u0430", "brand": "Hilton Garden Inn", "brand:wikidata": "Q1162859", "contact:facebook": "https://www.facebook.com/hiltongardeninn.vlg", "contact:instagram": "https://www.instagram.com/hiltongardeninn_volgograd/", "contact:phone": "+7 8442 532200", "email": "reservation@hgivolgograd.ru", "internet_access": "wlan", "name": "Hilton Garden Inn Volgograd", "operator": "Hilton", "rooms": "157", "stars": "4", "tourism": "hotel", "website": "http://www.hilton.ru/hotels/hilton-garden-inn-volgograd/?WT.mc_id=zLMWA0RU1GI2NaturalSearch3Google_LGHotelListing4DGGeneric_Sep5LocalSearch6VOGGIGI7EN8i1", "wheelchair": "yes"}}, {"type": "node", "id": 5891494705, "lat": 48.7517229, "lon": 44.5444254}, {"type": "node", "id": 5891494706, "lat": 48.7519577, "lon": 44.5444907}, {"type": "node", "id": 5891494707, "lat": 48.7521526, "lon": 44.544615}, {"type": "node", "id": 5891494708, "lat": 48.7521279, "lon": 44.5442966}, {"type": "node", "id": 5891494709, "lat": 48.751707, "lon": 44.5442215}, {"type": "node", "id": 5926389708, "lat": 48.7520932, "lon": 44.5447168}, {"type": "node", "id": 5926389709, "lat": 48.7519373, "lon": 44.5446435}, {"type": "node", "id": 6536736991, "lat": 48.7438549, "lon": 44.5193803, "tags": {"addr:city": "\u0412\u043e\u043b\u0433\u043e\u0433\u0440\u0430\u0434", "addr:housenumber": "110\u0411", "addr:street": "\u0443\u043b\u0438\u0446\u0430 \u0417\u0435\u043c\u043b\u044f\u0447\u043a\u0438", "amenity": "fast_food", "brand": "Coffee Like", "brand:wikidata": "Q55662627", "brand:wikipedia": "ru:Coffee Like", "contact:email": "hotline@coffee-like.com", "contact:phone": "+7 341 2908292;+7 800 3334130", "contact:website": "https://coffee-like.com/", "cuisine": "coffee_shop", "name": "Coffee Like", "opening_hours": "Mo-Su 10:00-22:00", "operator": "\u0420\u043e\u0434\u0438\u043e\u043d\u043e\u0432\u0430 \u0422\u0430\u0442\u044c\u044f\u043d\u0430 \u0410\u043d\u0434\u0440\u0435\u0435\u0432\u043d\u0430", "takeaway": "yes"}}, {"type": "node", "id": 6553535427, "lat": 48.7400193, "lon": 44.5479574}, {"type": "node", "id": 6553535428, "lat": 48.7399804, "lon": 44.5479722}, {"type": "node", "id": 6553535429, "lat": 48.7399654, "lon": 44.5480279}, {"type": "node", "id": 6553535430, "lat": 48.7402856, "lon": 44.5482257}, {"type": "node", "id": 6553535431, "lat": 48.7403096, "lon": 44.5481366}, {"type": "node", "id": 6690633322, "lat": 48.7437791, "lon": 44.5195735, "tags": {"amenity": "cafe", "contact:email": "horeca@33pingvina.ru", "contact:phone": "+7 800 1005033", "contact:website": "https://33pingvina.ru/", "cuisine": "ice_cream", "name": "33 \u043f\u0438\u043d\u0433\u0432\u0438\u043d\u0430", "opening_hours": "Mo-Su 10:00-21:00", "operator": "\u0418\u043d\u0442\u0435\u0440\u043e\u043f\u0442", "shop": "ice_cream"}}, {"type": "node", "id": 6745214150, "lat": 48.7277358, "lon": 44.5440093, "tags": {"amenity": "cafe", "name": "\u0411\u0430\u043a\u0443"}}, {"type": "node", "id": 6970723599, "lat": 48.7295034, "lon": 44.5239623, "tags": {"amenity": "fast_food"}}, {"type": "node", "id": 6996198156, "lat": 48.743756, "lon": 44.5189104, "tags": {"addr:city": "\u0412\u043e\u043b\u0433\u043e\u0433\u0440\u0430\u0434", "addr:housenumber": "110\u0411", "addr:street": "\u0443\u043b\u0438\u0446\u0430 \u0417\u0435\u043c\u043b\u044f\u0447\u043a\u0438", "amenity": "fast_food", "brand": "Coffee Like", "brand:wikidata": "Q55662627", "brand:wikipedia": "ru:Coffee Like", "contact:email": "hotline@coffee-like.com", "contact:phone": "+7 341 2908292;+7 800 3334130", "contact:website": "https://coffee-like.com/", "cuisine": "coffee_shop", "name": "Coffee Like", "opening_hours": "Mo-Su 10:00-22:00", "operator": "\u0420\u043e\u0434\u0438\u043e\u043d\u043e\u0432\u0430 \u0422\u0430\u0442\u044c\u044f\u043d\u0430 \u0410\u043d\u0434\u0440\u0435\u0435\u0432\u043d\u0430", "takeaway": "yes"}}, {"type": "node", "id": 7505840263, "lat": 48.7261438, "lon": 44.5411867, "tags": {"amenity": "fast_food", "brand": "\u0411\u0443\u0440\u0433\u0435\u0440 \u041a\u0438\u043d\u0433", "brand:en": "Burger King", "brand:ru": "\u0411\u0443\u0440\u0433\u0435\u0440 \u041a\u0438\u043d\u0433", "brand:wikidata": "Q177054", "contact:email": "FeedBack@burgerking.ru", "contact:phone": "+7 495 5445000", "contact:vk": "https://vk.com/burgerking", "contact:website": "https://burgerkingrus.ru/", "cuisine": "burger", "name": "\u0411\u0443\u0440\u0433\u0435\u0440 \u041a\u0438\u043d\u0433", "name:en": "Burger King", "name:ru": "\u0411\u0443\u0440\u0433\u0435\u0440 \u041a\u0438\u043d\u0433", "opening_hours": "10:00-22:00", "operator": "\u0411\u0423\u0420\u0413\u0415\u0420 \u0420\u0423\u0421", "takeaway": "yes"}}, {"type": "node", "id": 8809143417, "lat": 48.7261951, "lon": 44.5409301, "tags": {"amenity": "cafe", "name:en": "Basetta", "opening_hours": "Mo-Su 09:00-22:00"}}, {"type": "node", "id": 9356801048, "lat": 48.7411341, "lon": 44.5324352, "tags": {"name": "\u0421\u0442\u0430\u043b\u0438\u043d\u0433\u0440\u0430\u0434", "tourism": "hotel", "website": "http://www.hotel-stalingrad.ru/"}}, {"type": "node", "id": 9357867713, "lat": 48.743503, "lon": 44.5192858, "tags": {"amenity": "fast_food", "brand": "\u041c\u0430\u043a\u0434\u043e\u043d\u0430\u043b\u0434\u0441", "brand:en": "McDonald's", "brand:ru": "\u041c\u0430\u043a\u0434\u043e\u043d\u0430\u043b\u0434\u0441", "brand:wikidata": "Q38076", "brand:wikipedia": "en:McDonald's", "cuisine": "burger", "name": "\u041c\u0430\u043a\u0434\u043e\u043d\u0430\u043b\u0434\u0441", "name:en": "McDonald's", "name:ru": "\u041c\u0430\u043a\u0434\u043e\u043d\u0430\u043b\u0434\u0441", "takeaway": "yes"}}, {"type": "node", "id": 9357867714, "lat": 48.7435474, "lon": 44.5194351, "tags": {"alt_name": "Kentucky Fried Chicken", "amenity": "fast_food", "brand": "KFC", "brand:wikidata": "Q524757", "brand:wikipedia": "en:KFC", "cuisine": "chicken", "name": "KFC", "takeaway": "yes"}}, {"type": "node", "id": 9357867715, "lat": 48.7435884, "lon": 44.5195636, "tags": {"amenity": "fast_food", "name": "\u0421\u0443\u0448\u0438\u0412\u0435\u0441\u043b\u0430"}}, {"type": "node", "id": 9357867716, "lat": 48.7436292, "lon": 44.5197043, "tags": {"amenity": "fast_food", "name": "\u0411\u043b\u0438\u043d\u0411\u0435\u0440\u0438"}}, {"type": "node", "id": 9471301183, "lat": 48.7493121, "lon": 44.5484463, "tags": {"amenity": "cafe"}}, {"type": "node", "id": 9919152362, "lat": 48.7278121, "lon": 44.5439306, "tags": {"amenity": "fast_food", "brand": "Coffee Like", "brand:wikidata": "Q55662627", "contact:phone": "+7 341 2908292;+7 800 3334130", "contact:website": "https://coffee-like.com/", "cuisine": "coffee_shop", "name": "Coffee Like", "opening_hours": "Mo-Su 10:00-22:00", "takeaway": "yes"}}, {"type": "node", "id": 9919152366, "lat": 48.7244118, "lon": 44.5382767, "tags": {"amenity": "fast_food", "brand": "Coffee Like", "brand:wikidata": "Q55662627", "contact:phone": "+7 341 2908292;+7 800 3334130", "contact:website": "https://coffee-like.com/", "cuisine": "coffee_shop", "name": "Coffee Like", "opening_hours": "Mo-Su 08:30-22:00", "takeaway": "yes"}}, {"type": "node", "id": 11078520789, "lat": 48.7285881, "lon": 44.5218336}, {"type": "node", "id": 11078520790, "lat": 48.7285381, "lon": 44.5219067}, {"type": "node", "id": 11078520791, "lat": 48.728477, "lon": 44.5218106}, {"type": "node", "id": 11078520792, "lat": 48.728527, "lon": 44.5217375}, {"type": "node", "id": 11085234754, "lat": 48.7244472, "lon": 44.5261819}, {"type": "node", "id": 11085234755, "lat": 48.7244266, "lon": 44.5262873}, {"type": "node", "id": 11085234756, "lat": 48.7243556, "lon": 44.5264013}, {"type": "node", "id": 11085234757, "lat": 48.7242871, "lon": 44.5263032}, {"type": "node", "id": 11085234758, "lat": 48.7243219, "lon": 44.5261255}, {"type": "node", "id": 11169271822, "lat": 48.7445379, "lon": 44.5183982, "tags": {"amenity": "fast_food", "contact:phone": "+7 927 5140057", "contact:website": "https://www.vitajuice.ru", "cuisine": "juice", "name": "Vita Juice", "opening_hours": "Mo-Su 10:00-22:00"}}, {"type": "node", "id": 11806908311, "lat": 48.7518705, "lon": 44.5492017, "tags": {"amenity": "fast_food", "contact:phone": "+7 961 6961111;+7 961 6962222;+7 961 6963333", "name": "Aik \u0411\u0438\u0441\u0442\u0440\u043e", "opening_hours": "24/7"}}, {"type": "way", "id": 116329989, "nodes": [1311716429, 1311716610, 1311716420, 1311716331, 1311716328, 1311716398, 1311716557, 1311716372, 1311716445, 1311716320, 1311716541, 1311716253, 1656774717, 1656774654, 1311716635, 1311716356, 1311716603, 1311716243, 1311716298, 1311716629, 1311716400, 1311716288, 1311716611, 1311716588, 1311716609, 1311716585, 1311716429], "tags": {"addr:city": "\u0412\u043e\u043b\u0433\u043e\u0433\u0440\u0430\u0434", "addr:housenumber": "73", "addr:street": "\u0443\u043b\u0438\u0446\u0430 \u0427\u0443\u0439\u043a\u043e\u0432\u0430", "building": "hotel", "building:levels": "14", "fire_operator": "RU-VGG-1-3", "fire_rank": "2", "name": "\u0422\u0443\u0440\u0438\u0441\u0442", "roof:colour": "grey", "tourism": "hotel"}}, {"type": "way", "id": 121183634, "nodes": [1357211372, 1357211388, 1357211395, 1357211394, 1357211401, 1357211370, 1357211397, 1357211373, 1357211393, 1357211413, 1357211372], "tags": {"addr:housenumber": "94\u0410", "addr:postcode": "400010", "addr:street": "\u0443\u043b\u0438\u0446\u0430 \u041a\u0430\u0447\u0438\u043d\u0446\u0435\u0432", "building": "yes", "name": "\u041b\u0430\u043c\u0431\u0435\u0440\u0442", "phone": "+7 988 009 61 49", "tourism": "hotel"}}, {"type": "way", "id": 152201268, "nodes": [1650359372, 1650359466, 1650359370, 1650359277, 1650359372], "tags": {"addr:city": "\u0412\u043e\u043b\u0433\u043e\u0433\u0440\u0430\u0434", "addr:housenumber": "61", "addr:street": "\u043f\u0440\u043e\u0441\u043f\u0435\u043a\u0442 \u0438\u043c. \u0412.\u0418. \u041b\u0435\u043d\u0438\u043d\u0430", "amenity": "cafe", "building": "yes", "name": "\u0410\u0440\u0438100\u043a\u0440\u0430\u0442"}}, {"type": "way", "id": 153808981, "nodes": [1664528155, 1664495989, 1664495970, 1664527955, 3731303622, 1664496022, 1664496301, 1664528155], "tags": {"addr:housenumber": "92", "addr:street": "\u0443\u043b\u0438\u0446\u0430 \u0417\u0435\u043c\u043b\u044f\u0447\u043a\u0438", "amenity": "cafe", "building": "yes", "building:levels": "1", "name": "\u0423 \u043a\u0430\u043c\u0438\u043d\u0430", "phone": "+7-904-770-79-99", "website": "http://ykamina34.ru/"}}, {"type": "way", "id": 353236606, "nodes": [3590142562, 3590142560, 3590142561, 3590142563, 3590142562], "tags": {"addr:country": "RU", "addr:housenumber": "49\u0411", "addr:street": "\u043f\u0440\u043e\u0441\u043f\u0435\u043a\u0442 \u041b\u0435\u043d\u0438\u043d\u0430", "amenity": "cafe", "building": "yes", "cuisine": "georgian", "internet_access": "wlan", "name": "\u0427\u0438\u0442\u043e \u0413\u0432\u0440\u0438\u0442\u043e", "opening_hours": "Mo-Su 11:00-23:00", "phone": "+7 (8442) 50-50-57", "website": "https://chitogvrito.cafe/"}}, {"type": "way", "id": 405305478, "nodes": [4075124186, 3618060299, 4075124184, 4075124185, 4075124186], "tags": {"addr:city": "\u0412\u043e\u043b\u0433\u043e\u0433\u0440\u0430\u0434", "addr:housenumber": "63\u0411", "addr:street": "\u0443\u043b\u0438\u0446\u0430 \u041a\u0430\u0447\u0438\u043d\u0446\u0435\u0432", "building": "hotel", "building:levels": "3", "name": "\u0425\u0443\u0442\u043e\u0440\u043e\u043a", "name:en": "Hutorok", "name:ru": "\u0425\u0443\u0442\u043e\u0440\u043e\u043a", "operator": "\u0418\u041f \u0424\u0440\u0430\u043d\u0433\u0443\u043b\u044f\u043d \u0410. \u041f.", "parking": "yes", "payment:cash": "yes", "payment:mastercard": "yes", "payment:visa": "yes", "rooms": "28", "tourism": "hotel", "website": "http://www.franthotel.ru/hotel-hutorok"}}, {"type": "way", "id": 623917222, "nodes": [5891494709, 5891494708, 5891494707, 5926389708, 5926389709, 5891494706, 5891494705, 5891494709], "tags": {"addr:city": "\u0412\u043e\u043b\u0433\u043e\u0433\u0440\u0430\u0434", "addr:housenumber": "1\u0410", "addr:street": "\u0427\u0435\u0440\u043d\u043e\u044f\u0440\u0441\u043a\u0430\u044f \u0443\u043b\u0438\u0446\u0430", "building": "yes", "building:levels": "2", "fire_operator": "RU-VGG-1-2", "fire_rank": "2", "name": "\u041e\u041e\u041e \u00ab\u041b\u043e\u0442\u043e\u0441\u00bb \u0413\u043e\u0441\u0442\u0438\u043d\u0438\u0447\u043d\u043e-\u043e\u0437\u0434\u043e\u0440\u043e\u0432\u0438\u0442\u0435\u043b\u044c\u043d\u044b\u0439 \u0446\u0435\u043d\u0442\u0440 \u00ab\u0414\u0432\u043e\u0440\u0438\u043a\u00bb", "tourism": "hotel"}}, {"type": "way", "id": 697823689, "nodes": [6553535427, 6553535428, 6553535429, 6553535430, 6553535431, 6553535427], "tags": {"addr:city": "\u0412\u043e\u043b\u0433\u043e\u0433\u0440\u0430\u0434", "addr:street": "\u043f\u0440\u043e\u0441\u043f\u0435\u043a\u0442 \u0438\u043c. \u0412.\u0418. \u041b\u0435\u043d\u0438\u043d\u0430", "amenity": "restaurant", "building": "yes", "name": "\u041f\u043e\u0431\u0435\u0434\u0430", "opening_hours": "Mo-Su 12:00-23:00", "phone": "+7 8442 26 76 26", "website": "https://taplink.cc/pobeda_restoran"}}, {"type": "way", "id": 1193528487, "nodes": [11078520789, 11078520790, 11078520791, 11078520792, 11078520789], "tags": {"addr:city": "\u0412\u043e\u043b\u0433\u043e\u0433\u0440\u0430\u0434", "addr:housenumber": "18/1", "addr:postcode": "400050", "addr:street": "\u0443\u043b\u0438\u0446\u0430 \u0425\u0438\u0440\u043e\u0441\u0438\u043c\u044b", "amenity": "cafe", "building": "yes", "name": "\u0411\u043b\u0438\u043d\u0411\u0435\u0440\u0438", "opening_hours": "Mo-Su 08:00-24:00"}}, {"type": "way", "id": 1194219949, "nodes": [11085234754, 11085234755, 11085234756, 11085234757, 11085234758, 11085234754], "tags": {"addr:city": "\u0412\u043e\u043b\u0433\u043e\u0433\u0440\u0430\u0434", "addr:housenumber": "63\u0410", "addr:postcode": "400050", "addr:street": "\u0443\u043b\u0438\u0446\u0430 \u041f\u0430\u0440\u0445\u043e\u043c\u0435\u043d\u043a\u043e", "amenity": "cafe", "building": "yes", "cuisine": "chinese;asian", "name": "\u0417\u043e\u043b\u043e\u0442\u043e\u0439 \u0434\u0440\u0430\u043a\u043e\u043d", "opening_hours": "Mo-Su 12:00-24:00", "phone": "+7 (8442) 25-10-00", "website": "https://drakon34.ru/"}}]}